[
  {
    "id": "wioksal_zeflik_1",
    "product": {
      "item": "sponge",
      "qty": 1,
      "name": "Gąbka",
      "nameEn": "Sponge"
    },
    "villageName": "Bernard syn Zeflika",
    "price1": {
      "item": "emerald",
      "qty": 1,
      "name": "Emerald",
      "nameEn": "Szmaragd"
    },
    "storeName": "Zeflik",
    "storeLocation": "Wioksal",
    "storeOwner": "AdminShop",
    "x": -2524,
    "y": 97,
    "z": 2871
  },
  {
    "id": "wioksal_zeflik_2",
    "product": {
      "item": "netherite_scrap",
      "qty": 1,
      "name": "Odłamek netherytu",
      "nameEn": "Netherite Scrap"
    },
    "villageName": "Bernard syn Zeflika",
    "price1": {
      "item": "paper",
      "qty": 1,
      "name": "50 Kibelionów",
      "nameEn": "50 Kibelionów"
    },
    "price2": {
      "item": "paper",
      "qty": 20,
      "name": "Kibelion",
      "nameEn": "Kibelion"
    },
    "storeName": "Zeflik",
    "storeLocation": "Wioksal",
    "storeOwner": "AdminShop",
    "x": -2524,
    "y": 97,
    "z": 2871
  },
  {
    "id": "wioksal_zeflik_3",
    "product": {
      "item": "villager_spawn_egg",
      "qty": 1,
      "customItem": true,
      "name": "Sklepikarz",
      "nameEn": "Shopkeeper"
    },
    "villageName": "Bernard syn Zeflika",
    "price1": {
      "item": "paper",
      "qty": 15,
      "customItem": true,
      "name": "Kibelion",
      "nameEn": "Kibelion"
    },
    "storeName": "Zeflik",
    "storeLocation": "Wioksal",
    "storeOwner": "AdminShop",
    "x": -2524,
    "y": 97,
    "z": 2871
  },
  {
    "id": "wioksal_zeflik_4",
    "product": {
      "item": "villager_spawn_egg",
      "qty": 1,
      "enchanted": true,
      "name": "Jajo przyzywające osadnika",
      "nameEn": "Villager Spawn Egg"
    },
    "villageName": "Bernard syn Zeflika",
    "price1": {
      "item": "paper",
      "qty": 30,
      "customItem": true,
      "name": "Kibelion",
      "nameEn": "Kibelion"
    },
    "storeName": "Zeflik",
    "storeLocation": "Wioksal",
    "storeOwner": "AdminShop",
    "x": -2524,
    "y": 97,
    "z": 2871
  },
  {
    "id": "wioksal_zeflik_9",
    "product": {
      "item": "glow_item_frame",
      "qty": 1,
      "customItem": true,
      "name": "Niewidzialna świecąca ramka",
      "nameEn": "Invisible Glow Item Frame"
    },
    "villageName": "Bernard syn Zeflika",
    "price1": {
      "item": "glow_item_frame",
      "qty": 1,
      "name": "Świecąca ramka na przedmiot",
      "nameEn": "Glow Item Frame"
    },
    "price2": {
      "item": "emerald",
      "qty": 2,
      "name": "Szmaragd",
      "nameEn": "Emerald"
    },
    "storeName": "Zeflik",
    "storeLocation": "Wioksal",
    "storeOwner": "AdminShop",
    "x": -2524,
    "y": 97,
    "z": 2871
  },
  {
    "id": "wioksal_zeflik_8",
    "product": {
      "item": "item_frame",
      "qty": 1,
      "customItem": true,
      "name": "Niewidzialna ramka",
      "nameEn": "Invisible Item Frame"
    },
    "villageName": "Bernard syn Zeflika",
    "price1": {
      "item": "item_frame",
      "qty": 1,
      "name": "Ramka na przedmiot",
      "nameEn": "Item Frame"
    },
    "price2": {
      "item": "emerald",
      "qty": 2,
      "name": "Szmaragd",
      "nameEn": "Emerald"
    },
    "storeName": "Zeflik",
    "storeLocation": "Wioksal",
    "storeOwner": "AdminShop",
    "x": -2524,
    "y": 97,
    "z": 2871
  },
  {
    "id": "wioksal_zeflik_6",
    "product": {
      "item": "magenta_shulker_box",
      "qty": 1,
      "name": "Alfabet",
      "nameEn": "Alfabet"
    },
    "villageName": "Bernard syn Zeflika",
    "price1": {
      "item": "paper",
      "qty": 30,
      "name": "Kibelion",
      "nameEn": "Kibelion"
    },
    "storeName": "Zeflik",
    "storeLocation": "Wioksal",
    "storeOwner": "AdminShop",
    "notes": "Shulker z banerami w literki",
    "x": -2524,
    "y": 97,
    "z": 2871
  },
  {
    "id": "wioksal_zeflik_7",
    "product": {
      "item": "pink_shulker_box",
      "qty": 1,
      "name": "Znaki specjalne i cyfry",
      "nameEn": "Znaki specjalne i cyfry"
    },
    "villageName": "Bernard syn Zeflika",
    "price1": {
      "item": "paper",
      "qty": 20,
      "name": "Kibelion",
      "nameEn": "Kibelion"
    },
    "storeName": "Zeflik",
    "storeLocation": "Wioksal",
    "storeOwner": "AdminShop",
    "notes": "Shulker z banerami w znaki specjalne i cyfry",
    "x": -2524,
    "y": 97,
    "z": 2871
  },
  {
    "id": "wioksal_zeflik_5",
    "product": {
      "item": "firework_rocket",
      "qty": 64,
      "customItem": true,
      "name": "Fajerwerk od Zeflika",
      "nameEn": "Fajerwerk od Zeflika"
    },
    "villageName": "Bernard syn Zeflika",
    "price1": {
      "item": "paper",
      "qty": 10,
      "name": "Kibelion",
      "nameEn": "Kibelion"
    },
    "storeName": "Zeflik",
    "storeLocation": "Wioksal",
    "storeOwner": "AdminShop",
    "x": -2524,
    "y": 97,
    "z": 2871
  },
  {
    "id": "palkizland_panjan_1",
    "product": {
      "item": "netherite_upgrade_smithing_template",
      "qty": 1,
      "name": "Netherytowe ulepszenie",
      "nameEn": "Netherite Upgrade"
    },
    "price1": {
      "item": "netherite_scrap",
      "qty": 2,
      "name": "Odłamek netherytu",
      "nameEn": "Netherite Scrap"
    },
    "price2": {
      "item": "skull_banner_pattern",
      "qty": 1,
      "enchanted": true,
      "customItem": true,
      "name": "Obligacje skarbowe",
      "nameEn": "Obligacje skarbowe"
    },
    "storeName": "Pan Jan",
    "storeLocation": "Pałkizland",
    "storeOwner": "AdminShop",
    "x": 1669,
    "y": 71,
    "z": 1732
  },
  {
    "id": "palkizland_panjan_2",
    "product": {
      "item": "egg",
      "qty": 1,
      "customItem": true,
      "name": "Jajco",
      "nameEn": "Jajco"
    },
    "price1": {
      "item": "paper",
      "qty": 1,
      "name": "Kibelion",
      "nameEn": "Kibelion"
    },
    "storeName": "Pan Jan",
    "storeLocation": "Pałkizland",
    "storeOwner": "AdminShop",
    "x": 1669,
    "y": 71,
    "z": 1732
  },
  {
    "id": "spawnowice_perlage_1",
    "product": {
      "item": "paper",
      "qty": 1,
      "customItem": true,
      "name": "Kibelion",
      "nameEn": "Kibelion"
    },
    "price1": {
      "item": "ender_pearl",
      "qty": 16,
      "name": "Enderperła",
      "nameEn": "Ender Pearl"
    },
    "storeName": "Perlage Menczybombiusz",
    "storeLocation": "Spawnowice",
    "storeOwner": "AdminShop",
    "x": -123,
    "y": 155,
    "z": -41
  },
  {
    "id": "pieklostrada_ritoranta_1",
    "product": {
      "item": "paper",
      "qty": 1,
      "customItem": true,
      "name": "Kibelion",
      "nameEn": "Kibelion"
    },
    "price1": {
      "item": "netherrack",
      "qty": 64,
      "name": "Netherrack",
      "nameEn": "Netherrack"
    },
    "price2": {
      "item": "netherrack",
      "qty": 32,
      "name": "Netherrack",
      "nameEn": "Netherrack"
    },
    "storeName": "Ritoranta",
    "storeLocation": "Piekłostrada",
    "storeOwner": "AdminShop"
  },
  {
    "id": "debina_adam_1",
    "product": {
      "item": "paper",
      "qty": 1,
      "customItem": true,
      "name": "Kibelion",
      "nameEn": "Kibelion"
    },
    "price1": {
      "item": "copper_block",
      "qty": 2,
      "name": "Blok miedzi",
      "nameEn": "Copper Block"
    },
    "storeName": "Adam",
    "storeLocation": "Dębina",
    "storeOwner": "AdminShop",
    "x": -1368,
    "y": 64,
    "z": -1004
  },
  {
    "id": "debina_adam_2",
    "product": {
      "item": "water_bottle",
      "qty": 1,
      "customItem": true,
      "name": "Woda Vytautas",
      "nameEn": "Woda Vytautas"
    },
    "price1": {
      "item": "emerald",
      "qty": 1,
      "name": "Szmaragd",
      "nameEn": "Emerald"
    },
    "storeName": "Adam",
    "storeLocation": "Dębina",
    "storeOwner": "AdminShop",
    "x": -1368,
    "y": 64,
    "z": -1004
  },
  {
    "id": "poczta_poczmistrz_1",
    "product": {
      "item": "writable_book",
      "qty": 1,
      "customItem": true,
      "name": "List standard",
      "nameEn": "List standard"
    },
    "price1": {
      "item": "emerald",
      "qty": 1,
      "name": "Szmaragd",
      "nameEn": "Emerald"
    },
    "storeName": "Poczmistrz",
    "storeLocation": "Oddziały Poczty",
    "storeOwner": "AdminShop"
  },
  {
    "id": "poczta_poczmistrz_2",
    "product": {
      "item": "writable_book",
      "qty": 1,
      "customItem": true,
      "name": "Etykieta paczki",
      "nameEn": "Etykieta paczki"
    },
    "price1": {
      "item": "emerald",
      "qty": 3,
      "name": "Szmaragd",
      "nameEn": "Emerald"
    },
    "storeName": "Poczmistrz",
    "storeLocation": "Oddziały Poczty",
    "storeOwner": "AdminShop"
  },
  {
    "id": "dentgino_pankracy_1",
    "product": {
      "item": "potion_night_vision",
      "qty": 1,
      "customItem": true,
      "name": "MOCNY FULL",
      "nameEn": "MOCNY FULL"
    },
    "villageName": "Pankracy Mendelejew",
    "price1": {
      "item": "emerald",
      "qty": 1,
      "name": "Szmaragd",
      "nameEn": "Emerald"
    },
    "storeName": "MOSTOR",
    "storeLocation": "Dentgino",
    "storeOwner": "AdminShop",
    "x": 3520,
    "y": 64,
    "z": 3799
  },
  {
    "id": "dentgino_pankracy_2",
    "product": {
      "item": "water_bottle",
      "qty": 1,
      "customItem": true,
      "name": "Woda Vytautas",
      "nameEn": "Woda Vytautas"
    },
    "villageName": "Pankracy Mendelejew",
    "price1": {
      "item": "emerald",
      "qty": 1,
      "name": "Szmaragd",
      "nameEn": "Emerald"
    },
    "storeName": "MOSTOR",
    "storeLocation": "Dentgino",
    "storeOwner": "AdminShop",
    "x": 3520,
    "y": 64,
    "z": 3799
  },
  {
    "id": "dentgino_pankracy_3",
    "product": {
      "item": "potion_harming",
      "qty": 1,
      "customItem": true,
      "name": "Gensty Glut",
      "nameEn": "Gensty Glut"
    },
    "villageName": "Pankracy Mendelejew",
    "price1": {
      "item": "emerald",
      "qty": 4,
      "name": "Szmaragd",
      "nameEn": "Emerald"
    },
    "storeName": "MOSTOR",
    "storeLocation": "Dentgino",
    "storeOwner": "AdminShop",
    "x": 3520,
    "y": 64,
    "z": 3799
  },
  {
    "id": "dentgino_pankracy_4",
    "product": {
      "item": "potion_strength",
      "qty": 1,
      "customItem": true,
      "name": "Wywar z baloryby",
      "nameEn": "Wywar z baloryby"
    },
    "villageName": "Pankracy Mendelejew",
    "price1": {
      "item": "paper",
      "qty": 2,
      "customItem": true,
      "name": "Kibelion",
      "nameEn": "Kibelion"
    },
    "storeName": "MOSTOR",
    "storeLocation": "Dentgino",
    "storeOwner": "AdminShop",
    "x": 3520,
    "y": 64,
    "z": 3799
  },
  {
    "id": "ciechocinek_gustaw_1",
    "product": {
      "item": "angler_pottery_sherd",
      "qty": 2,
      "name": "Odłamek ceramiki \"Rybak\"",
      "nameEn": "Angler Pottery Sherd"
    },
    "price1": {
      "item": "angler_pottery_sherd",
      "qty": 1,
      "name": "Odłamek ceramiki \"Rybak\"",
      "nameEn": "Angler Pottery Sherd"
    },
    "price2": {
      "item": "brick",
      "qty": 1,
      "name": "Cegła",
      "nameEn": "Brick"
    },
    "storeName": "Garncarz Gustaw",
    "storeLocation": "Ciechocinek",
    "storeOwner": "AdminShop",
    "x": -985,
    "y": 72,
    "z": 1886
  },
  {
    "id": "ciechocinek_gustaw_2",
    "product": {
      "item": "archer_pottery_sherd",
      "qty": 2,
      "name": "Odłamek ceramiki \"Łucznik\"",
      "nameEn": "Archer Pottery Sherd"
    },
    "price1": {
      "item": "archer_pottery_sherd",
      "qty": 1,
      "name": "Odłamek ceramiki \"Łucznik\"",
      "nameEn": "Archer Pottery Sherd"
    },
    "price2": {
      "item": "brick",
      "qty": 1,
      "name": "Cegła",
      "nameEn": "Brick"
    },
    "storeName": "Garncarz Gustaw",
    "storeLocation": "Ciechocinek",
    "storeOwner": "AdminShop",
    "x": -985,
    "y": 72,
    "z": 1886
  },
  {
    "id": "ciechocinek_gustaw_3",
    "product": {
      "item": "arms_up_pottery_sherd",
      "qty": 2,
      "name": "Odłamek ceramiki \"Ręce w górze\"",
      "nameEn": "Archer Pottery Sherd"
    },
    "price1": {
      "item": "arms_up_pottery_sherd",
      "qty": 1,
      "name": "Odłamek ceramiki \"Ręce w górze\"",
      "nameEn": "Arms Up Pottery Sherd"
    },
    "price2": {
      "item": "brick",
      "qty": 1,
      "name": "Cegła",
      "nameEn": "Brick"
    },
    "storeName": "Garncarz Gustaw",
    "storeLocation": "Ciechocinek",
    "storeOwner": "AdminShop",
    "x": -985,
    "y": 72,
    "z": 1886
  },
  {
    "id": "ciechocinek_gustaw_4",
    "product": {
      "item": "blade_pottery_sherd",
      "qty": 2,
      "name": "Odłamek ceramiki \"Ostrze\"",
      "nameEn": "Blade Pottery Sherd"
    },
    "price1": {
      "item": "blade_pottery_sherd",
      "qty": 1,
      "name": "Odłamek ceramiki \"Ostrze\"",
      "nameEn": "Blade Pottery Sherd"
    },
    "price2": {
      "item": "brick",
      "qty": 1,
      "name": "Cegła",
      "nameEn": "Brick"
    },
    "storeName": "Garncarz Gustaw",
    "storeLocation": "Ciechocinek",
    "storeOwner": "AdminShop",
    "x": -985,
    "y": 72,
    "z": 1886
  },
  {
    "id": "ciechocinek_gustaw_5",
    "product": {
      "item": "brewer_pottery_sherd",
      "qty": 2,
      "name": "Odłamek ceramiki \"Alchemik\"",
      "nameEn": "Brewer Pottery Sherd"
    },
    "price1": {
      "item": "brewer_pottery_sherd",
      "qty": 1,
      "name": "Odłamek ceramiki \"Alchemik\"",
      "nameEn": "Brewer Pottery Sherd"
    },
    "price2": {
      "item": "brick",
      "qty": 1,
      "name": "Cegła",
      "nameEn": "Brick"
    },
    "storeName": "Garncarz Gustaw",
    "storeLocation": "Ciechocinek",
    "storeOwner": "AdminShop",
    "x": -985,
    "y": 72,
    "z": 1886
  },
  {
    "id": "ciechocinek_gustaw_6",
    "product": {
      "item": "burn_pottery_sherd",
      "qty": 2,
      "name": "Odłamek ceramiki \"Płomień\"",
      "nameEn": "Burn Pottery Sherd"
    },
    "price1": {
      "item": "burn_pottery_sherd",
      "qty": 1,
      "name": "Odłamek ceramiki \"Płomień\"",
      "nameEn": "Burn Pottery Sherd"
    },
    "price2": {
      "item": "brick",
      "qty": 1,
      "name": "Cegła",
      "nameEn": "Brick"
    },
    "storeName": "Garncarz Gustaw",
    "storeLocation": "Ciechocinek",
    "storeOwner": "AdminShop",
    "x": -985,
    "y": 72,
    "z": 1886
  },
  {
    "id": "ciechocinek_gustaw_7",
    "product": {
      "item": "danger_pottery_sherd",
      "qty": 2,
      "name": "Odłamek ceramiki \"Zagrożenie\"",
      "nameEn": "Danger Pottery Sherd"
    },
    "price1": {
      "item": "danger_pottery_sherd",
      "qty": 1,
      "name": "Odłamek ceramiki \"Zagrożenie\"",
      "nameEn": "Danger Pottery Sherd"
    },
    "price2": {
      "item": "brick",
      "qty": 1,
      "name": "Cegła",
      "nameEn": "Brick"
    },
    "storeName": "Garncarz Gustaw",
    "storeLocation": "Ciechocinek",
    "storeOwner": "AdminShop",
    "x": -985,
    "y": 72,
    "z": 1886
  },
  {
    "id": "ciechocinek_gustaw_8",
    "product": {
      "item": "explorer_pottery_sherd",
      "qty": 2,
      "name": "Odłamek ceramiki \"Odkrywca\"",
      "nameEn": "Explorer Pottery Sherd"
    },
    "price1": {
      "item": "explorer_pottery_sherd",
      "qty": 1,
      "name": "Odłamek ceramiki \"Odkrywca\"",
      "nameEn": "Explorer Pottery Sherd"
    },
    "price2": {
      "item": "brick",
      "qty": 1,
      "name": "Cegła",
      "nameEn": "Brick"
    },
    "storeName": "Garncarz Gustaw",
    "storeLocation": "Ciechocinek",
    "storeOwner": "AdminShop",
    "x": -985,
    "y": 72,
    "z": 1886
  },
  {
    "id": "ciechocinek_gustaw_9",
    "product": {
      "item": "flow_pottery_sherd",
      "qty": 2,
      "name": "Odłamek ceramiki \"Nurt\"",
      "nameEn": "Flow Pottery Sherd"
    },
    "price1": {
      "item": "flow_pottery_sherd",
      "qty": 1,
      "name": "Odłamek ceramiki \"Nurt\"",
      "nameEn": "Flow Pottery Sherd"
    },
    "price2": {
      "item": "brick",
      "qty": 1,
      "name": "Cegła",
      "nameEn": "Brick"
    },
    "storeName": "Garncarz Gustaw",
    "storeLocation": "Ciechocinek",
    "storeOwner": "AdminShop",
    "x": -985,
    "y": 72,
    "z": 1886
  },
  {
    "id": "ciechocinek_gustaw_10",
    "product": {
      "item": "friend_pottery_sherd",
      "qty": 2,
      "name": "Odłamek ceramiki \"Druh\"",
      "nameEn": "Friend Pottery Sherd"
    },
    "price1": {
      "item": "friend_pottery_sherd",
      "qty": 1,
      "name": "Odłamek ceramiki \"Druh\"",
      "nameEn": "Friend Pottery Sherd"
    },
    "price2": {
      "item": "brick",
      "qty": 1,
      "name": "Cegła",
      "nameEn": "Brick"
    },
    "storeName": "Garncarz Gustaw",
    "storeLocation": "Ciechocinek",
    "storeOwner": "AdminShop",
    "x": -985,
    "y": 72,
    "z": 1886
  },
  {
    "id": "ciechocinek_gustaw_11",
    "product": {
      "item": "guster_pottery_sherd",
      "qty": 2,
      "name": "Odłamek ceramiki \"Podmuch\"",
      "nameEn": "Guster Pottery Sherd"
    },
    "price1": {
      "item": "guster_pottery_sherd",
      "qty": 1,
      "name": "Odłamek ceramiki \"Podmuch\"",
      "nameEn": "Guster Pottery Sherd"
    },
    "price2": {
      "item": "brick",
      "qty": 1,
      "name": "Cegła",
      "nameEn": "Brick"
    },
    "storeName": "Garncarz Gustaw",
    "storeLocation": "Ciechocinek",
    "storeOwner": "AdminShop",
    "x": -985,
    "y": 72,
    "z": 1886
  },
  {
    "id": "ciechocinek_gustaw_12",
    "product": {
      "item": "heart_pottery_sherd",
      "qty": 2,
      "name": "Odłamek ceramiki \"Serce\"",
      "nameEn": "Heart Pottery Sherd"
    },
    "price1": {
      "item": "heart_pottery_sherd",
      "qty": 1,
      "name": "Odłamek ceramiki \"Serce\"",
      "nameEn": "Heart Pottery Sherd"
    },
    "price2": {
      "item": "brick",
      "qty": 1,
      "name": "Cegła",
      "nameEn": "Brick"
    },
    "storeName": "Garncarz Gustaw",
    "storeLocation": "Ciechocinek",
    "storeOwner": "AdminShop",
    "x": -985,
    "y": 72,
    "z": 1886
  },
  {
    "id": "ciechocinek_gustaw_13",
    "product": {
      "item": "heartbreak_pottery_sherd",
      "qty": 2,
      "name": "Odłamek ceramiki \"Złamane serce\"",
      "nameEn": "Heartbreak Pottery Sherd"
    },
    "price1": {
      "item": "heartbreak_pottery_sherd",
      "qty": 1,
      "name": "Odłamek ceramiki \"Złamane serce\"",
      "nameEn": "Heartbreak Pottery Sherd"
    },
    "price2": {
      "item": "brick",
      "qty": 1,
      "name": "Cegła",
      "nameEn": "Brick"
    },
    "storeName": "Garncarz Gustaw",
    "storeLocation": "Ciechocinek",
    "storeOwner": "AdminShop",
    "x": -985,
    "y": 72,
    "z": 1886
  },
  {
    "id": "ciechocinek_gustaw_14",
    "product": {
      "item": "howl_pottery_sherd",
      "qty": 2,
      "name": "Odłamek Ceramiki \"Skowyt\"",
      "nameEn": "Howl Pottery Sherd"
    },
    "price1": {
      "item": "howl_pottery_sherd",
      "qty": 1,
      "name": "Odłamek Ceramiki \"Skowyt\"",
      "nameEn": "Howl Pottery Sherd"
    },
    "price2": {
      "item": "brick",
      "qty": 1,
      "name": "Cegła",
      "nameEn": "Brick"
    },
    "storeName": "Garncarz Gustaw",
    "storeLocation": "Ciechocinek",
    "storeOwner": "AdminShop",
    "x": -985,
    "y": 72,
    "z": 1886
  },
  {
    "id": "ciechocinek_gustaw_15",
    "product": {
      "item": "miner_pottery_sherd",
      "qty": 2,
      "name": "Odłamek ceramiki \"Górnik\"",
      "nameEn": "Miner Pottery Sherd"
    },
    "price1": {
      "item": "miner_pottery_sherd",
      "qty": 1,
      "name": "Odłamek ceramiki \"Górnik\"",
      "nameEn": "Miner Pottery Sherd"
    },
    "price2": {
      "item": "brick",
      "qty": 1,
      "name": "Cegła",
      "nameEn": "Brick"
    },
    "storeName": "Garncarz Gustaw",
    "storeLocation": "Ciechocinek",
    "storeOwner": "AdminShop",
    "x": -985,
    "y": 72,
    "z": 1886
  },
  {
    "id": "ciechocinek_gustaw_16",
    "product": {
      "item": "mourner_pottery_sherd",
      "qty": 2,
      "name": "Odłamek ceramiki \"Żałobnik\"",
      "nameEn": "Mourner Pottery Sherd"
    },
    "price1": {
      "item": "mourner_pottery_sherd",
      "qty": 1,
      "name": "Odłamek ceramiki \"Żałobnik\"",
      "nameEn": "Mourner Pottery Sherd"
    },
    "price2": {
      "item": "brick",
      "qty": 1,
      "name": "Cegła",
      "nameEn": "Brick"
    },
    "storeName": "Garncarz Gustaw",
    "storeLocation": "Ciechocinek",
    "storeOwner": "AdminShop",
    "x": -985,
    "y": 72,
    "z": 1886
  },
  {
    "id": "ciechocinek_gustaw_17",
    "product": {
      "item": "plenty_pottery_sherd",
      "qty": 2,
      "name": "Odłamek ceramiki \"Dostatek\"",
      "nameEn": "Plenty Pottery Sherd"
    },
    "price1": {
      "item": "plenty_pottery_sherd",
      "qty": 1,
      "name": "Odłamek ceramiki \"Dostatek\"",
      "nameEn": "Plenty Pottery Sherd"
    },
    "price2": {
      "item": "brick",
      "qty": 1,
      "name": "Cegła",
      "nameEn": "Brick"
    },
    "storeName": "Garncarz Gustaw",
    "storeLocation": "Ciechocinek",
    "storeOwner": "AdminShop",
    "x": -985,
    "y": 72,
    "z": 1886
  },
  {
    "id": "ciechocinek_gustaw_18",
    "product": {
      "item": "prize_pottery_sherd",
      "qty": 2,
      "name": "Odłamek ceramiki \"Nagroda\"",
      "nameEn": "Prize Pottery Sherd"
    },
    "price1": {
      "item": "prize_pottery_sherd",
      "qty": 1,
      "name": "Odłamek ceramiki \"Nagroda\"",
      "nameEn": "Prize Pottery Sherd"
    },
    "price2": {
      "item": "brick",
      "qty": 1,
      "name": "Cegła",
      "nameEn": "Brick"
    },
    "storeName": "Garncarz Gustaw",
    "storeLocation": "Ciechocinek",
    "storeOwner": "AdminShop",
    "x": -985,
    "y": 72,
    "z": 1886
  },
  {
    "id": "ciechocinek_gustaw_19",
    "product": {
      "item": "scrape_pottery_sherd",
      "qty": 2,
      "name": "Odłamek ceramiki \"Skrobak\"",
      "nameEn": "Scrape Pottery Sherd"
    },
    "price1": {
      "item": "scrape_pottery_sherd",
      "qty": 1,
      "name": "Odłamek ceramiki \"Skrobak\"",
      "nameEn": "Scrape Pottery Sherd"
    },
    "price2": {
      "item": "brick",
      "qty": 1,
      "name": "Cegła",
      "nameEn": "Brick"
    },
    "storeName": "Garncarz Gustaw",
    "storeLocation": "Ciechocinek",
    "storeOwner": "AdminShop",
    "x": -985,
    "y": 72,
    "z": 1886
  },
  {
    "id": "ciechocinek_gustaw_20",
    "product": {
      "item": "sheaf_pottery_sherd",
      "qty": 2,
      "name": "Odłamek ceramiki \"Snop\"",
      "nameEn": "Sheaf Pottery Sherd"
    },
    "price1": {
      "item": "sheaf_pottery_sherd",
      "qty": 1,
      "name": "Odłamek ceramiki \"Snop\"",
      "nameEn": "Sheaf Pottery Sherd"
    },
    "price2": {
      "item": "brick",
      "qty": 1,
      "name": "Cegła",
      "nameEn": "Brick"
    },
    "storeName": "Garncarz Gustaw",
    "storeLocation": "Ciechocinek",
    "storeOwner": "AdminShop",
    "x": -985,
    "y": 72,
    "z": 1886
  },
  {
    "id": "ciechocinek_gustaw_21",
    "product": {
      "item": "shelter_pottery_sherd",
      "qty": 2,
      "name": "Odłamek ceramiki \"Ostoja\"",
      "nameEn": "Shelter Pottery Sherd"
    },
    "price1": {
      "item": "shelter_pottery_sherd",
      "qty": 1,
      "name": "Odłamek ceramiki \"Ostoja\"",
      "nameEn": "Shelter Pottery Sherd"
    },
    "price2": {
      "item": "brick",
      "qty": 1,
      "name": "Cegła",
      "nameEn": "Brick"
    },
    "storeName": "Garncarz Gustaw",
    "storeLocation": "Ciechocinek",
    "storeOwner": "AdminShop",
    "x": -985,
    "y": 72,
    "z": 1886
  },
  {
    "id": "ciechocinek_gustaw_22",
    "product": {
      "item": "skull_pottery_sherd",
      "qty": 2,
      "name": "Odłamek ceramiki \"Czaszka\"",
      "nameEn": "Skull Pottery Sherd"
    },
    "price1": {
      "item": "skull_pottery_sherd",
      "qty": 1,
      "name": "Odłamek ceramiki \"Czaszka\"",
      "nameEn": "Skull Pottery Sherd"
    },
    "price2": {
      "item": "brick",
      "qty": 1,
      "name": "Cegła",
      "nameEn": "Brick"
    },
    "storeName": "Garncarz Gustaw",
    "storeLocation": "Ciechocinek",
    "storeOwner": "AdminShop",
    "x": -985,
    "y": 72,
    "z": 1886
  },
  {
    "id": "ciechocinek_gustaw_23",
    "product": {
      "item": "snort_pottery_sherd",
      "qty": 2,
      "name": "Odłamek ceramiki \"Niuch\"",
      "nameEn": "Snort Pottery Sherd"
    },
    "price1": {
      "item": "snort_pottery_sherd",
      "qty": 1,
      "name": "Odłamek ceramiki \"Niuch\"",
      "nameEn": "Snort Pottery Sherd"
    },
    "price2": {
      "item": "brick",
      "qty": 1,
      "name": "Cegła",
      "nameEn": "Brick"
    },
    "storeName": "Garncarz Gustaw",
    "storeLocation": "Ciechocinek",
    "storeOwner": "AdminShop",
    "x": -985,
    "y": 72,
    "z": 1886
  },
  {
    "id": "ciechocinek_alfred_1",
    "product": {
      "item": "ink_sac",
      "qty": 64,
      "name": "Torbiel z atramentem",
      "nameEn": "Ink Sac"
    },
    "price1": {
      "item": "coal",
      "qty": 64,
      "name": "Węgiel",
      "nameEn": "Coal"
    },
    "price2": {
      "item": "paper",
      "qty": 2,
      "customItem": true,
      "name": "Kibelion",
      "nameEn": "Kibelion"
    },
    "storeName": "Malarz Alfred",
    "storeLocation": "Ciechocinek",
    "storeOwner": "AdminShop",
    "x": -984,
    "y": 77,
    "z": 1891
  },
  {
    "id": "ciechocinek_alfred_2",
    "product": {
      "item": "glow_ink_sac",
      "qty": 64,
      "name": "Torbiel ze świecącym atramentem",
      "nameEn": "Glow Ink Sac"
    },
    "price1": {
      "item": "glowstone_dust",
      "qty": 16,
      "name": "Jasnopył",
      "nameEn": "Glowstone dust"
    },
    "price2": {
      "item": "paper",
      "qty": 4,
      "customItem": true,
      "name": "Kibelion",
      "nameEn": "Kibelion"
    },
    "storeName": "Malarz Alfred",
    "storeLocation": "Ciechocinek",
    "storeOwner": "AdminShop",
    "x": -984,
    "y": 77,
    "z": 1891
  },
  {
    "id": "ciechocinek_alfred_3",
    "product": {
      "item": "white_dye",
      "qty": 64,
      "name": "Biały barwnik",
      "nameEn": "White Dye"
    },
    "price1": {
      "item": "paper",
      "qty": 1,
      "name": "Kibelion",
      "nameEn": "Kibelion"
    },
    "price2": {
      "item": "emerald",
      "qty": 16,
      "name": "Szmaragd",
      "nameEn": "Emerald"
    },
    "storeName": "Malarz Alfred",
    "storeLocation": "Ciechocinek",
    "storeOwner": "AdminShop",
    "x": -984,
    "y": 77,
    "z": 1891
  },
  {
    "id": "ciechocinek_alfred_4",
    "product": {
      "item": "light_gray_dye",
      "qty": 64,
      "name": "Jasnoszary barwnik",
      "nameEn": "Light Gray Dye"
    },
    "price1": {
      "item": "paper",
      "qty": 1,
      "name": "Kibelion",
      "nameEn": "Kibelion"
    },
    "price2": {
      "item": "emerald",
      "qty": 16,
      "name": "Szmaragd",
      "nameEn": "Emerald"
    },
    "storeName": "Malarz Alfred",
    "storeLocation": "Ciechocinek",
    "storeOwner": "AdminShop",
    "x": -984,
    "y": 77,
    "z": 1891
  },
  {
    "id": "ciechocinek_alfred_5",
    "product": {
      "item": "gray_dye",
      "qty": 64,
      "name": "Szary barwnik",
      "nameEn": "Gray Dye"
    },
    "price1": {
      "item": "paper",
      "qty": 1,
      "name": "Kibelion",
      "nameEn": "Kibelion"
    },
    "price2": {
      "item": "emerald",
      "qty": 16,
      "name": "Szmaragd",
      "nameEn": "Emerald"
    },
    "storeName": "Malarz Alfred",
    "storeLocation": "Ciechocinek",
    "storeOwner": "AdminShop",
    "x": -984,
    "y": 77,
    "z": 1891
  },
  {
    "id": "ciechocinek_alfred_6",
    "product": {
      "item": "black_dye",
      "qty": 64,
      "name": "Czarny barwnik",
      "nameEn": "Black Dye"
    },
    "price1": {
      "item": "paper",
      "qty": 1,
      "name": "Kibelion",
      "nameEn": "Kibelion"
    },
    "price2": {
      "item": "emerald",
      "qty": 16,
      "name": "Szmaragd",
      "nameEn": "Emerald"
    },
    "storeName": "Malarz Alfred",
    "storeLocation": "Ciechocinek",
    "storeOwner": "AdminShop",
    "x": -984,
    "y": 77,
    "z": 1891
  },
  {
    "id": "ciechocinek_alfred_7",
    "product": {
      "item": "brown_dye",
      "qty": 64,
      "name": "Brązowy barwnik",
      "nameEn": "Brown Dye"
    },
    "price1": {
      "item": "paper",
      "qty": 1,
      "name": "Kibelion",
      "nameEn": "Kibelion"
    },
    "price2": {
      "item": "emerald",
      "qty": 16,
      "name": "Szmaragd",
      "nameEn": "Emerald"
    },
    "storeName": "Malarz Alfred",
    "storeLocation": "Ciechocinek",
    "storeOwner": "AdminShop",
    "x": -984,
    "y": 77,
    "z": 1891
  },
  {
    "id": "ciechocinek_alfred_8",
    "product": {
      "item": "red_dye",
      "qty": 64,
      "name": "Czerwony barwnik",
      "nameEn": "Red Dye"
    },
    "price1": {
      "item": "paper",
      "qty": 1,
      "name": "Kibelion",
      "nameEn": "Kibelion"
    },
    "price2": {
      "item": "emerald",
      "qty": 16,
      "name": "Szmaragd",
      "nameEn": "Emerald"
    },
    "storeName": "Malarz Alfred",
    "storeLocation": "Ciechocinek",
    "storeOwner": "AdminShop",
    "x": -984,
    "y": 77,
    "z": 1891
  },
  {
    "id": "ciechocinek_alfred_9",
    "product": {
      "item": "orange_dye",
      "qty": 64,
      "name": "Pomarańczowy barwnik",
      "nameEn": "Orange Dye"
    },
    "price1": {
      "item": "paper",
      "qty": 1,
      "name": "Kibelion",
      "nameEn": "Kibelion"
    },
    "price2": {
      "item": "emerald",
      "qty": 16,
      "name": "Szmaragd",
      "nameEn": "Emerald"
    },
    "storeName": "Malarz Alfred",
    "storeLocation": "Ciechocinek",
    "storeOwner": "AdminShop",
    "x": -984,
    "y": 77,
    "z": 1891
  },
  {
    "id": "ciechocinek_alfred_10",
    "product": {
      "item": "yellow_dye",
      "qty": 64,
      "name": "Żółty barwnik",
      "nameEn": "Yellow Dye"
    },
    "price1": {
      "item": "paper",
      "qty": 1,
      "name": "Kibelion",
      "nameEn": "Kibelion"
    },
    "price2": {
      "item": "emerald",
      "qty": 16,
      "name": "Szmaragd",
      "nameEn": "Emerald"
    },
    "storeName": "Malarz Alfred",
    "storeLocation": "Ciechocinek",
    "storeOwner": "AdminShop",
    "x": -984,
    "y": 77,
    "z": 1891
  },
  {
    "id": "ciechocinek_alfred_11",
    "product": {
      "item": "lime_dye",
      "qty": 64,
      "name": "Jasnozielony barwnik",
      "nameEn": "Lime Dye"
    },
    "price1": {
      "item": "paper",
      "qty": 1,
      "name": "Kibelion",
      "nameEn": "Kibelion"
    },
    "price2": {
      "item": "emerald",
      "qty": 16,
      "name": "Szmaragd",
      "nameEn": "Emerald"
    },
    "storeName": "Malarz Alfred",
    "storeLocation": "Ciechocinek",
    "storeOwner": "AdminShop",
    "x": -984,
    "y": 77,
    "z": 1891
  },
  {
    "id": "ciechocinek_alfred_12",
    "product": {
      "item": "green_dye",
      "qty": 64,
      "name": "Zielony barwnik",
      "nameEn": "Green Dye"
    },
    "price1": {
      "item": "paper",
      "qty": 1,
      "name": "Kibelion",
      "nameEn": "Kibelion"
    },
    "price2": {
      "item": "emerald",
      "qty": 16,
      "name": "Szmaragd",
      "nameEn": "Emerald"
    },
    "storeName": "Malarz Alfred",
    "storeLocation": "Ciechocinek",
    "storeOwner": "AdminShop",
    "x": -984,
    "y": 77,
    "z": 1891
  },
  {
    "id": "ciechocinek_alfred_13",
    "product": {
      "item": "cyan_dye",
      "qty": 64,
      "name": "Błękitny barwnik",
      "nameEn": "Cyan Dye"
    },
    "price1": {
      "item": "paper",
      "qty": 1,
      "name": "Kibelion",
      "nameEn": "Kibelion"
    },
    "price2": {
      "item": "emerald",
      "qty": 16,
      "name": "Szmaragd",
      "nameEn": "Emerald"
    },
    "storeName": "Malarz Alfred",
    "storeLocation": "Ciechocinek",
    "storeOwner": "AdminShop",
    "x": -984,
    "y": 77,
    "z": 1891
  },
  {
    "id": "ciechocinek_alfred_14",
    "product": {
      "item": "light_blue_dye",
      "qty": 64,
      "name": "Jasnoniebieski barwnik",
      "nameEn": "Light Blue Dye"
    },
    "price1": {
      "item": "paper",
      "qty": 1,
      "name": "Kibelion",
      "nameEn": "Kibelion"
    },
    "price2": {
      "item": "emerald",
      "qty": 16,
      "name": "Szmaragd",
      "nameEn": "Emerald"
    },
    "storeName": "Malarz Alfred",
    "storeLocation": "Ciechocinek",
    "storeOwner": "AdminShop",
    "x": -984,
    "y": 77,
    "z": 1891
  },
  {
    "id": "ciechocinek_alfred_15",
    "product": {
      "item": "blue_dye",
      "qty": 64,
      "name": "Niebieski barwnik",
      "nameEn": "Blue Dye"
    },
    "price1": {
      "item": "paper",
      "qty": 1,
      "name": "Kibelion",
      "nameEn": "Kibelion"
    },
    "price2": {
      "item": "emerald",
      "qty": 16,
      "name": "Szmaragd",
      "nameEn": "Emerald"
    },
    "storeName": "Malarz Alfred",
    "storeLocation": "Ciechocinek",
    "storeOwner": "AdminShop",
    "x": -984,
    "y": 77,
    "z": 1891
  },
  {
    "id": "ciechocinek_alfred_16",
    "product": {
      "item": "purple_dye",
      "qty": 64,
      "name": "Fioletowy barwnik",
      "nameEn": "Purple Dye"
    },
    "price1": {
      "item": "paper",
      "qty": 1,
      "name": "Kibelion",
      "nameEn": "Kibelion"
    },
    "price2": {
      "item": "emerald",
      "qty": 16,
      "name": "Szmaragd",
      "nameEn": "Emerald"
    },
    "storeName": "Malarz Alfred",
    "storeLocation": "Ciechocinek",
    "storeOwner": "AdminShop",
    "x": -984,
    "y": 77,
    "z": 1891
  },
  {
    "id": "ciechocinek_alfred_17",
    "product": {
      "item": "magenta_dye",
      "qty": 64,
      "name": "Purpurowy barwnik",
      "nameEn": "Magenta Dye"
    },
    "price1": {
      "item": "paper",
      "qty": 1,
      "name": "Kibelion",
      "nameEn": "Kibelion"
    },
    "price2": {
      "item": "emerald",
      "qty": 16,
      "name": "Szmaragd",
      "nameEn": "Emerald"
    },
    "storeName": "Malarz Alfred",
    "storeLocation": "Ciechocinek",
    "storeOwner": "AdminShop",
    "x": -984,
    "y": 77,
    "z": 1891
  },
  {
    "id": "ciechocinek_alfred_18",
    "product": {
      "item": "pink_dye",
      "qty": 64,
      "name": "Różowy barwnik",
      "nameEn": "Pink Dye"
    },
    "price1": {
      "item": "paper",
      "qty": 1,
      "name": "Kibelion",
      "nameEn": "Kibelion"
    },
    "price2": {
      "item": "emerald",
      "qty": 16,
      "name": "Szmaragd",
      "nameEn": "Emerald"
    },
    "storeName": "Malarz Alfred",
    "storeLocation": "Ciechocinek",
    "storeOwner": "AdminShop",
    "x": -984,
    "y": 77,
    "z": 1891
  },
  {
    "id": "spawnowice_kwieczyslaw_1",
    "product": {
      "item": "allium",
      "qty": 2,
      "name": "Czosnek",
      "nameEn": "Allium"
    },
    "price1": {
      "item": "allium",
      "qty": 1,
      "name": "Czosnek",
      "nameEn": "Allium"
    },
    "price2": {
      "item": "bone_meal",
      "qty": 1,
      "name": "Mączka kostna",
      "nameEn": "Bone Meal"
    },
    "storeName": "Kwieczyslaw Rosliniewski",
    "storeLocation": "Spawnowice",
    "storeOwner": "AdminShop",
    "x": -170,
    "y": 69,
    "z": 80
  },
  {
    "id": "spawnowice_kwieczyslaw_2",
    "product": {
      "item": "azure_bluet",
      "qty": 2,
      "name": "Houstonia Błękitna",
      "nameEn": "Azure Bluet"
    },
    "price1": {
      "item": "azure_bluet",
      "qty": 1,
      "name": "Houstonia Błękitna",
      "nameEn": "Azure Bluet"
    },
    "price2": {
      "item": "bone_meal",
      "qty": 1,
      "name": "Mączka kostna",
      "nameEn": "Bone Meal"
    },
    "storeName": "Kwieczyslaw Rosliniewski",
    "storeLocation": "Spawnowice",
    "storeOwner": "AdminShop",
    "x": -170,
    "y": 69,
    "z": 80
  },
  {
    "id": "spawnowice_kwieczyslaw_3",
    "product": {
      "item": "blue_orchid",
      "qty": 2,
      "name": "Niebieska orchidea",
      "nameEn": "Blue Orchid"
    },
    "price1": {
      "item": "blue_orchid",
      "qty": 1,
      "name": "Niebieska orchidea",
      "nameEn": "Blue Orchid"
    },
    "price2": {
      "item": "bone_meal",
      "qty": 1,
      "name": "Mączka kostna",
      "nameEn": "Bone Meal"
    },
    "storeName": "Kwieczyslaw Rosliniewski",
    "storeLocation": "Spawnowice",
    "storeOwner": "AdminShop",
    "x": -170,
    "y": 69,
    "z": 80
  },
  {
    "id": "spawnowice_kwieczyslaw_4",
    "product": {
      "item": "cornflower",
      "qty": 2,
      "name": "Chaber",
      "nameEn": "Cornflower"
    },
    "price1": {
      "item": "cornflower",
      "qty": 1,
      "name": "Chaber",
      "nameEn": "Cornflower"
    },
    "price2": {
      "item": "bone_meal",
      "qty": 1,
      "name": "Mączka kostna",
      "nameEn": "Bone Meal"
    },
    "storeName": "Kwieczyslaw Rosliniewski",
    "storeLocation": "Spawnowice",
    "storeOwner": "AdminShop",
    "x": -170,
    "y": 69,
    "z": 80
  },
  {
    "id": "spawnowice_kwieczyslaw_5",
    "product": {
      "item": "dandelion",
      "qty": 2,
      "name": "Mlecz",
      "nameEn": "Dandelion"
    },
    "price1": {
      "item": "dandelion",
      "qty": 1,
      "name": "Mlecz",
      "nameEn": "Dandelion"
    },
    "price2": {
      "item": "bone_meal",
      "qty": 1,
      "name": "Mączka kostna",
      "nameEn": "Bone Meal"
    },
    "storeName": "Kwieczyslaw Rosliniewski",
    "storeLocation": "Spawnowice",
    "storeOwner": "AdminShop",
    "x": -170,
    "y": 69,
    "z": 80
  },
  {
    "id": "spawnowice_kwieczyslaw_6",
    "product": {
      "item": "lily_of_the_valley",
      "qty": 2,
      "name": "Konwalia",
      "nameEn": "Lily of the Valley"
    },
    "price1": {
      "item": "lily_of_the_valley",
      "qty": 1,
      "name": "Konwalia",
      "nameEn": "Lily of the Valley"
    },
    "price2": {
      "item": "bone_meal",
      "qty": 1,
      "name": "Mączka kostna",
      "nameEn": "Bone Meal"
    },
    "storeName": "Kwieczyslaw Rosliniewski",
    "storeLocation": "Spawnowice",
    "storeOwner": "AdminShop",
    "x": -170,
    "y": 69,
    "z": 80
  },
  {
    "id": "spawnowice_kwieczyslaw_7",
    "product": {
      "item": "oxeye_daisy",
      "qty": 2,
      "name": "Margaretka",
      "nameEn": "Oxeye Daisy"
    },
    "price1": {
      "item": "oxeye_daisy",
      "qty": 1,
      "name": "Margaretka",
      "nameEn": "Oxeye Daisy"
    },
    "price2": {
      "item": "bone_meal",
      "qty": 1,
      "name": "Mączka kostna",
      "nameEn": "Bone Meal"
    },
    "storeName": "Kwieczyslaw Rosliniewski",
    "storeLocation": "Spawnowice",
    "storeOwner": "AdminShop",
    "x": -170,
    "y": 69,
    "z": 80
  },
  {
    "id": "spawnowice_kwieczyslaw_8",
    "product": {
      "item": "poppy",
      "qty": 2,
      "name": "Mak",
      "nameEn": "Poppy"
    },
    "price1": {
      "item": "poppy",
      "qty": 1,
      "name": "Mak",
      "nameEn": "Poppy"
    },
    "price2": {
      "item": "bone_meal",
      "qty": 1,
      "name": "Mączka kostna",
      "nameEn": "Bone Meal"
    },
    "storeName": "Kwieczyslaw Rosliniewski",
    "storeLocation": "Spawnowice",
    "storeOwner": "AdminShop",
    "x": -170,
    "y": 69,
    "z": 80
  },
  {
    "id": "spawnowice_kwieczyslaw_9",
    "product": {
      "item": "red_tulip",
      "qty": 2,
      "name": "Czerwony tulipan",
      "nameEn": "Red Tulip"
    },
    "price1": {
      "item": "red_tulip",
      "qty": 1,
      "name": "Czerwony tulipan",
      "nameEn": "Red Tulip"
    },
    "price2": {
      "item": "bone_meal",
      "qty": 1,
      "name": "Mączka kostna",
      "nameEn": "Bone Meal"
    },
    "storeName": "Kwieczyslaw Rosliniewski",
    "storeLocation": "Spawnowice",
    "storeOwner": "AdminShop",
    "x": -170,
    "y": 69,
    "z": 80
  },
  {
    "id": "spawnowice_kwieczyslaw_10",
    "product": {
      "item": "white_tulip",
      "qty": 2,
      "name": "Biały tulipan",
      "nameEn": "White Tulip"
    },
    "price1": {
      "item": "white_tulip",
      "qty": 1,
      "name": "Biały tulipan",
      "nameEn": "White Tulip"
    },
    "price2": {
      "item": "bone_meal",
      "qty": 1,
      "name": "Mączka kostna",
      "nameEn": "Bone Meal"
    },
    "storeName": "Kwieczyslaw Rosliniewski",
    "storeLocation": "Spawnowice",
    "storeOwner": "AdminShop",
    "x": -170,
    "y": 69,
    "z": 80
  },
  {
    "id": "spawnowice_kwieczyslaw_11",
    "product": {
      "item": "orange_tulip",
      "qty": 2,
      "name": "Pomarańczowy tulipan",
      "nameEn": "Orange Tulip"
    },
    "price1": {
      "item": "orange_tulip",
      "qty": 1,
      "name": "Pomarańczowy tulipan",
      "nameEn": "Orange Tulip"
    },
    "price2": {
      "item": "bone_meal",
      "qty": 1,
      "name": "Mączka kostna",
      "nameEn": "Bone Meal"
    },
    "storeName": "Kwieczyslaw Rosliniewski",
    "storeLocation": "Spawnowice",
    "storeOwner": "AdminShop",
    "x": -170,
    "y": 69,
    "z": 80
  },
  {
    "id": "spawnowice_kwieczyslaw_12",
    "product": {
      "item": "pink_tulip",
      "qty": 2,
      "name": "Różowy tulipan",
      "nameEn": "Pink Tulip"
    },
    "price1": {
      "item": "pink_tulip",
      "qty": 1,
      "name": "Różowy tulipan",
      "nameEn": "Pink Tulip"
    },
    "price2": {
      "item": "bone_meal",
      "qty": 1,
      "name": "Mączka kostna",
      "nameEn": "Bone Meal"
    },
    "storeName": "Kwieczyslaw Rosliniewski",
    "storeLocation": "Spawnowice",
    "storeOwner": "AdminShop",
    "x": -170,
    "y": 69,
    "z": 80
  },
  {
    "id": "spawnowice_kwieczyslaw_13",
    "product": {
      "item": "closed_eyeblossom",
      "qty": 2,
      "name": "Zamknięta okrotka",
      "nameEn": "Closed Eyeblossom"
    },
    "price1": {
      "item": "closed_eyeblossom",
      "qty": 1,
      "name": "Zamknięta okrotka",
      "nameEn": "Closed Eyeblossom"
    },
    "price2": {
      "item": "bone_meal",
      "qty": 1,
      "name": "Mączka kostna",
      "nameEn": "Bone Meal"
    },
    "storeName": "Kwieczyslaw Rosliniewski",
    "storeLocation": "Spawnowice",
    "storeOwner": "AdminShop",
    "x": -170,
    "y": 69,
    "z": 80
  },
  {
    "id": "spawnowice_kwieczyslaw_14",
    "product": {
      "item": "open_eyeblossom",
      "qty": 2,
      "name": "Otwarta okrotka",
      "nameEn": "Open Eyeblossom"
    },
    "price1": {
      "item": "open_eyeblossom",
      "qty": 1,
      "name": "Otwarta okrotka",
      "nameEn": "Open Eyeblossom"
    },
    "price2": {
      "item": "bone_meal",
      "qty": 1,
      "name": "Mączka kostna",
      "nameEn": "Bone Meal"
    },
    "storeName": "Kwieczyslaw Rosliniewski",
    "storeLocation": "Spawnowice",
    "storeOwner": "AdminShop",
    "x": -170,
    "y": 69,
    "z": 80
  },
  {
    "id": "spawnowice_kwieczyslaw_15",
    "product": {
      "item": "small_dripleaf",
      "qty": 2,
      "name": "Mały spadkoliść",
      "nameEn": "Small Dripleaf"
    },
    "price1": {
      "item": "small_dripleaf",
      "qty": 1,
      "name": "Mały spadkoliść",
      "nameEn": "Small Dripleaf"
    },
    "price2": {
      "item": "bone_meal",
      "qty": 1,
      "name": "Mączka kostna",
      "nameEn": "Bone Meal"
    },
    "storeName": "Kwieczyslaw Rosliniewski",
    "storeLocation": "Spawnowice",
    "storeOwner": "AdminShop",
    "x": -170,
    "y": 69,
    "z": 80
  },
  {
    "id": "spawnowice_kwieczyslaw_16",
    "product": {
      "item": "lily_pad",
      "qty": 2,
      "name": "Lilia wodna",
      "nameEn": "Lily Pad"
    },
    "price1": {
      "item": "lily_pad",
      "qty": 1,
      "name": "Lilia wodna",
      "nameEn": "Lily Pad"
    },
    "price2": {
      "item": "bone_meal",
      "qty": 1,
      "name": "Mączka kostna",
      "nameEn": "Bone Meal"
    },
    "storeName": "Kwieczyslaw Rosliniewski",
    "storeLocation": "Spawnowice",
    "storeOwner": "AdminShop",
    "x": -170,
    "y": 69,
    "z": 80
  },
  {
    "id": "spawnowice_kwieczyslaw_17",
    "product": {
      "item": "dead_bush",
      "qty": 2,
      "name": "Uschnięty krzak",
      "nameEn": "Dead Bush"
    },
    "price1": {
      "item": "dead_bush",
      "qty": 1,
      "name": "Uschnięty krzak",
      "nameEn": "Dead Bush"
    },
    "price2": {
      "item": "bone_meal",
      "qty": 1,
      "name": "Mączka kostna",
      "nameEn": "Bone Meal"
    },
    "storeName": "Kwieczyslaw Rosliniewski",
    "storeLocation": "Spawnowice",
    "storeOwner": "AdminShop",
    "x": -170,
    "y": 69,
    "z": 80
  },
  {
    "id": "spawnowice_kwieczyslaw_18",
    "product": {
      "item": "spore_blossom",
      "qty": 2,
      "name": "Pylikwiat",
      "nameEn": "Spore Blossom"
    },
    "price1": {
      "item": "spore_blossom",
      "qty": 1,
      "name": "Pylikwiat",
      "nameEn": "Spore Blossom"
    },
    "price2": {
      "item": "bone_meal",
      "qty": 1,
      "name": "Mączka kostna",
      "nameEn": "Bone Meal"
    },
    "storeName": "Kwieczyslaw Rosliniewski",
    "storeLocation": "Spawnowice",
    "storeOwner": "AdminShop",
    "x": -170,
    "y": 69,
    "z": 80
  },
  {
    "id": "spawnowice_bank_1",
    "product": {
      "item": "paper",
      "qty": 1,
      "customItem": true,
      "name": "Kibelion",
      "nameEn": "Kibelion"
    },
    "price1": {
      "item": "paper",
      "qty": 1,
      "customItem": true,
      "name": "Talon promocyjny",
      "nameEn": "Talon Promocyjny"
    },
    "storeName": "Narodowy Bank Kiblowy",
    "storeLocation": "Spawnowice",
    "storeOwner": "AdminShop",
    "x": -326,
    "y": 70,
    "z": -45
  },
  {
    "id": "spawnowice_bank_2",
    "product": {
      "item": "paper",
      "qty": 1,
      "customItem": true,
      "name": "50 Kibelionów",
      "nameEn": "50 Kibelionów"
    },
    "price1": {
      "item": "paper",
      "qty": 50,
      "customItem": true,
      "name": "Kibelion",
      "nameEn": "Kibelion"
    },
    "storeName": "Narodowy Bank Kiblowy",
    "storeLocation": "Spawnowice",
    "storeOwner": "AdminShop",
    "x": -326,
    "y": 70,
    "z": -45
  },
  {
    "id": "spawnowice_bank_3",
    "product": {
      "item": "paper",
      "qty": 50,
      "customItem": true,
      "name": "Kibelion",
      "nameEn": "Kibelion"
    },
    "price1": {
      "item": "paper",
      "qty": 1,
      "customItem": true,
      "name": "50 Kibelionów",
      "nameEn": "50 Kibelionów"
    },
    "storeName": "Narodowy Bank Kiblowy",
    "storeLocation": "Spawnowice",
    "storeOwner": "AdminShop",
    "x": -326,
    "y": 70,
    "z": -45
  },
  {
    "id": "spawnowice_bank_4",
    "product": {
      "item": "paper",
      "qty": 1,
      "customItem": true,
      "name": "1000 Kibelionów",
      "nameEn": "1000 Kibelionów"
    },
    "price1": {
      "item": "paper",
      "qty": 20,
      "customItem": true,
      "name": "50 Kibelionów",
      "nameEn": "50 Kibelionów"
    },
    "storeName": "Narodowy Bank Kiblowy",
    "storeLocation": "Spawnowice",
    "storeOwner": "AdminShop",
    "x": -326,
    "y": 70,
    "z": -45
  },
  {
    "id": "spawnowice_bank_5",
    "product": {
      "item": "paper",
      "qty": 20,
      "customItem": true,
      "name": "50 Kibelionów",
      "nameEn": "50 Kibelionów"
    },
    "price1": {
      "item": "paper",
      "qty": 1,
      "customItem": true,
      "name": "1000 Kibelionów",
      "nameEn": "1000 Kibelionów"
    },
    "storeName": "Narodowy Bank Kiblowy",
    "storeLocation": "Spawnowice",
    "storeOwner": "AdminShop",
    "x": -326,
    "y": 70,
    "z": -45
  },
  {
    "id": "spawnowice_bank_6",
    "product": {
      "item": "gold_block",
      "qty": 34,
      "name": "Blok złota",
      "nameEn": "Block of Gold"
    },
    "price1": {
      "item": "skull_banner_pattern",
      "qty": 1,
      "enchanted": true,
      "customItem": true,
      "name": "Obligacje skarbowe",
      "nameEn": "Obligacje skarbowe"
    },
    "storeName": "Narodowy Bank Kiblowy",
    "storeLocation": "Spawnowice",
    "storeOwner": "AdminShop",
    "x": -326,
    "y": 70,
    "z": -43
  },
  {
    "id": "spawnowice_mc_1",
    "product": {
      "item": "brown_bundle",
      "qty": 1,
      "customItem": true,
      "name": "McZestaw Powiększony",
      "nameEn": "McZestaw Powiększony"
    },
    "price1": {
      "item": "emerald",
      "qty": 2,
      "name": "Szmaragd",
      "nameEn": "Emerald"
    },
    "storeName": "McDonald",
    "storeLocation": "Spawnowice",
    "storeOwner": "AdminShop",
    "x": -70,
    "y": 67,
    "z": -174
  },
  {
    "id": "spawnowice_mc_2",
    "product": {
      "item": "potion_harming",
      "qty": 1,
      "customItem": true,
      "name": "Coca-Cola",
      "nameEn": "Coca-Cola"
    },
    "price1": {
      "item": "emerald",
      "qty": 1,
      "name": "Szmaragd",
      "nameEn": "Emerald"
    },
    "storeName": "McDonald",
    "storeLocation": "Spawnowice",
    "storeOwner": "AdminShop",
    "x": -70,
    "y": 67,
    "z": -174
  },
  {
    "id": "spawnowice_mc_3",
    "product": {
      "item": "baked_potato",
      "qty": 1,
      "customItem": true,
      "name": "Frytki",
      "nameEn": "Frytki"
    },
    "price1": {
      "item": "emerald",
      "qty": 1,
      "name": "Szmaragd",
      "nameEn": "Emerald"
    },
    "storeName": "McDonald",
    "storeLocation": "Spawnowice",
    "storeOwner": "AdminShop",
    "x": -70,
    "y": 67,
    "z": -174
  },
  {
    "id": "spawnowice_mc_4",
    "product": {
      "item": "cooked_porkchop",
      "qty": 1,
      "customItem": true,
      "name": "BigMac",
      "nameEn": "Bigmac"
    },
    "price1": {
      "item": "emerald",
      "qty": 1,
      "name": "Szmaragd",
      "nameEn": "Emerald"
    },
    "storeName": "McDonald",
    "storeLocation": "Spawnowice",
    "storeOwner": "AdminShop",
    "x": -70,
    "y": 67,
    "z": -174
  },
  {
    "id": "spawnowice_mc_5",
    "product": {
      "item": "brown_bundle",
      "qty": 1,
      "customItem": true,
      "name": "McZestaw Drwala",
      "nameEn": "McZestaw Drwala"
    },
    "price1": {
      "item": "emerald",
      "qty": 4,
      "name": "Szmaragd",
      "nameEn": "Emerald"
    },
    "storeName": "McDonald",
    "storeLocation": "Spawnowice",
    "storeOwner": "AdminShop",
    "x": -70,
    "y": 67,
    "z": -174
  },
  {
    "id": "spawnowice_mc_6",
    "product": {
      "item": "potion_weaving",
      "qty": 1,
      "customItem": true,
      "name": "Kawa",
      "nameEn": "Kawa"
    },
    "price1": {
      "item": "emerald",
      "qty": 2,
      "name": "Szmaragd",
      "nameEn": "Emerald"
    },
    "storeName": "McDonald",
    "storeLocation": "Spawnowice",
    "storeOwner": "AdminShop",
    "x": -70,
    "y": 67,
    "z": -174
  },
  {
    "id": "spawnowice_gfci_1",
    "product": {
      "item": "cooked_chicken",
      "qty": 4,
      "name": "Pieczony kurczak",
      "nameEn": "Cooked Chicken"
    },
    "price1": {
      "item": "emerald",
      "qty": 1,
      "name": "Szmaragd",
      "nameEn": "Emerald"
    },
    "storeName": "GFCI",
    "storeLocation": "Spawnowice",
    "storeOwner": "AdminShop",
    "x": -115,
    "y": 67,
    "z": -90
  },
  {
    "id": "spawnowice_gfci_2",
    "product": {
      "item": "cooked_chicken",
      "qty": 1,
      "customItem": true,
      "name": "Kurczak GFCI",
      "nameEn": "Kurczak GFCI"
    },
    "price1": {
      "item": "emerald",
      "qty": 2,
      "name": "Szmaragd",
      "nameEn": "Emerald"
    },
    "storeName": "GFCI",
    "storeLocation": "Spawnowice",
    "storeOwner": "AdminShop",
    "x": -115,
    "y": 67,
    "z": -90
  },
  {
    "id": "spawnowice_gfci_3",
    "product": {
      "item": "charcoal",
      "qty": 1,
      "customItem": true,
      "name": "Zwęglony kurczak",
      "nameEn": "Zwęglony kurczak"
    },
    "price1": {
      "item": "emerald",
      "qty": 1,
      "name": "Szmaragd",
      "nameEn": "Emerald"
    },
    "storeName": "GFCI",
    "storeLocation": "Spawnowice",
    "storeOwner": "AdminShop",
    "x": -115,
    "y": 67,
    "z": -90
  },
  {
    "id": "spawnowice_gfci_4",
    "product": {
      "item": "baked_potato",
      "qty": 1,
      "customItem": true,
      "name": "Frytki",
      "nameEn": "Frytki"
    },
    "price1": {
      "item": "emerald",
      "qty": 1,
      "name": "Szmaragd",
      "nameEn": "Emerald"
    },
    "storeName": "GFCI",
    "storeLocation": "Spawnowice",
    "storeOwner": "AdminShop",
    "x": -115,
    "y": 67,
    "z": -90
  },
  {
    "id": "spawnowice_gfci_5",
    "product": {
      "item": "potion_harming",
      "qty": 1,
      "customItem": true,
      "name": "Pepsi",
      "nameEn": "Pepsi"
    },
    "price1": {
      "item": "emerald",
      "qty": 1,
      "name": "Szmaragd",
      "nameEn": "Emerald"
    },
    "storeName": "GFCI",
    "storeLocation": "Spawnowice",
    "storeOwner": "AdminShop",
    "x": -115,
    "y": 67,
    "z": -90
  },
  {
    "id": "spawnowice_gfci_6",
    "product": {
      "item": "potion_leaping",
      "qty": 1,
      "customItem": true,
      "name": "Fanta",
      "nameEn": "Fanta"
    },
    "price1": {
      "item": "emerald",
      "qty": 1,
      "name": "Szmaragd",
      "nameEn": "Emerald"
    },
    "storeName": "GFCI",
    "storeLocation": "Spawnowice",
    "storeOwner": "AdminShop",
    "x": -115,
    "y": 67,
    "z": -90
  },
  {
    "id": "spawnowice_gfci_7",
    "product": {
      "item": "potion_weaving",
      "qty": 1,
      "customItem": true,
      "name": "Kawa",
      "nameEn": "Kawa"
    },
    "price1": {
      "item": "emerald",
      "qty": 2,
      "name": "Szmaragd",
      "nameEn": "Emerald"
    },
    "storeName": "GFCI",
    "storeLocation": "Spawnowice",
    "storeOwner": "AdminShop",
    "x": -115,
    "y": 67,
    "z": -90
  },
  {
    "id": "spawnowice_gfci_8",
    "product": {
      "item": "yellow_dye",
      "qty": 1,
      "customItem": true,
      "name": "Sos musztardowy",
      "nameEn": "Sos musztardowy"
    },
    "price1": {
      "item": "emerald",
      "qty": 1,
      "name": "Szmaragd",
      "nameEn": "Emerald"
    },
    "storeName": "GFCI",
    "storeLocation": "Spawnowice",
    "storeOwner": "AdminShop",
    "x": -115,
    "y": 67,
    "z": -90
  },
  {
    "id": "spawnowice_gfci_9",
    "product": {
      "item": "feather",
      "qty": 1,
      "customItem": true,
      "name": "Zastanawiające piórko",
      "nameEn": "Zastanawiające piórko"
    },
    "price1": {
      "item": "emerald",
      "qty": 8,
      "name": "Szmaragd",
      "nameEn": "Emerald"
    },
    "storeName": "GFCI",
    "storeLocation": "Spawnowice",
    "storeOwner": "AdminShop",
    "x": -115,
    "y": 67,
    "z": -90
  },
  {
    "id": "spawnowice_gfci_10",
    "product": {
      "item": "stone_button",
      "qty": 1,
      "customItem": true,
      "name": "Wyłącznik różnicoprądowy",
      "nameEn": "Wyłącznik różnicoprądowy"
    },
    "price1": {
      "item": "emerald",
      "qty": 2,
      "name": "Szmaragd",
      "nameEn": "Emerald"
    },
    "storeName": "GFCI",
    "storeLocation": "Spawnowice",
    "storeOwner": "AdminShop",
    "x": -115,
    "y": 67,
    "z": -90
  },
  {
    "id": "spawnowice_barman_1",
    "product": {
      "item": "potion_strength",
      "qty": 1,
      "customItem": true,
      "name": "Wywar z baloryby",
      "nameEn": "Wywar z baloryby"
    },
    "price1": {
      "item": "emerald",
      "qty": 2,
      "name": "Szmaragd",
      "nameEn": "Emerald"
    },
    "storeName": "Barman Borewicz",
    "storeLocation": "Spawnowice",
    "storeOwner": "AdminShop",
    "x": -53,
    "y": 76,
    "z": 187
  },
  {
    "id": "spawnowice_barman_2",
    "product": {
      "item": "potion_luck",
      "qty": 1,
      "customItem": true,
      "name": "Kwas fluoroantymonowy",
      "nameEn": "Kwas fluoroantymonowy"
    },
    "price1": {
      "item": "emerald",
      "qty": 2,
      "name": "Szmaragd",
      "nameEn": "Emerald"
    },
    "storeName": "Barman Borewicz",
    "storeLocation": "Spawnowice",
    "storeOwner": "AdminShop",
    "x": -53,
    "y": 76,
    "z": 187
  },
  {
    "id": "spawnowice_barman_3",
    "product": {
      "item": "water_bottle",
      "qty": 1,
      "customItem": true,
      "name": "Woda Vytautas",
      "nameEn": "Woda Vytautas"
    },
    "price1": {
      "item": "emerald",
      "qty": 1,
      "name": "Szmaragd",
      "nameEn": "Emerald"
    },
    "storeName": "Barman Borewicz",
    "storeLocation": "Spawnowice",
    "storeOwner": "AdminShop",
    "x": -53,
    "y": 76,
    "z": 187
  },
  {
    "id": "spawnowice_barman_4",
    "product": {
      "item": "potion_harming",
      "qty": 1,
      "customItem": true,
      "name": "Gensty Glut",
      "nameEn": "Gensty Glut"
    },
    "price1": {
      "item": "emerald",
      "qty": 2,
      "name": "Szmaragd",
      "nameEn": "Emerald"
    },
    "storeName": "Barman Borewicz",
    "storeLocation": "Spawnowice",
    "storeOwner": "AdminShop",
    "x": -53,
    "y": 76,
    "z": 187
  },
  {
    "id": "spawnowice_barman_5",
    "product": {
      "item": "potion_night_vision",
      "qty": 1,
      "customItem": true,
      "name": "MOCNY FULL",
      "nameEn": "MOCNY FULL"
    },
    "price1": {
      "item": "emerald",
      "qty": 1,
      "name": "Szmaragd",
      "nameEn": "Emerald"
    },
    "storeName": "Barman Borewicz",
    "storeLocation": "Spawnowice",
    "storeOwner": "AdminShop",
    "x": -53,
    "y": 76,
    "z": 187
  },
  {
    "id": "spawnowice_barman_6",
    "product": {
      "item": "potion_leaping",
      "qty": 1,
      "customItem": true,
      "name": "Bimber Wojtka",
      "nameEn": "Bimber Wojtka"
    },
    "price1": {
      "item": "emerald",
      "qty": 1,
      "name": "Szmaragd",
      "nameEn": "Emerald"
    },
    "storeName": "Barman Borewicz",
    "storeLocation": "Spawnowice",
    "storeOwner": "AdminShop",
    "x": -53,
    "y": 76,
    "z": 187
  },
  {
    "id": "spawnowice_barman_7",
    "product": {
      "item": "potion_invisibility",
      "qty": 1,
      "customItem": true,
      "name": "Wódka \"Frontówka\"",
      "nameEn": "Wódka \"Frontówka\""
    },
    "price1": {
      "item": "emerald",
      "qty": 2,
      "name": "Szmaragd",
      "nameEn": "Emerald"
    },
    "storeName": "Barman Borewicz",
    "storeLocation": "Spawnowice",
    "storeOwner": "AdminShop",
    "x": -53,
    "y": 76,
    "z": 187
  },
  {
    "id": "spawnowice_barman_8",
    "product": {
      "item": "potion_weakness",
      "qty": 1,
      "customItem": true,
      "name": "Kozel Černý",
      "nameEn": "Kozel Černý"
    },
    "price1": {
      "item": "emerald",
      "qty": 1,
      "name": "Szmaragd",
      "nameEn": "Emerald"
    },
    "storeName": "Barman Borewicz",
    "storeLocation": "Spawnowice",
    "storeOwner": "AdminShop",
    "x": -53,
    "y": 76,
    "z": 187
  },
  {
    "id": "spawnowice_barman_9",
    "product": {
      "item": "potion_weaving",
      "qty": 1,
      "customItem": true,
      "name": "Kawa",
      "nameEn": "Kawa"
    },
    "price1": {
      "item": "emerald",
      "qty": 2,
      "name": "Szmaragd",
      "nameEn": "Emerald"
    },
    "storeName": "Barman Borewicz",
    "storeLocation": "Spawnowice",
    "storeOwner": "AdminShop",
    "x": -53,
    "y": 76,
    "z": 187
  },
  {
    "id": "spawnowice_barman_10",
    "product": {
      "item": "potion_harming",
      "qty": 1,
      "customItem": true,
      "name": "Coca-cola",
      "nameEn": "Coca-cola"
    },
    "price1": {
      "item": "emerald",
      "qty": 1,
      "name": "Szmaragd",
      "nameEn": "Emerald"
    },
    "storeName": "Barman Borewicz",
    "storeLocation": "Spawnowice",
    "storeOwner": "AdminShop",
    "x": -53,
    "y": 76,
    "z": 187
  },
  {
    "id": "spawnowice_barman_11",
    "product": {
      "item": "potion_harming",
      "qty": 1,
      "customItem": true,
      "name": "Pepsi",
      "nameEn": "Pepsi"
    },
    "price1": {
      "item": "emerald",
      "qty": 1,
      "name": "Szmaragd",
      "nameEn": "Emerald"
    },
    "storeName": "Barman Borewicz",
    "storeLocation": "Spawnowice",
    "storeOwner": "AdminShop",
    "x": -53,
    "y": 76,
    "z": 187
  },
  {
    "id": "spawnowice_barman_12",
    "product": {
      "item": "potion_leaping",
      "qty": 1,
      "customItem": true,
      "name": "Fanta",
      "nameEn": "Fanta"
    },
    "price1": {
      "item": "emerald",
      "qty": 1,
      "name": "Szmaragd",
      "nameEn": "Emerald"
    },
    "storeName": "Barman Borewicz",
    "storeLocation": "Spawnowice",
    "storeOwner": "AdminShop",
    "x": -53,
    "y": 76,
    "z": 187
  },
  {
    "id": "rozmieniarka_rozmieniarka_1",
    "product": {
      "item": "paper",
      "qty": 50,
      "customItem": true,
      "name": "Kibelion",
      "nameEn": "Kibelion"
    },
    "price1": {
      "item": "paper",
      "qty": 1,
      "customItem": true,
      "name": "50 Kibelionów",
      "nameEn": "50 Kibelionów"
    },
    "storeName": "Rozmieniarka NBK",
    "storeLocation": "Rozmieniarki NBK",
    "storeOwner": "AdminShop"
  },
  {
    "id": "rozmieniarka_rozmieniarka_2",
    "product": {
      "item": "paper",
      "qty": 1,
      "customItem": true,
      "name": "50 Kibelionów",
      "nameEn": "50 Kibelionów"
    },
    "price1": {
      "item": "paper",
      "qty": 50,
      "customItem": true,
      "name": "Kibelion",
      "nameEn": "Kibelion"
    },
    "storeName": "Rozmieniarka NBK",
    "storeLocation": "Rozmieniarki NBK",
    "storeOwner": "AdminShop"
  },
  {
    "id": "nilplep_kowal_1",
    "product": {
      "item": "netherite_upgrade_smithing_template",
      "qty": 1,
      "name": "Netherytowe ulepszenie",
      "nameEn": "Netherite Upgrade"
    },
    "price1": {
      "item": "diamond",
      "qty": 7,
      "name": "Diament",
      "nameEn": "Diamond"
    },
    "price2": {
      "item": "netherrack",
      "qty": 1,
      "name": "Netherrack",
      "nameEn": "Netherrack"
    },
    "storeName": "Kowal Kamil",
    "storeLocation": "Nilplep",
    "storeOwner": "Ketrab",
    "x": -745,
    "y": 66,
    "z": 116
  },
  {
    "id": "nilplep_kowal_2",
    "product": {
      "item": "sentry_armor_trim_smithing_template",
      "qty": 1,
      "name": "Zdobienie zbroi \"Wartownik\"",
      "nameEn": "Sentry Armor Trim"
    },
    "price1": {
      "item": "diamond",
      "qty": 7,
      "name": "Diament",
      "nameEn": "Diamond"
    },
    "price2": {
      "item": "cobblestone",
      "qty": 1,
      "name": "Bruk",
      "nameEn": "Cobblestone"
    },
    "storeName": "Kowal Kamil",
    "storeLocation": "Nilplep",
    "storeOwner": "Ketrab",
    "x": -745,
    "y": 66,
    "z": 116
  },
  {
    "id": "nilplep_kowal_3",
    "product": {
      "item": "vex_armor_trim_smithing_template",
      "qty": 1,
      "name": "Zdobienie zbroi \"Dręczyciel\"",
      "nameEn": "Vex Armor Trim"
    },
    "price1": {
      "item": "diamond",
      "qty": 7,
      "name": "Diament",
      "nameEn": "Diamond"
    },
    "price2": {
      "item": "cobblestone",
      "qty": 1,
      "name": "Bruk",
      "nameEn": "Cobblestone"
    },
    "storeName": "Kowal Kamil",
    "storeLocation": "Nilplep",
    "storeOwner": "Ketrab",
    "x": -745,
    "y": 66,
    "z": 116
  },
  {
    "id": "nilplep_kowal_5",
    "product": {
      "item": "wild_armor_trim_smithing_template",
      "qty": 1,
      "name": "Zdobienie zbroi \"Dzicz\"",
      "nameEn": "Wild Armor Trim"
    },
    "price1": {
      "item": "diamond",
      "qty": 7,
      "name": "Diament",
      "nameEn": "Diamond"
    },
    "price2": {
      "item": "mossy_cobblestone",
      "qty": 1,
      "name": "Zamszony bruk",
      "nameEn": "Mossy Cobllestone"
    },
    "storeName": "Kowal Kamil",
    "storeLocation": "Nilplep",
    "storeOwner": "Ketrab",
    "x": -745,
    "y": 66,
    "z": 116
  },
  {
    "id": "nilplep_kowal_4",
    "product": {
      "item": "coast_armor_trim_smithing_template",
      "qty": 1,
      "name": "Zdobienie zbroi \"Wybrzeże\"",
      "nameEn": "Coast Armor Trim"
    },
    "price1": {
      "item": "diamond",
      "qty": 7,
      "name": "Diament",
      "nameEn": "Diamond"
    },
    "price2": {
      "item": "cobblestone",
      "qty": 1,
      "name": "Bruk",
      "nameEn": "Cobblestone"
    },
    "storeName": "Kowal Kamil",
    "storeLocation": "Nilplep",
    "storeOwner": "Ketrab",
    "x": -745,
    "y": 66,
    "z": 116
  },
  {
    "id": "nilplep_kowal_6",
    "product": {
      "item": "dune_armor_trim_smithing_template",
      "qty": 1,
      "name": "Zdobienie zbroi \"Wydma\"",
      "nameEn": "Dune Armor Trim"
    },
    "price1": {
      "item": "diamond",
      "qty": 7,
      "name": "Diament",
      "nameEn": "Diamond"
    },
    "price2": {
      "item": "sandstone",
      "qty": 1,
      "name": "Piaskowiec",
      "nameEn": "Sandstone"
    },
    "storeName": "Kowal Kamil",
    "storeLocation": "Nilplep",
    "storeOwner": "Ketrab",
    "x": -745,
    "y": 66,
    "z": 116
  },
  {
    "id": "nilplep_kowal_7",
    "product": {
      "item": "wayfinder_armor_trim_smithing_template",
      "qty": 1,
      "name": "Zdobienie zbroi \"Włóczykij\"",
      "nameEn": "Wayfinder Armor Trim"
    },
    "price1": {
      "item": "diamond",
      "qty": 7,
      "name": "Diament",
      "nameEn": "Diamond"
    },
    "price2": {
      "item": "terracotta",
      "qty": 1,
      "name": "Terakota",
      "nameEn": "Terracotta"
    },
    "storeName": "Kowal Kamil",
    "storeLocation": "Nilplep",
    "storeOwner": "Ketrab",
    "x": -745,
    "y": 66,
    "z": 116
  },
  {
    "id": "nilplep_kowal_8",
    "product": {
      "item": "raiser_armor_trim_smithing_template",
      "qty": 1,
      "name": "Zdobienie zbroi \"Opiekun\"",
      "nameEn": "Raiser Armor Trim"
    },
    "price1": {
      "item": "diamond",
      "qty": 7,
      "name": "Diament",
      "nameEn": "Diamond"
    },
    "price2": {
      "item": "terracotta",
      "qty": 1,
      "name": "Terakota",
      "nameEn": "Terracotta"
    },
    "storeName": "Kowal Kamil",
    "storeLocation": "Nilplep",
    "storeOwner": "Ketrab",
    "x": -745,
    "y": 66,
    "z": 116
  },
  {
    "id": "nilplep_kowal_9",
    "product": {
      "item": "shaper_armor_trim_smithing_template",
      "qty": 1,
      "name": "Zdobienie zbroi \"Rzeźbiarz\"",
      "nameEn": "Shaper Armor Trim"
    },
    "price1": {
      "item": "diamond",
      "qty": 7,
      "name": "Diament",
      "nameEn": "Diamond"
    },
    "price2": {
      "item": "terracotta",
      "qty": 1,
      "name": "Terakota",
      "nameEn": "Terracotta"
    },
    "storeName": "Kowal Kamil",
    "storeLocation": "Nilplep",
    "storeOwner": "Ketrab",
    "x": -745,
    "y": 66,
    "z": 116
  },
  {
    "id": "nilplep_kowal_10",
    "product": {
      "item": "host_armor_trim_smithing_template",
      "qty": 1,
      "name": "Zdobienie zbroi \"Gospodarz\"",
      "nameEn": "Host Armor Trim"
    },
    "price1": {
      "item": "diamond",
      "qty": 7,
      "name": "Diament",
      "nameEn": "Diamond"
    },
    "price2": {
      "item": "terracotta",
      "qty": 1,
      "name": "Terakota",
      "nameEn": "Terracotta"
    },
    "storeName": "Kowal Kamil",
    "storeLocation": "Nilplep",
    "storeOwner": "Ketrab",
    "x": -745,
    "y": 66,
    "z": 116
  },
  {
    "id": "nilplep_kowal_11",
    "product": {
      "item": "ward_armor_trim_smithing_template",
      "qty": 1,
      "name": "Zdobienie zbroi \"Nadzorca\"",
      "nameEn": "Ward Armor Trim"
    },
    "price1": {
      "item": "diamond",
      "qty": 7,
      "name": "Diament",
      "nameEn": "Diamond"
    },
    "price2": {
      "item": "cobbled_deepslate",
      "qty": 1,
      "name": "Łupkowy bruk",
      "nameEn": "Cobbled Deepslate"
    },
    "storeName": "Kowal Kamil",
    "storeLocation": "Nilplep",
    "storeOwner": "Ketrab",
    "x": -745,
    "y": 66,
    "z": 116
  },
  {
    "id": "nilplep_kowal_12",
    "product": {
      "item": "silence_armor_trim_smithing_template",
      "qty": 1,
      "name": "Zdobienie zbroi \"Cisza\"",
      "nameEn": "Silence Armor Trim"
    },
    "price1": {
      "item": "diamond",
      "qty": 7,
      "name": "Diament",
      "nameEn": "Diamond"
    },
    "price2": {
      "item": "cobbled_deepslate",
      "qty": 1,
      "name": "Łupkowy bruk",
      "nameEn": "Cobbled Deepslate"
    },
    "storeName": "Kowal Kamil",
    "storeLocation": "Nilplep",
    "storeOwner": "Ketrab",
    "x": -745,
    "y": 66,
    "z": 116
  },
  {
    "id": "nilplep_kowal_13",
    "product": {
      "item": "tide_armor_trim_smithing_template",
      "qty": 1,
      "name": "Zdobienie zbroi \"Fala\"",
      "nameEn": "Tide Armor Trim"
    },
    "price1": {
      "item": "diamond",
      "qty": 7,
      "name": "Diament",
      "nameEn": "Diamond"
    },
    "price2": {
      "item": "prismarine",
      "qty": 1,
      "name": "Pryzmaryn",
      "nameEn": "Prismarine"
    },
    "storeName": "Kowal Kamil",
    "storeLocation": "Nilplep",
    "storeOwner": "Ketrab",
    "x": -745,
    "y": 66,
    "z": 116
  },
  {
    "id": "nilplep_kowal_14",
    "product": {
      "item": "snout_armor_trim_smithing_template",
      "qty": 1,
      "name": "Zdobienie zbroi \"Ryjek\"",
      "nameEn": "Snout Armor Trim"
    },
    "price1": {
      "item": "diamond",
      "qty": 7,
      "name": "Diament",
      "nameEn": "Diamond"
    },
    "price2": {
      "item": "blackstone",
      "qty": 1,
      "name": "Czernit",
      "nameEn": "Blackstone"
    },
    "storeName": "Kowal Kamil",
    "storeLocation": "Nilplep",
    "storeOwner": "Ketrab",
    "x": -745,
    "y": 66,
    "z": 116
  },
  {
    "id": "nilplep_kowal_15",
    "product": {
      "item": "rib_armor_trim_smithing_template",
      "qty": 1,
      "name": "Zdobienie zbroi \"Żebra\"",
      "nameEn": "Rib Armor Trim"
    },
    "price1": {
      "item": "diamond",
      "qty": 7,
      "name": "Diament",
      "nameEn": "Diamond"
    },
    "price2": {
      "item": "netherrack",
      "qty": 1,
      "name": "Netherack",
      "nameEn": "Netherrack"
    },
    "storeName": "Kowal Kamil",
    "storeLocation": "Nilplep",
    "storeOwner": "Ketrab",
    "x": -745,
    "y": 66,
    "z": 116
  },
  {
    "id": "nilplep_kowal_16",
    "product": {
      "item": "eye_armor_trim_smithing_template",
      "qty": 1,
      "name": "Zdobienie zbroi \"Oko\"",
      "nameEn": "Eye Armor Trim"
    },
    "price1": {
      "item": "diamond",
      "qty": 7,
      "name": "Diament",
      "nameEn": "Diamond"
    },
    "price2": {
      "item": "end_stone",
      "qty": 1,
      "name": "Kamień Endu",
      "nameEn": "End Stone"
    },
    "storeName": "Kowal Kamil",
    "storeLocation": "Nilplep",
    "storeOwner": "Ketrab",
    "x": -745,
    "y": 66,
    "z": 116
  },
  {
    "id": "nilplep_kowal_17",
    "product": {
      "item": "spire_armor_trim_smithing_template",
      "qty": 1,
      "name": "Zdobienie zbroi \"Iglica\"",
      "nameEn": "Spire Armor Trim"
    },
    "price1": {
      "item": "diamond",
      "qty": 7,
      "name": "Diament",
      "nameEn": "Diamond"
    },
    "price2": {
      "item": "purpur_block",
      "qty": 1,
      "name": "Blok purpuru",
      "nameEn": "Purpur Block"
    },
    "storeName": "Kowal Kamil",
    "storeLocation": "Nilplep",
    "storeOwner": "Ketrab",
    "x": -745,
    "y": 66,
    "z": 116
  },
  {
    "id": "nilplep_kowal_18",
    "product": {
      "item": "flow_armor_trim_smithing_template",
      "qty": 1,
      "name": "Zdobienie zbroi \"Nurt\"",
      "nameEn": "Flow Armor Trim"
    },
    "price1": {
      "item": "diamond",
      "qty": 7,
      "name": "Diament",
      "nameEn": "Diamond"
    },
    "price2": {
      "item": "breeze_rod",
      "qty": 1,
      "name": "Wichrowa różdżka",
      "nameEn": "Breeze Rod"
    },
    "storeName": "Kowal Kamil",
    "storeLocation": "Nilplep",
    "storeOwner": "Ketrab",
    "x": -745,
    "y": 66,
    "z": 116
  },
  {
    "id": "nilplep_kowal_19",
    "product": {
      "item": "bolt_armor_trim_smithing_template",
      "qty": 1,
      "name": "Zdobienie zbroi \"Nit\"",
      "nameEn": "Bolt Armor Trim"
    },
    "price1": {
      "item": "diamond",
      "qty": 7,
      "name": "Diament",
      "nameEn": "Diamond"
    },
    "price2": {
      "item": "copper_block",
      "qty": 1,
      "name": "Blok miedzi",
      "nameEn": "Block of Copper"
    },
    "storeName": "Kowal Kamil",
    "storeLocation": "Nilplep",
    "storeOwner": "Ketrab",
    "x": -745,
    "y": 66,
    "z": 116
  },
  {
    "id": "wysokikacik_bonczyslaw_1",
    "product": {
      "item": "honeycomb",
      "qty": 16,
      "name": "Plaster miodu",
      "nameEn": "Honeycomb"
    },
    "price1": {
      "item": "emerald",
      "qty": 4,
      "name": "Szmaragd",
      "nameEn": "Emerald"
    },
    "storeName": "Bonczyslaw",
    "storeLocation": "Wysoki Kącik",
    "storeOwner": "Ketrab",
    "notes": "Pole Kwiatowe",
    "x": -4082,
    "y": 71,
    "z": 1410
  },
  {
    "id": "wysokikacik_bonczyslaw_2",
    "product": {
      "item": "honey_block",
      "qty": 16,
      "name": "Blok miodu",
      "nameEn": "Honey Block"
    },
    "price1": {
      "item": "emerald",
      "qty": 8,
      "name": "Szmaragd",
      "nameEn": "Emerald"
    },
    "storeName": "Bonczyslaw",
    "storeLocation": "Wysoki Kącik",
    "storeOwner": "Ketrab",
    "notes": "Pole Kwiatowe",
    "x": -4082,
    "y": 71,
    "z": 1410
  },
  {
    "id": "wysokikacik_bonczyslaw_3",
    "product": {
      "item": "beehive",
      "qty": 1,
      "name": "Ul (Pszczoły: 3/3)",
      "nameEn": "Beehive (Bees: 3/3)"
    },
    "price1": {
      "item": "emerald",
      "qty": 10,
      "name": "Szmaragd",
      "nameEn": "Emerald"
    },
    "storeName": "Bonczyslaw",
    "storeLocation": "Wysoki Kącik",
    "storeOwner": "Ketrab",
    "notes": "Pole Kwiatowe",
    "x": -4082,
    "y": 71,
    "z": 1410
  },
  {
    "id": "nilplep_kebaben_1",
    "product": {
      "item": "cooked_chicken",
      "qty": 16,
      "name": "Kylling Kebab",
      "nameEn": "Kylling Kebab"
    },
    "price1": {
      "item": "emerald",
      "qty": 1,
      "name": "Szmaragd",
      "nameEn": "Emerald"
    },
    "storeName": "Kebaben",
    "storeLocation": "Nilplep",
    "storeOwner": "Ketrab",
    "notes": "w metrze",
    "x": -472,
    "y": 55,
    "z": 189
  },
  {
    "id": "nilplep_kebaben_2",
    "product": {
      "item": "cooked_mutton",
      "qty": 16,
      "name": "Lamm Kebab",
      "nameEn": "Lamm Kebab"
    },
    "price1": {
      "item": "emerald",
      "qty": 1,
      "name": "Szmaragd",
      "nameEn": "Emerald"
    },
    "storeName": "Kebaben",
    "storeLocation": "Nilplep",
    "storeOwner": "Ketrab",
    "notes": "w metrze",
    "x": -472,
    "y": 55,
    "z": 189
  },
  {
    "id": "nilplep_kebaben_3",
    "product": {
      "item": "cooked_beef",
      "qty": 16,
      "name": "Storfe Kebab",
      "nameEn": "Storfe Kebab"
    },
    "price1": {
      "item": "emerald",
      "qty": 1,
      "name": "Szmaragd",
      "nameEn": "Emerald"
    },
    "storeName": "Kebaben",
    "storeLocation": "Nilplep",
    "storeOwner": "Ketrab",
    "notes": "w metrze",
    "x": -472,
    "y": 55,
    "z": 189
  },
  {
    "id": "nilplep_kebaben_4",
    "product": {
      "item": "cooked_porkchop",
      "qty": 16,
      "name": "Svine Kebab",
      "nameEn": "Svine Kebab"
    },
    "price1": {
      "item": "emerald",
      "qty": 1,
      "name": "Szmaragd",
      "nameEn": "Emerald"
    },
    "storeName": "Kebaben",
    "storeLocation": "Nilplep",
    "storeOwner": "Ketrab",
    "notes": "w metrze",
    "x": -472,
    "y": 55,
    "z": 189
  },
  {
    "id": "nilplep_kebaben_5",
    "product": {
      "item": "bread",
      "qty": 16,
      "name": "Pita",
      "nameEn": "Pita"
    },
    "price1": {
      "item": "emerald",
      "qty": 1,
      "name": "Szmaragd",
      "nameEn": "Emerald"
    },
    "storeName": "Kebaben",
    "storeLocation": "Nilplep",
    "storeOwner": "Ketrab",
    "notes": "w metrze",
    "x": -472,
    "y": 55,
    "z": 189
  },
  {
    "id": "nilplep_kebaben_6",
    "product": {
      "item": "baked_potato",
      "qty": 16,
      "name": "Pommes Frites",
      "nameEn": "Pommes Frites"
    },
    "price1": {
      "item": "emerald",
      "qty": 1,
      "name": "Szmaragd",
      "nameEn": "Emerald"
    },
    "storeName": "Kebaben",
    "storeLocation": "Nilplep",
    "storeOwner": "Ketrab",
    "notes": "w metrze",
    "x": -472,
    "y": 55,
    "z": 189
  },
  {
    "id": "nilplep_frogszop5_1",
    "product": {
      "item": "sugar_cane",
      "qty": 64,
      "name": "Trzcina cukrowa",
      "nameEn": "Sugar Cane"
    },
    "villageName": "Filip",
    "price1": {
      "item": "emerald",
      "qty": 4,
      "name": "Szmaragd",
      "nameEn": "Emerald"
    },
    "storeName": "Frogszop 5",
    "storeLocation": "Nilplep",
    "storeOwner": "Ketrab",
    "notes": "w metrze",
    "x": -743,
    "y": 55,
    "z": 217
  },
  {
    "id": "nilplep_frogszop7_1",
    "product": {
      "item": "armadillo_scute",
      "qty": 16,
      "name": "Tarczka pancernika",
      "nameEn": "Armadillo Scute"
    },
    "villageName": "Franek",
    "price1": {
      "item": "emerald",
      "qty": 4,
      "name": "Szmaragd",
      "nameEn": "Emerald"
    },
    "storeName": "Frogszop 7",
    "storeLocation": "Nilplep",
    "storeOwner": "Ketrab",
    "notes": "przy kościele",
    "x": -786,
    "y": 71,
    "z": 163
  },
  {
    "id": "nilplep_jajami_1",
    "product": {
      "item": "book",
      "qty": 2,
      "name": "Książka",
      "nameEn": "Book"
    },
    "price1": {
      "item": "emerald",
      "qty": 1,
      "name": "Szmarahd",
      "nameEn": "Emerald"
    },
    "storeName": "Jajami Omate",
    "storeLocation": "Nilplep",
    "storeOwner": "Ketrab",
    "notes": "Drzewo Maga",
    "x": -816,
    "y": 81,
    "z": 115
  },
  {
    "id": "ciechocinek_maurycy_1",
    "product": {
      "item": "music_disc_creator_music_box",
      "qty": 1,
      "name": "Płyta muzyczna [Lena Raine - Creator (pozytywka)]",
      "nameEn": "Music Disc [Lena Raine - Creator (Musical Box)]"
    },
    "price1": {
      "item": "creeper_banner_pattern",
      "qty": 6,
      "enchanted": true,
      "customItem": true,
      "name": "Talon muzyczny",
      "nameEn": "Talon muzyczny"
    },
    "storeName": "Muzyk Maurycy",
    "storeLocation": "Ciechocinek",
    "storeOwner": "AdminShop",
    "x": -1023,
    "y": 67,
    "z": 1917
  },
  {
    "id": "ciechocinek_maurycy_2",
    "product": {
      "item": "music_disc_creator",
      "qty": 1,
      "name": "Płyta muzyczna [Lena Raine - Creator]",
      "nameEn": "Music Disc [Lena Raine - Creator]"
    },
    "price1": {
      "item": "creeper_banner_pattern",
      "qty": 4,
      "enchanted": true,
      "customItem": true,
      "name": "Talon muzyczny",
      "nameEn": "Talon muzyczny"
    },
    "storeName": "Muzyk Maurycy",
    "storeLocation": "Ciechocinek",
    "storeOwner": "AdminShop",
    "x": -1023,
    "y": 67,
    "z": 1917
  },
  {
    "id": "ciechocinek_maurycy_3",
    "product": {
      "item": "music_disc_lava_chicken",
      "qty": 1,
      "name": "Płyta muzyczna [Hyper Potions - Lava Chicken]",
      "nameEn": "Music Disc [Hyper Potions - Lava Chicken]"
    },
    "price1": {
      "item": "creeper_banner_pattern",
      "qty": 4,
      "enchanted": true,
      "customItem": true,
      "name": "Talon muzyczny",
      "nameEn": "Talon muzyczny"
    },
    "storeName": "Muzyk Maurycy",
    "storeLocation": "Ciechocinek",
    "storeOwner": "AdminShop",
    "x": -1023,
    "y": 67,
    "z": 1917
  },
  {
    "id": "ciechocinek_maurycy_4",
    "product": {
      "item": "music_disc_otherside",
      "qty": 1,
      "name": "Płyta muzyczna [Lena Raine - otherside]",
      "nameEn": "Music Disc [Lena Raine - otherside]"
    },
    "price1": {
      "item": "creeper_banner_pattern",
      "qty": 4,
      "enchanted": true,
      "customItem": true,
      "name": "Talon muzyczny",
      "nameEn": "Talon muzyczny"
    },
    "storeName": "Muzyk Maurycy",
    "storeLocation": "Ciechocinek",
    "storeOwner": "AdminShop",
    "x": -1023,
    "y": 67,
    "z": 1917
  },
  {
    "id": "ciechocinek_maurycy_5",
    "product": {
      "item": "music_disc_precipice",
      "qty": 1,
      "name": "Płyta muzyczna [Aaron Cherof - Precipice]",
      "nameEn": "Music Disc [Aaron Cherof - Precipice]"
    },
    "price1": {
      "item": "creeper_banner_pattern",
      "qty": 6,
      "enchanted": true,
      "customItem": true,
      "name": "Talon muzyczny",
      "nameEn": "Talon muzyczny"
    },
    "storeName": "Muzyk Maurycy",
    "storeLocation": "Ciechocinek",
    "storeOwner": "AdminShop",
    "x": -1023,
    "y": 67,
    "z": 1917
  },
  {
    "id": "ciechocinek_maurycy_6",
    "product": {
      "item": "music_disc_pigstep",
      "qty": 1,
      "name": "Płyta muzyczna [Lena Raine - Pigstep]",
      "nameEn": "Music Disc [Lena Raine - Pigstep]"
    },
    "price1": {
      "item": "creeper_banner_pattern",
      "qty": 4,
      "enchanted": true,
      "customItem": true,
      "name": "Talon muzyczny",
      "nameEn": "Talon muzyczny"
    },
    "storeName": "Muzyk Maurycy",
    "storeLocation": "Ciechocinek",
    "storeOwner": "AdminShop",
    "x": -1023,
    "y": 67,
    "z": 1917
  },
  {
    "id": "ciechocinek_maurycy_7",
    "product": {
      "item": "music_disc_5",
      "qty": 1,
      "name": "Płyta muzyczna [Samuel Åberg - 5]",
      "nameEn": "Music Disc [Samuel Åberg - 5]"
    },
    "price1": {
      "item": "creeper_banner_pattern",
      "qty": 6,
      "enchanted": true,
      "customItem": true,
      "name": "Talon muzyczny",
      "nameEn": "Talon muzyczny"
    },
    "storeName": "Muzyk Maurycy",
    "storeLocation": "Ciechocinek",
    "storeOwner": "AdminShop",
    "x": -1023,
    "y": 67,
    "z": 1917
  },
  {
    "id": "ciechocinek_maurycy_8",
    "product": {
      "item": "music_disc_relic",
      "qty": 1,
      "name": "Płyta muzyczna [Aaron Cherof - Relic]",
      "nameEn": "Music Disc [Aaron Cherof - Relic]"
    },
    "price1": {
      "item": "creeper_banner_pattern",
      "qty": 6,
      "enchanted": true,
      "customItem": true,
      "name": "Talon muzyczny",
      "nameEn": "Talon muzyczny"
    },
    "storeName": "Muzyk Maurycy",
    "storeLocation": "Ciechocinek",
    "storeOwner": "AdminShop",
    "x": -1023,
    "y": 67,
    "z": 1917
  },
  {
    "id": "miedzygorze_robert_1",
    "product": {
      "item": "creeper_banner_pattern",
      "qty": 1,
      "enchanted": true,
      "customItem": true,
      "name": "Talon muzyczny",
      "nameEn": "Talon muzyczny"
    },
    "price1": {
      "item": "music_disc_13",
      "qty": 1,
      "name": "Płyta muzyczna [C418 - 13]",
      "nameEn": "Music Disc [C418 - 13]"
    },
    "storeName": "Robert Makdyskowicz",
    "storeLocation": "Międzygórze",
    "storeOwner": "AdminShop",
    "x": -1204,
    "y": 98,
    "z": -142
  },
  {
    "id": "miedzygorze_robert_2",
    "product": {
      "item": "creeper_banner_pattern",
      "qty": 1,
      "enchanted": true,
      "customItem": true,
      "name": "Talon muzyczny",
      "nameEn": "Talon muzyczny"
    },
    "price1": {
      "item": "music_disc_cat",
      "qty": 1,
      "name": "Płyta muzyczna [C418 - cat]",
      "nameEn": "Music Disc [C418 - cat]"
    },
    "storeName": "Robert Makdyskowicz",
    "storeLocation": "Międzygórze",
    "storeOwner": "AdminShop",
    "x": -1204,
    "y": 98,
    "z": -142
  },
  {
    "id": "miedzygorze_robert_3",
    "product": {
      "item": "creeper_banner_pattern",
      "qty": 1,
      "enchanted": true,
      "customItem": true,
      "name": "Talon muzyczny",
      "nameEn": "Talon muzyczny"
    },
    "price1": {
      "item": "music_disc_blocks",
      "qty": 1,
      "name": "Płyta muzyczna [C418 - blocks]",
      "nameEn": "Music Disc [C418 - blocks]"
    },
    "storeName": "Robert Makdyskowicz",
    "storeLocation": "Międzygórze",
    "storeOwner": "AdminShop",
    "x": -1204,
    "y": 98,
    "z": -142
  },
  {
    "id": "miedzygorze_robert_4",
    "product": {
      "item": "creeper_banner_pattern",
      "qty": 1,
      "enchanted": true,
      "customItem": true,
      "name": "Talon muzyczny",
      "nameEn": "Talon muzyczny"
    },
    "price1": {
      "item": "music_disc_chirp",
      "qty": 1,
      "name": "Płyta muzyczna [C418 - chirp]",
      "nameEn": "Music Disc [C418 - chirp]"
    },
    "storeName": "Robert Makdyskowicz",
    "storeLocation": "Międzygórze",
    "storeOwner": "AdminShop",
    "x": -1204,
    "y": 98,
    "z": -142
  },
  {
    "id": "miedzygorze_robert_5",
    "product": {
      "item": "creeper_banner_pattern",
      "qty": 1,
      "enchanted": true,
      "customItem": true,
      "name": "Talon muzyczny",
      "nameEn": "Talon muzyczny"
    },
    "price1": {
      "item": "music_disc_far",
      "qty": 1,
      "name": "Płyta muzyczna [C418 - far]",
      "nameEn": "Music Disc [C418 - far]"
    },
    "storeName": "Robert Makdyskowicz",
    "storeLocation": "Międzygórze",
    "storeOwner": "AdminShop",
    "x": -1204,
    "y": 98,
    "z": -142
  },
  {
    "id": "miedzygorze_robert_6",
    "product": {
      "item": "creeper_banner_pattern",
      "qty": 1,
      "enchanted": true,
      "customItem": true,
      "name": "Talon muzyczny",
      "nameEn": "Talon muzyczny"
    },
    "price1": {
      "item": "music_disc_mall",
      "qty": 1,
      "name": "Płyta muzyczna [C418 - mall]",
      "nameEn": "Music Disc [C418 - mall]"
    },
    "storeName": "Robert Makdyskowicz",
    "storeLocation": "Międzygórze",
    "storeOwner": "AdminShop",
    "x": -1204,
    "y": 98,
    "z": -142
  },
  {
    "id": "miedzygorze_robert_7",
    "product": {
      "item": "creeper_banner_pattern",
      "qty": 1,
      "enchanted": true,
      "customItem": true,
      "name": "Talon muzyczny",
      "nameEn": "Talon muzyczny"
    },
    "price1": {
      "item": "music_disc_mellohi",
      "qty": 1,
      "name": "Płyta muzyczna [C418 - mellohi]",
      "nameEn": "Music Disc [C418 - mellohi]"
    },
    "storeName": "Robert Makdyskowicz",
    "storeLocation": "Międzygórze",
    "storeOwner": "AdminShop",
    "x": -1204,
    "y": 98,
    "z": -142
  },
  {
    "id": "miedzygorze_robert_8",
    "product": {
      "item": "creeper_banner_pattern",
      "qty": 1,
      "enchanted": true,
      "customItem": true,
      "name": "Talon muzyczny",
      "nameEn": "Talon muzyczny"
    },
    "price1": {
      "item": "music_disc_stal",
      "qty": 1,
      "name": "Płyta muzyczna [C418 - stal]",
      "nameEn": "Music Disc [C418 - stal]"
    },
    "storeName": "Robert Makdyskowicz",
    "storeLocation": "Międzygórze",
    "storeOwner": "AdminShop",
    "x": -1204,
    "y": 98,
    "z": -142
  },
  {
    "id": "miedzygorze_robert_9",
    "product": {
      "item": "creeper_banner_pattern",
      "qty": 1,
      "enchanted": true,
      "customItem": true,
      "name": "Talon muzyczny",
      "nameEn": "Talon muzyczny"
    },
    "price1": {
      "item": "music_disc_strad",
      "qty": 1,
      "name": "Płyta muzyczna [C418 - strad]",
      "nameEn": "Music Disc [C418 - strad]"
    },
    "storeName": "Robert Makdyskowicz",
    "storeLocation": "Międzygórze",
    "storeOwner": "AdminShop",
    "x": -1204,
    "y": 98,
    "z": -142
  },
  {
    "id": "miedzygorze_robert_10",
    "product": {
      "item": "creeper_banner_pattern",
      "qty": 1,
      "enchanted": true,
      "customItem": true,
      "name": "Talon muzyczny",
      "nameEn": "Talon muzyczny"
    },
    "price1": {
      "item": "music_disc_ward",
      "qty": 1,
      "name": "Płyta muzyczna [C418 - ward]",
      "nameEn": "Music Disc [C418 - ward]"
    },
    "storeName": "Robert Makdyskowicz",
    "storeLocation": "Międzygórze",
    "storeOwner": "AdminShop",
    "x": -1204,
    "y": 98,
    "z": -142
  },
  {
    "id": "miedzygorze_robert_11",
    "product": {
      "item": "creeper_banner_pattern",
      "qty": 1,
      "enchanted": true,
      "customItem": true,
      "name": "Talon muzyczny",
      "nameEn": "Talon muzyczny"
    },
    "price1": {
      "item": "music_disc_11",
      "qty": 1,
      "name": "Płyta muzyczna [C418 - 11]",
      "nameEn": "Music Disc [C418 - 11]"
    },
    "storeName": "Robert Makdyskowicz",
    "storeLocation": "Międzygórze",
    "storeOwner": "AdminShop",
    "x": -1204,
    "y": 98,
    "z": -142
  },
  {
    "id": "miedzygorze_robert_12",
    "product": {
      "item": "creeper_banner_pattern",
      "qty": 1,
      "enchanted": true,
      "customItem": true,
      "name": "Talon muzyczny",
      "nameEn": "Talon muzyczny"
    },
    "price1": {
      "item": "music_disc_wait",
      "qty": 1,
      "name": "Płyta muzyczna [C418 - wait]",
      "nameEn": "Music Disc [C418 - wait]"
    },
    "storeName": "Robert Makdyskowicz",
    "storeLocation": "Międzygórze",
    "storeOwner": "AdminShop",
    "x": -1204,
    "y": 98,
    "z": -142
  },
  {
    "id": "miedzygorze_robert_13",
    "product": {
      "item": "creeper_banner_pattern",
      "qty": 1,
      "enchanted": true,
      "customItem": true,
      "name": "Talon muzyczny",
      "nameEn": "Talon muzyczny"
    },
    "price1": {
      "item": "music_disc_tears",
      "qty": 1,
      "name": "Płyta muzyczna [Amos Roddy - Tears]",
      "nameEn": "Music Disc [Amos Roddy - Tears]"
    },
    "storeName": "Robert Makdyskowicz",
    "storeLocation": "Międzygórze",
    "storeOwner": "AdminShop",
    "x": -1204,
    "y": 98,
    "z": -142
  },
  {
    "id": "susy_zdzisiek_1",
    "product": {
      "item": "sign_d1",
      "qty": 1,
      "name": "D1",
      "nameEn": "D1"
    },
    "price1": {
      "item": "emerald",
      "qty": 1,
      "name": "Szmaragd",
      "nameEn": "Emerald"
    },
    "price2": {
      "item": "map",
      "qty": 1,
      "name": "Pusta mapa",
      "nameEn": "Empty Map"
    },
    "storeName": "Znakeks",
    "storeLocation": "Susy",
    "storeOwner": "Ketrab",
    "notes": "Kasjer Zdzisiek",
    "x": -233,
    "y": 66,
    "z": 315
  },
  {
    "id": "susy_zdzisiek_2",
    "product": {
      "item": "sign_d2",
      "qty": 1,
      "name": "D2",
      "nameEn": "D2"
    },
    "price1": {
      "item": "emerald",
      "qty": 1,
      "name": "Szmaragd",
      "nameEn": "Emerald"
    },
    "price2": {
      "item": "map",
      "qty": 1,
      "name": "Pusta mapa",
      "nameEn": "Empty Map"
    },
    "storeName": "Znakeks",
    "storeLocation": "Susy",
    "storeOwner": "Ketrab",
    "notes": "Kasjer Zdzisiek",
    "x": -233,
    "y": 66,
    "z": 315
  },
  {
    "id": "susy_zdzisiek_3",
    "product": {
      "item": "sign_b20",
      "qty": 1,
      "name": "B20",
      "nameEn": "B20"
    },
    "price1": {
      "item": "emerald",
      "qty": 1,
      "name": "Szmaragd",
      "nameEn": "Emerald"
    },
    "price2": {
      "item": "map",
      "qty": 1,
      "name": "Pusta mapa",
      "nameEn": "Empty Map"
    },
    "storeName": "Znakeks",
    "storeLocation": "Susy",
    "storeOwner": "Ketrab",
    "notes": "Kasjer Zdzisiek",
    "x": -233,
    "y": 66,
    "z": 315
  },
  {
    "id": "susy_zdzisiek_4",
    "product": {
      "item": "sign_a7",
      "qty": 1,
      "name": "A7",
      "nameEn": "A7"
    },
    "price1": {
      "item": "emerald",
      "qty": 1,
      "name": "Szmaragd",
      "nameEn": "Emerald"
    },
    "price2": {
      "item": "map",
      "qty": 1,
      "name": "Pusta mapa",
      "nameEn": "Empty Map"
    },
    "storeName": "Znakeks",
    "storeLocation": "Susy",
    "storeOwner": "Ketrab",
    "notes": "Kasjer Zdzisiek",
    "x": -233,
    "y": 66,
    "z": 315
  },
  {
    "id": "susy_zdzisiek_5",
    "product": {
      "item": "sign_g3",
      "qty": 1,
      "name": "G3",
      "nameEn": "G3"
    },
    "price1": {
      "item": "emerald",
      "qty": 1,
      "name": "Szmaragd",
      "nameEn": "Emerald"
    },
    "price2": {
      "item": "map",
      "qty": 1,
      "name": "Pusta mapa",
      "nameEn": "Empty Map"
    },
    "storeName": "Znakeks",
    "storeLocation": "Susy",
    "storeOwner": "Ketrab",
    "notes": "Kasjer Zdzisiek",
    "x": -233,
    "y": 66,
    "z": 315
  },
  {
    "id": "susy_zdzisiek_6",
    "product": {
      "item": "sign_a9",
      "qty": 1,
      "name": "A9",
      "nameEn": "A9"
    },
    "price1": {
      "item": "emerald",
      "qty": 1,
      "name": "Szmaragd",
      "nameEn": "Emerald"
    },
    "price2": {
      "item": "map",
      "qty": 1,
      "name": "Pusta mapa",
      "nameEn": "Empty Map"
    },
    "storeName": "Znakeks",
    "storeLocation": "Susy",
    "storeOwner": "Ketrab",
    "notes": "Kasjer Zdzisiek",
    "x": -233,
    "y": 66,
    "z": 315
  },
  {
    "id": "susy_zdzisiek_7",
    "product": {
      "item": "sign_a10",
      "qty": 1,
      "name": "A10",
      "nameEn": "A10"
    },
    "price1": {
      "item": "emerald",
      "qty": 1,
      "name": "Szmaragd",
      "nameEn": "Emerald"
    },
    "price2": {
      "item": "map",
      "qty": 1,
      "name": "Pusta mapa",
      "nameEn": "Empty Map"
    },
    "storeName": "Znakeks",
    "storeLocation": "Susy",
    "storeOwner": "Ketrab",
    "notes": "Kasjer Zdzisiek",
    "x": -233,
    "y": 66,
    "z": 315
  },
  {
    "id": "susy_zdzisiek_8",
    "product": {
      "item": "sign_a30",
      "qty": 1,
      "name": "A30",
      "nameEn": "A30"
    },
    "price1": {
      "item": "emerald",
      "qty": 1,
      "name": "Szmaragd",
      "nameEn": "Emerald"
    },
    "price2": {
      "item": "map",
      "qty": 1,
      "name": "Pusta mapa",
      "nameEn": "Empty Map"
    },
    "storeName": "Znakeks",
    "storeLocation": "Susy",
    "storeOwner": "Ketrab",
    "notes": "Kasjer Zdzisiek",
    "x": -233,
    "y": 66,
    "z": 315
  },
  {
    "id": "susy_zygmunt_1",
    "product": {
      "item": "flushed",
      "qty": 1,
      "name": ":flushed:",
      "nameEn": ":flushed:"
    },
    "price1": {
      "item": "emerald",
      "qty": 1,
      "name": "Szmaragd",
      "nameEn": "Emerald"
    },
    "price2": {
      "item": "map",
      "qty": 1,
      "name": "Pusta mapa",
      "nameEn": "Empty Map"
    },
    "storeName": "Znakeks",
    "storeLocation": "Susy",
    "storeOwner": "Ketrab",
    "notes": "Kasjer Zygmunt",
    "x": -229,
    "y": 66,
    "z": 315
  },
  {
    "id": "susy_zygmunt_2",
    "product": {
      "item": "frogszop",
      "qty": 1,
      "name": "Frogszop™",
      "nameEn": "Frogszop™"
    },
    "price1": {
      "item": "emerald",
      "qty": 1,
      "name": "Szmaragd",
      "nameEn": "Emerald"
    },
    "price2": {
      "item": "map",
      "qty": 1,
      "name": "Pusta mapa",
      "nameEn": "Empty Map"
    },
    "storeName": "Znakeks",
    "storeLocation": "Susy",
    "storeOwner": "Ketrab",
    "notes": "Kasjer Zygmunt",
    "x": -229,
    "y": 66,
    "z": 315
  },
  {
    "id": "susy_zygmunt_3",
    "product": {
      "item": "pat1",
      "qty": 1,
      "name": "Papież Pat (1/4)",
      "nameEn": "Papież Pat (1/4)"
    },
    "price1": {
      "item": "emerald",
      "qty": 1,
      "name": "Szmaragd",
      "nameEn": "Emerald"
    },
    "price2": {
      "item": "map",
      "qty": 1,
      "name": "Pusta mapa",
      "nameEn": "Empty Map"
    },
    "storeName": "Znakeks",
    "storeLocation": "Susy",
    "storeOwner": "Ketrab",
    "notes": "Kasjer Zygmunt",
    "x": -229,
    "y": 66,
    "z": 315
  },
  {
    "id": "susy_zygmunt_4",
    "product": {
      "item": "pat2",
      "qty": 1,
      "name": "Papież Pat (2/4)",
      "nameEn": "Papież Pat (2/4)"
    },
    "price1": {
      "item": "emerald",
      "qty": 1,
      "name": "Szmaragd",
      "nameEn": "Emerald"
    },
    "price2": {
      "item": "map",
      "qty": 1,
      "name": "Pusta mapa",
      "nameEn": "Empty Map"
    },
    "storeName": "Znakeks",
    "storeLocation": "Susy",
    "storeOwner": "Ketrab",
    "notes": "Kasjer Zygmunt",
    "x": -229,
    "y": 66,
    "z": 315
  },
  {
    "id": "susy_zygmunt_5",
    "product": {
      "item": "pat3",
      "qty": 1,
      "name": "Papież Pat (3/4)",
      "nameEn": "Papież Pat (3/4)"
    },
    "price1": {
      "item": "emerald",
      "qty": 1,
      "name": "Szmaragd",
      "nameEn": "Emerald"
    },
    "price2": {
      "item": "map",
      "qty": 1,
      "name": "Pusta mapa",
      "nameEn": "Empty Map"
    },
    "storeName": "Znakeks",
    "storeLocation": "Susy",
    "storeOwner": "Ketrab",
    "notes": "Kasjer Zygmunt",
    "x": -229,
    "y": 66,
    "z": 315
  },
  {
    "id": "susy_zygmunt_6",
    "product": {
      "item": "pat4",
      "qty": 1,
      "name": "Papież Pat (4/4)",
      "nameEn": "Papież Pat (4/4)"
    },
    "price1": {
      "item": "emerald",
      "qty": 1,
      "name": "Szmaragd",
      "nameEn": "Emerald"
    },
    "price2": {
      "item": "map",
      "qty": 1,
      "name": "Pusta mapa",
      "nameEn": "Empty Map"
    },
    "storeName": "Znakeks",
    "storeLocation": "Susy",
    "storeOwner": "Ketrab",
    "notes": "Kasjer Zygmunt",
    "x": -229,
    "y": 66,
    "z": 315
  },
  {
    "id": "susy_zygmunt_7",
    "product": {
      "item": "wlocznia",
      "qty": 1,
      "name": "Włócznia Niepokoju",
      "nameEn": "Włócznia Niepokoju"
    },
    "price1": {
      "item": "emerald",
      "qty": 1,
      "name": "Szmaragd",
      "nameEn": "Emerald"
    },
    "price2": {
      "item": "map",
      "qty": 1,
      "name": "Pusta mapa",
      "nameEn": "Empty Map"
    },
    "storeName": "Znakeks",
    "storeLocation": "Susy",
    "storeOwner": "Ketrab",
    "notes": "Kasjer Zygmunt",
    "x": -229,
    "y": 66,
    "z": 315
  },
  {
    "id": "susy_zygmunt_8",
    "product": {
      "item": "zegarbialy",
      "qty": 1,
      "name": "Zegar tarczowy (biały)",
      "nameEn": "Zegar tarczowy (biały)"
    },
    "price1": {
      "item": "emerald",
      "qty": 1,
      "name": "Szmaragd",
      "nameEn": "Emerald"
    },
    "price2": {
      "item": "map",
      "qty": 1,
      "name": "Pusta mapa",
      "nameEn": "Empty Map"
    },
    "storeName": "Znakeks",
    "storeLocation": "Susy",
    "storeOwner": "Ketrab",
    "notes": "Kasjer Zygmunt",
    "x": -229,
    "y": 66,
    "z": 315
  },
  {
    "id": "susy_zygmunt_9",
    "product": {
      "item": "zakazfoto",
      "qty": 1,
      "name": "Zakaz fotografowania",
      "nameEn": "Zakaz fotografowania"
    },
    "price1": {
      "item": "emerald",
      "qty": 1,
      "name": "Szmaragd",
      "nameEn": "Emerald"
    },
    "price2": {
      "item": "map",
      "qty": 1,
      "name": "Pusta mapa",
      "nameEn": "Empty Map"
    },
    "storeName": "Znakeks",
    "storeLocation": "Susy",
    "storeOwner": "Ketrab",
    "notes": "Kasjer Zygmunt",
    "x": -229,
    "y": 66,
    "z": 315
  },
  {
    "id": "spawnowice_butelki_1",
    "product": {
      "item": "paper",
      "qty": 1,
      "customItem": true,
      "name": "Kibelion",
      "nameEn": "Kibelion"
    },
    "price1": {
      "item": "glass_bottle",
      "qty": 64,
      "name": "Szklana butelka",
      "nameEn": "Glass Bottle"
    },
    "storeName": "Skup butelek",
    "storeLocation": "Spawnowice",
    "storeOwner": "AdminShop",
    "x": -65,
    "y": 67,
    "z": 186
  },
  {
    "id": "dentgino_pankracy_5",
    "product": {
      "item": "dark_oak_trapdoor",
      "qty": 2,
      "customItem": true,
      "name": "Tabliczka czekolady JUMBO",
      "nameEn": "Tabliczka czekolady JUMBO"
    },
    "villageName": "Pankracy Mendelejew",
    "price1": {
      "item": "paper",
      "qty": 1,
      "customItem": true,
      "name": "Kibelion",
      "nameEn": "Kibelion"
    },
    "storeName": "MOSTOR",
    "storeLocation": "Dentgino",
    "storeOwner": "AdminShop",
    "x": 3520,
    "y": 64,
    "z": 3799
  },
  {
    "id": "dentgino_pankracy_6",
    "product": {
      "item": "burgir",
      "qty": 1,
      "customItem": true,
      "name": "burgir",
      "nameEn": "burgir"
    },
    "villageName": "Pankracy Mendelejew",
    "price1": {
      "item": "paper",
      "qty": 1,
      "customItem": true,
      "name": "Kibelion",
      "nameEn": "Kibelion"
    },
    "storeName": "MOSTOR",
    "storeLocation": "Dentgino",
    "storeOwner": "AdminShop",
    "x": 3520,
    "y": 64,
    "z": 3799
  },
  {
    "id": "spawnowice_mc_7",
    "product": {
      "item": "burgir",
      "qty": 1,
      "customItem": true,
      "name": "McRoyal",
      "nameEn": "McRoyal"
    },
    "price1": {
      "item": "paper",
      "qty": 1,
      "customItem": true,
      "name": "Kibelion",
      "nameEn": "Kibelion"
    },
    "storeName": "McDonald",
    "storeLocation": "Spawnowice",
    "storeOwner": "AdminShop",
    "x": -70,
    "y": 67,
    "z": -174
  },
  {
    "id": "spawnowice_gfci_11",
    "product": {
      "item": "kubelek",
      "qty": 1,
      "customItem": true,
      "name": "Kubełek gorących skrzydełek i frytki",
      "nameEn": "Kubełek gorących skrzydełek i frytki"
    },
    "price1": {
      "item": "paper",
      "qty": 1,
      "customItem": true,
      "name": "Kibelion",
      "nameEn": "Kibelion"
    },
    "storeName": "GFCI",
    "storeLocation": "Spawnowice",
    "storeOwner": "AdminShop",
    "x": -115,
    "y": 67,
    "z": -90
  },
  {
    "id": "spawnowice_szostka_1",
    "product": {
      "item": "firework_rocket",
      "qty": 10,
      "name": "Fajerwerk (Czas lotu: 1)",
      "nameEn": "Firework Rocket (Flight Duration: 1)"
    },
    "villageName": "Ździchu",
    "price1": {
      "item": "paper",
      "qty": 3,
      "customItem": true,
      "name": "Kibelion",
      "nameEn": "Kibelion"
    },
    "storeName": "Szóstka",
    "storeLocation": "Spawnowice",
    "storeOwner": "Miersetnik",
    "x": -247,
    "y": 67,
    "z": -78
  },
  {
    "id": "spawnowice_szostka_2",
    "product": {
      "item": "firework_rocket",
      "qty": 21,
      "name": "Fajerwerk (Czas lotu: 1)",
      "nameEn": "Firework Rocket (Flight Duration: 1)"
    },
    "villageName": "Ździchu",
    "price1": {
      "item": "paper",
      "qty": 4,
      "customItem": true,
      "name": "Kibelion",
      "nameEn": "Kibelion"
    },
    "storeName": "Szóstka",
    "storeLocation": "Spawnowice",
    "storeOwner": "Miersetnik",
    "x": -247,
    "y": 67,
    "z": -78
  },
  {
    "id": "spawnowice_szostka_3",
    "product": {
      "item": "firework_rocket",
      "qty": 32,
      "name": "Fajerwerk (Czas lotu: 1)",
      "nameEn": "Firework Rocket (Flight Duration: 1)"
    },
    "villageName": "Ździchu",
    "price1": {
      "item": "paper",
      "qty": 5,
      "customItem": true,
      "name": "Kibelion",
      "nameEn": "Kibelion"
    },
    "storeName": "Szóstka",
    "storeLocation": "Spawnowice",
    "storeOwner": "Miersetnik",
    "x": -247,
    "y": 67,
    "z": -78
  },
  {
    "id": "spawnowice_farmaceutka_1",
    "product": {
      "item": "light_gray_dye",
      "qty": 8,
      "customItem": true,
      "name": "Brechtaceum",
      "nameEn": "Brechtaceum"
    },
    "price1": {
      "item": "paper",
      "qty": 1,
      "customItem": true,
      "name": "Kibelion",
      "nameEn": "Kibelion"
    },
    "storeName": "Farmaceutka Fryderyka",
    "storeLocation": "Spawnowice",
    "storeOwner": "AdminShop",
    "x": -312,
    "y": 70,
    "z": -20
  },
  {
    "id": "spawnowice_farmaceutka_2",
    "product": {
      "item": "yellow_dye",
      "qty": 1,
      "customItem": true,
      "name": "Pawulonik",
      "nameEn": "Pawulonik"
    },
    "price1": {
      "item": "paper",
      "qty": 1,
      "customItem": true,
      "name": "Kibelion",
      "nameEn": "Kibelion"
    },
    "storeName": "Farmaceutka Fryderyka",
    "storeLocation": "Spawnowice",
    "storeOwner": "AdminShop",
    "x": -312,
    "y": 70,
    "z": -20
  },
  {
    "id": "spawnowice_farmaceutka_3",
    "product": {
      "item": "orange_dye",
      "qty": 2,
      "customItem": true,
      "name": "Rutinoskurwysyn",
      "nameEn": "Rutinoskurwysyn"
    },
    "price1": {
      "item": "paper",
      "qty": 1,
      "customItem": true,
      "name": "Kibelion",
      "nameEn": "Kibelion"
    },
    "storeName": "Farmaceutka Fryderyka",
    "storeLocation": "Spawnowice",
    "storeOwner": "AdminShop",
    "x": -312,
    "y": 70,
    "z": -20
  },
  {
    "id": "spawnowice_farmaceutka_4",
    "product": {
      "item": "magenta_dye",
      "qty": 1,
      "customItem": true,
      "name": "Brecht-X",
      "nameEn": "Brecht-X"
    },
    "price1": {
      "item": "paper",
      "qty": 2,
      "customItem": true,
      "name": "Kibelion",
      "nameEn": "Kibelion"
    },
    "storeName": "Farmaceutka Fryderyka",
    "storeLocation": "Spawnowice",
    "storeOwner": "AdminShop",
    "x": -312,
    "y": 70,
    "z": -20
  },
  {
    "id": "nilplep_atique_lucarz_1",
    "product": {
      "item": "emerald",
      "qty": 1,
      "name": "Szmaragd",
      "nameEn": "Emerald"
    },
    "price1": {
      "item": "stick",
      "qty": 32,
      "name": "Patyk",
      "nameEn": "Stick"
    },
    "storeName": "Nilplep Atique",
    "storeLocation": "Nilplep",
    "storeOwner": "Ketrab",
    "notes": "Łuczarz - Alejka I & II",
    "x": -803,
    "y": 70,
    "z": 169
  },
  {
    "id": "nilplep_atique_lucarz_2",
    "product": {
      "item": "arrow",
      "qty": 16,
      "name": "Strzała",
      "nameEn": "Arrow"
    },
    "price1": {
      "item": "emerald",
      "qty": 1,
      "name": "Szmaragd",
      "nameEn": "Emerald"
    },
    "storeName": "Nilplep Atique",
    "storeLocation": "Nilplep",
    "storeOwner": "Ketrab",
    "notes": "Łuczarz - Alejka I & II",
    "x": -803,
    "y": 70,
    "z": 169
  },
  {
    "id": "nilplep_atique_lucarz_3",
    "product": {
      "item": "emerald",
      "qty": 1,
      "name": "Szmaragd",
      "nameEn": "Emerald"
    },
    "price1": {
      "item": "flint",
      "qty": 26,
      "name": "Krzemień",
      "nameEn": "Flint"
    },
    "storeName": "Nilplep Atique",
    "storeLocation": "Nilplep",
    "storeOwner": "Ketrab",
    "notes": "Łuczarz - Alejka I & II",
    "x": -803,
    "y": 70,
    "z": 169
  },
  {
    "id": "nilplep_atique_lucarz_4",
    "product": {
      "item": "emerald",
      "qty": 1,
      "name": "Szmaragd",
      "nameEn": "Emerald"
    },
    "price1": {
      "item": "string",
      "qty": 14,
      "name": "Nić",
      "nameEn": "String"
    },
    "storeName": "Nilplep Atique",
    "storeLocation": "Nilplep",
    "storeOwner": "Ketrab",
    "notes": "Łuczarz - Alejka I & II",
    "x": -803,
    "y": 70,
    "z": 169
  },
  {
    "id": "nilplep_atique_lucarz_5",
    "product": {
      "item": "emerald",
      "qty": 1,
      "name": "Szmaragd",
      "nameEn": "Emerald"
    },
    "price1": {
      "item": "feather",
      "qty": 24,
      "name": "Pióro",
      "nameEn": "Feather"
    },
    "storeName": "Nilplep Atique",
    "storeLocation": "Nilplep",
    "storeOwner": "Ketrab",
    "notes": "Łuczarz - Alejka I & II",
    "x": -803,
    "y": 70,
    "z": 169
  },
  {
    "id": "nilplep_atique_bibliotekarz_1",
    "product": {
      "item": "emerald",
      "qty": 1,
      "name": "Szmaragd",
      "nameEn": "Emerald"
    },
    "price1": {
      "item": "paper",
      "qty": 24,
      "name": "Papier",
      "nameEn": "Paper"
    },
    "storeName": "Nilplep Atique",
    "storeLocation": "Nilplep",
    "storeOwner": "Ketrab",
    "notes": "Bibliotekarz - Alejka III & IV",
    "x": -803,
    "y": 70,
    "z": 169
  },
  {
    "id": "nilplep_atique_bibliotekarz_2",
    "product": {
      "item": "emerald",
      "qty": 1,
      "name": "Szmaragd",
      "nameEn": "Emerald"
    },
    "price1": {
      "item": "ink_sac",
      "qty": 5,
      "name": "Torbiel z atramentem",
      "nameEn": "Ink Sac"
    },
    "storeName": "Nilplep Atique",
    "storeLocation": "Nilplep",
    "storeOwner": "Ketrab",
    "notes": "Bibliotekarz - Alejka III & IV",
    "x": -803,
    "y": 70,
    "z": 169
  },
  {
    "id": "nilplep_atique_bibliotekarz_3",
    "product": {
      "item": "bookshelf",
      "qty": 1,
      "name": "Biblioteczka",
      "nameEn": "Bookshelf"
    },
    "price1": {
      "item": "emerald",
      "qty": 9,
      "name": "Szmaragd",
      "nameEn": "Emerald"
    },
    "storeName": "Nilplep Atique",
    "storeLocation": "Nilplep",
    "storeOwner": "Ketrab",
    "notes": "Bibliotekarz - Alejka III & IV",
    "x": -803,
    "y": 70,
    "z": 169
  },
  {
    "id": "nilplep_atique_bibliotekarz_4",
    "product": {
      "item": "lantern",
      "qty": 1,
      "name": "Latarnia",
      "nameEn": "Lantern"
    },
    "price1": {
      "item": "emerald",
      "qty": 1,
      "name": "Szmaragd",
      "nameEn": "Emerald"
    },
    "storeName": "Nilplep Atique",
    "storeLocation": "Nilplep",
    "storeOwner": "Ketrab",
    "notes": "Bibliotekarz - Alejka III & IV",
    "x": -803,
    "y": 70,
    "z": 169
  },
  {
    "id": "nilplep_atique_bibliotekarz_5",
    "product": {
      "item": "glass",
      "qty": 4,
      "name": "Szkło",
      "nameEn": "Glass"
    },
    "price1": {
      "item": "emerald",
      "qty": 1,
      "name": "Szmaragd",
      "nameEn": "Emerald"
    },
    "storeName": "Nilplep Atique",
    "storeLocation": "Nilplep",
    "storeOwner": "Ketrab",
    "notes": "Bibliotekarz - Alejka III & IV",
    "x": -803,
    "y": 70,
    "z": 169
  },
  {
    "id": "nilplep_atique_bibliotekarz_6",
    "product": {
      "item": "compass",
      "qty": 1,
      "name": "Kompas",
      "nameEn": "Compass"
    },
    "price1": {
      "item": "emerald",
      "qty": 4,
      "name": "Szmaragd",
      "nameEn": "Emerald"
    },
    "storeName": "Nilplep Atique",
    "storeLocation": "Nilplep",
    "storeOwner": "Ketrab",
    "notes": "Bibliotekarz - Alejka III & IV",
    "x": -803,
    "y": 70,
    "z": 169
  },
  {
    "id": "nilplep_atique_bibliotekarz_7",
    "product": {
      "item": "name_tag",
      "qty": 1,
      "name": "Znacznik",
      "nameEn": "Name Tag"
    },
    "price1": {
      "item": "emerald",
      "qty": 20,
      "name": "Szmaragd",
      "nameEn": "Emerald"
    },
    "storeName": "Nilplep Atique",
    "storeLocation": "Nilplep",
    "storeOwner": "Ketrab",
    "notes": "Bibliotekarz - Alejka III & IV",
    "x": -803,
    "y": 70,
    "z": 169
  },
  {
    "id": "nilplep_atique_enchant_1",
    "product": {
      "item": "enchanted_book",
      "qty": 1,
      "enchanted": true,
      "name": "Zaklęta książka [Naprawa]",
      "nameEn": "Enchanted Book [Mending]"
    },
    "price1": {
      "item": "emerald",
      "qty": 12,
      "name": "Szmaragd",
      "nameEn": "Emerald"
    },
    "price2": {
      "item": "book",
      "qty": 1,
      "name": "Książka",
      "nameEn": "Book"
    },
    "storeName": "Nilplep Atique",
    "storeLocation": "Nilplep",
    "storeOwner": "Ketrab",
    "notes": "Bibliotekarz - Stanowisko [1] - Alejka III",
    "x": -803,
    "y": 70,
    "z": 169
  },
  {
    "id": "nilplep_atique_enchant_2",
    "product": {
      "item": "enchanted_book",
      "qty": 1,
      "enchanted": true,
      "name": "Zaklęta książka [Przeszycie IV]",
      "nameEn": "Enchanted Book [Piercing IV]"
    },
    "price1": {
      "item": "emerald",
      "qty": 37,
      "name": "Szmaragd",
      "nameEn": "Emerald"
    },
    "price2": {
      "item": "book",
      "qty": 1,
      "name": "Książka",
      "nameEn": "Book"
    },
    "storeName": "Nilplep Atique",
    "storeLocation": "Nilplep",
    "storeOwner": "Ketrab",
    "notes": "Bibliotekarz - Stanowisko [1] - Alejka III",
    "x": -803,
    "y": 70,
    "z": 169
  },
  {
    "id": "nilplep_atique_enchant_3",
    "product": {
      "item": "enchanted_book",
      "qty": 1,
      "enchanted": true,
      "name": "Zaklęta książka [Wielostrzał]",
      "nameEn": "Enchanted Book [Multishot]"
    },
    "price1": {
      "item": "emerald",
      "qty": 13,
      "name": "Szmaragd",
      "nameEn": "Emerald"
    },
    "price2": {
      "item": "book",
      "qty": 1,
      "name": "Książka",
      "nameEn": "Book"
    },
    "storeName": "Nilplep Atique",
    "storeLocation": "Nilplep",
    "storeOwner": "Ketrab",
    "notes": "Bibliotekarz - Stanowisko [1] - Alejka III",
    "x": -803,
    "y": 70,
    "z": 169
  },
  {
    "id": "nilplep_atique_enchant_4",
    "product": {
      "item": "enchanted_book",
      "qty": 1,
      "enchanted": true,
      "name": "Zaklęta książka [Oddychanie III]",
      "nameEn": "Enchanted Book [Respiration III]"
    },
    "price1": {
      "item": "emerald",
      "qty": 11,
      "name": "Szmaragd",
      "nameEn": "Emerald"
    },
    "price2": {
      "item": "book",
      "qty": 1,
      "name": "Książka",
      "nameEn": "Book"
    },
    "storeName": "Nilplep Atique",
    "storeLocation": "Nilplep",
    "storeOwner": "Ketrab",
    "notes": "Bibliotekarz - Stanowisko [2] - Alejka III",
    "x": -803,
    "y": 70,
    "z": 169
  },
  {
    "id": "nilplep_atique_enchant_5",
    "product": {
      "item": "enchanted_book",
      "qty": 1,
      "enchanted": true,
      "name": "Zaklęta książka [Płomień]",
      "nameEn": "Enchanted Book [Flame]"
    },
    "price1": {
      "item": "emerald",
      "qty": 17,
      "name": "Szmaragd",
      "nameEn": "Emerald"
    },
    "price2": {
      "item": "book",
      "qty": 1,
      "name": "Książka",
      "nameEn": "Book"
    },
    "storeName": "Nilplep Atique",
    "storeLocation": "Nilplep",
    "storeOwner": "Ketrab",
    "notes": "Bibliotekarz - Stanowisko [3] - Alejka III",
    "x": -803,
    "y": 70,
    "z": 169
  },
  {
    "id": "nilplep_atique_enchant_6",
    "product": {
      "item": "enchanted_book",
      "qty": 1,
      "enchanted": true,
      "name": "Zaklęta książka [Uderzenie II]",
      "nameEn": "Enchanted Book [Punch II]"
    },
    "price1": {
      "item": "emerald",
      "qty": 21,
      "name": "Szmaragd",
      "nameEn": "Emerald"
    },
    "price2": {
      "item": "book",
      "qty": 1,
      "name": "Książka",
      "nameEn": "Book"
    },
    "storeName": "Nilplep Atique",
    "storeLocation": "Nilplep",
    "storeOwner": "Ketrab",
    "notes": "Bibliotekarz - Stanowisko [3] - Alejka III",
    "x": -803,
    "y": 70,
    "z": 169
  },
  {
    "id": "nilplep_atique_enchant_7",
    "product": {
      "item": "enchanted_book",
      "qty": 1,
      "enchanted": true,
      "name": "Zaklęta książka [Ochrona przed ogniem IV]",
      "nameEn": "Enchanted Book [Fire Protection IV]"
    },
    "price1": {
      "item": "emerald",
      "qty": 26,
      "name": "Szmaragd",
      "nameEn": "Emerald"
    },
    "price2": {
      "item": "book",
      "qty": 1,
      "name": "Książka",
      "nameEn": "Book"
    },
    "storeName": "Nilplep Atique",
    "storeLocation": "Nilplep",
    "storeOwner": "Ketrab",
    "notes": "Bibliotekarz - Stanowisko [4] - Alejka III",
    "x": -803,
    "y": 70,
    "z": 169
  },
  {
    "id": "nilplep_atique_enchant_8",
    "product": {
      "item": "enchanted_book",
      "qty": 1,
      "enchanted": true,
      "name": "Zaklęta książka [Porażenie]",
      "nameEn": "Enchanted Book [Channelling]"
    },
    "price1": {
      "item": "emerald",
      "qty": 5,
      "name": "Szmaragd",
      "nameEn": "Emerald"
    },
    "price2": {
      "item": "book",
      "qty": 1,
      "name": "Książka",
      "nameEn": "Book"
    },
    "storeName": "Nilplep Atique",
    "storeLocation": "Nilplep",
    "storeOwner": "Ketrab",
    "notes": "Bibliotekarz - Stanowisko [4] - Alejka III",
    "x": -803,
    "y": 70,
    "z": 169
  },
  {
    "id": "nilplep_atique_enchant_9",
    "product": {
      "item": "enchanted_book",
      "qty": 1,
      "enchanted": true,
      "name": "Zaklęta książka [Zaklęty ogień II]",
      "nameEn": "Enchanted Book [Fire Aspect II]"
    },
    "price1": {
      "item": "emerald",
      "qty": 26,
      "name": "Szmaragd",
      "nameEn": "Emerald"
    },
    "price2": {
      "item": "book",
      "qty": 1,
      "name": "Książka",
      "nameEn": "Book"
    },
    "storeName": "Nilplep Atique",
    "storeLocation": "Nilplep",
    "storeOwner": "Ketrab",
    "notes": "Bibliotekarz - Stanowisko [5] - Alejka III",
    "x": -803,
    "y": 70,
    "z": 169
  },
  {
    "id": "nilplep_atique_enchant_10",
    "product": {
      "item": "enchanted_book",
      "qty": 1,
      "enchanted": true,
      "name": "Zaklęta książka [Nieskończoność]",
      "nameEn": "Enchanted Book [Infinity]"
    },
    "price1": {
      "item": "emerald",
      "qty": 10,
      "name": "Szmaragd",
      "nameEn": "Emerald"
    },
    "price2": {
      "item": "book",
      "qty": 1,
      "name": "Książka",
      "nameEn": "Book"
    },
    "storeName": "Nilplep Atique",
    "storeLocation": "Nilplep",
    "storeOwner": "Ketrab",
    "notes": "Bibliotekarz - Stanowisko [5] - Alejka III",
    "x": -803,
    "y": 70,
    "z": 169
  },
  {
    "id": "nilplep_atique_enchant_11",
    "product": {
      "item": "enchanted_book",
      "qty": 1,
      "enchanted": true,
      "name": "Zaklęta książka [Szerokie ostrze III]",
      "nameEn": "Enchanted Book [Sweeping Edge III]"
    },
    "price1": {
      "item": "emerald",
      "qty": 16,
      "name": "Szmaragd",
      "nameEn": "Emerald"
    },
    "price2": {
      "item": "book",
      "qty": 1,
      "name": "Książka",
      "nameEn": "Book"
    },
    "storeName": "Nilplep Atique",
    "storeLocation": "Nilplep",
    "storeOwner": "Ketrab",
    "notes": "Bibliotekarz - Stanowisko [6] - Alejka III",
    "x": -803,
    "y": 70,
    "z": 169
  },
  {
    "id": "nilplep_atique_enchant_12",
    "product": {
      "item": "enchanted_book",
      "qty": 1,
      "enchanted": true,
      "name": "Zaklęta książka [Odrzut II]",
      "nameEn": "Enchanted Book [Knockback II]"
    },
    "price1": {
      "item": "emerald",
      "qty": 26,
      "name": "Szmaragd",
      "nameEn": "Emerald"
    },
    "price2": {
      "item": "book",
      "qty": 1,
      "name": "Książka",
      "nameEn": "Book"
    },
    "storeName": "Nilplep Atique",
    "storeLocation": "Nilplep",
    "storeOwner": "Ketrab",
    "notes": "Bibliotekarz - Stanowisko [6] - Alejka III",
    "x": -803,
    "y": 70,
    "z": 169
  },
  {
    "id": "nilplep_atique_enchant_13",
    "product": {
      "item": "enchanted_book",
      "qty": 1,
      "enchanted": true,
      "name": "Zaklęta książka [Szczęście III]",
      "nameEn": "Enchanted Book [Fortune III]"
    },
    "price1": {
      "item": "emerald",
      "qty": 17,
      "name": "Szmaragd",
      "nameEn": "Emerald"
    },
    "price2": {
      "item": "book",
      "qty": 1,
      "name": "Książka",
      "nameEn": "Book"
    },
    "storeName": "Nilplep Atique",
    "storeLocation": "Nilplep",
    "storeOwner": "Ketrab",
    "notes": "Bibliotekarz - Stanowisko [7] - Alejka III",
    "x": -803,
    "y": 70,
    "z": 169
  },
  {
    "id": "nilplep_atique_enchant_14",
    "product": {
      "item": "enchanted_book",
      "qty": 1,
      "enchanted": true,
      "name": "Zaklęta książka [Przebicie IV (maks. poz. V)]",
      "nameEn": "Enchanted Book [Impaling IV (max. lvl. V)]"
    },
    "price1": {
      "item": "emerald",
      "qty": 22,
      "name": "Szmaragd",
      "nameEn": "Emerald"
    },
    "price2": {
      "item": "book",
      "qty": 1,
      "name": "Książka",
      "nameEn": "Book"
    },
    "storeName": "Nilplep Atique",
    "storeLocation": "Nilplep",
    "storeOwner": "Ketrab",
    "notes": "Bibliotekarz - Stanowisko [8] - Alejka III",
    "x": -803,
    "y": 70,
    "z": 169
  },
  {
    "id": "nilplep_atique_enchant_15",
    "product": {
      "item": "enchanted_book",
      "qty": 1,
      "enchanted": true,
      "name": "Zaklęta książka [Ciernie III]",
      "nameEn": "Enchanted Book [Thorns III]"
    },
    "price1": {
      "item": "emerald",
      "qty": 19,
      "name": "Szmaragd",
      "nameEn": "Emerald"
    },
    "price2": {
      "item": "book",
      "qty": 1,
      "name": "Książka",
      "nameEn": "Book"
    },
    "storeName": "Nilplep Atique",
    "storeLocation": "Nilplep",
    "storeOwner": "Ketrab",
    "notes": "Bibliotekarz - Stanowisko [9] - Alejka III",
    "x": -803,
    "y": 70,
    "z": 169
  },
  {
    "id": "nilplep_atique_enchant_16",
    "product": {
      "item": "enchanted_book",
      "qty": 1,
      "enchanted": true,
      "name": "Zaklęta książka [Morska fortuna III]",
      "nameEn": "Enchanted Book [Luck of the Sea III]"
    },
    "price1": {
      "item": "emerald",
      "qty": 41,
      "name": "Szmaragd",
      "nameEn": "Emerald"
    },
    "price2": {
      "item": "book",
      "qty": 1,
      "name": "Książka",
      "nameEn": "Book"
    },
    "storeName": "Nilplep Atique",
    "storeLocation": "Nilplep",
    "storeOwner": "Ketrab",
    "notes": "Bibliotekarz - Stanowisko [10] - Alejka III",
    "x": -803,
    "y": 70,
    "z": 169
  },
  {
    "id": "nilplep_atique_enchant_17",
    "product": {
      "item": "enchanted_book",
      "qty": 1,
      "enchanted": true,
      "name": "Zaklęta książka [Torpeda III]",
      "nameEn": "Enchanted Book [Riptide III]"
    },
    "price1": {
      "item": "emerald",
      "qty": 32,
      "name": "Szmaragd",
      "nameEn": "Emerald"
    },
    "price2": {
      "item": "book",
      "qty": 1,
      "name": "Książka",
      "nameEn": "Book"
    },
    "storeName": "Nilplep Atique",
    "storeLocation": "Nilplep",
    "storeOwner": "Ketrab",
    "notes": "Bibliotekarz - Stanowisko [10] - Alejka III",
    "x": -803,
    "y": 70,
    "z": 169
  },
  {
    "id": "nilplep_atique_enchant_18",
    "product": {
      "item": "enchanted_book",
      "qty": 1,
      "enchanted": true,
      "name": "Zaklęta książka [Grabież III]",
      "nameEn": "Enchanted Book [Looting III]"
    },
    "price1": {
      "item": "emerald",
      "qty": 11,
      "name": "Szmaragd",
      "nameEn": "Emerald"
    },
    "price2": {
      "item": "book",
      "qty": 1,
      "name": "Książka",
      "nameEn": "Book"
    },
    "storeName": "Nilplep Atique",
    "storeLocation": "Nilplep",
    "storeOwner": "Ketrab",
    "notes": "Bibliotekarz - Stanowisko [11] - Alejka IV",
    "x": -803,
    "y": 70,
    "z": 169
  },
  {
    "id": "nilplep_atique_enchant_19",
    "product": {
      "item": "enchanted_book",
      "qty": 1,
      "enchanted": true,
      "name": "Zaklęta książka [Klątwa uwiązania]",
      "nameEn": "Enchanted Book [Curse of Binding]"
    },
    "price1": {
      "item": "emerald",
      "qty": 30,
      "name": "Szmaragd",
      "nameEn": "Emerald"
    },
    "price2": {
      "item": "book",
      "qty": 1,
      "name": "Książka",
      "nameEn": "Book"
    },
    "storeName": "Nilplep Atique",
    "storeLocation": "Nilplep",
    "storeOwner": "Ketrab",
    "notes": "Bibliotekarz - Stanowisko [11] - Alejka IV",
    "x": -803,
    "y": 70,
    "z": 169
  },
  {
    "id": "nilplep_atique_enchant_20",
    "product": {
      "item": "enchanted_book",
      "qty": 1,
      "enchanted": true,
      "name": "Zaklęta książka [Wydajność V]",
      "nameEn": "Enchanted Book [Efficiency V]"
    },
    "price1": {
      "item": "emerald",
      "qty": 30,
      "name": "Szmaragd",
      "nameEn": "Emerald"
    },
    "price2": {
      "item": "book",
      "qty": 1,
      "name": "Książka",
      "nameEn": "Book"
    },
    "storeName": "Nilplep Atique",
    "storeLocation": "Nilplep",
    "storeOwner": "Ketrab",
    "notes": "Bibliotekarz - Stanowisko [12] - Alejka IV",
    "x": -803,
    "y": 70,
    "z": 169
  },
  {
    "id": "nilplep_atique_enchant_21",
    "product": {
      "item": "enchanted_book",
      "qty": 1,
      "enchanted": true,
      "name": "Zaklęta książka [Łagodny upadek IV]",
      "nameEn": "Enchanted Book [Feather Falling IV]"
    },
    "price1": {
      "item": "emerald",
      "qty": 18,
      "name": "Szmaragd",
      "nameEn": "Emerald"
    },
    "price2": {
      "item": "book",
      "qty": 1,
      "name": "Książka",
      "nameEn": "Book"
    },
    "storeName": "Nilplep Atique",
    "storeLocation": "Nilplep",
    "storeOwner": "Ketrab",
    "notes": "Bibliotekarz - Stanowisko [12] - Alejka IV",
    "x": -803,
    "y": 70,
    "z": 169
  },
  {
    "id": "nilplep_atique_enchant_22",
    "product": {
      "item": "enchanted_book",
      "qty": 1,
      "enchanted": true,
      "name": "Zaklęta książka [Ostrość V]",
      "nameEn": "Enchanted Book [Sharpness V]"
    },
    "price1": {
      "item": "emerald",
      "qty": 63,
      "name": "Szmaragd",
      "nameEn": "Emerald"
    },
    "price2": {
      "item": "book",
      "qty": 1,
      "name": "Książka",
      "nameEn": "Book"
    },
    "storeName": "Nilplep Atique",
    "storeLocation": "Nilplep",
    "storeOwner": "Ketrab",
    "notes": "Bibliotekarz - Stanowisko [13] - Alejka IV",
    "x": -803,
    "y": 70,
    "z": 169
  },
  {
    "id": "nilplep_atique_enchant_23",
    "product": {
      "item": "enchanted_book",
      "qty": 1,
      "enchanted": true,
      "name": "Zaklęta książka [Szybkie ładowanie III]",
      "nameEn": "Enchanted Book [Quick Charge III]"
    },
    "price1": {
      "item": "emerald",
      "qty": 22,
      "name": "Szmaragd",
      "nameEn": "Emerald"
    },
    "price2": {
      "item": "book",
      "qty": 1,
      "name": "Książka",
      "nameEn": "Book"
    },
    "storeName": "Nilplep Atique",
    "storeLocation": "Nilplep",
    "storeOwner": "Ketrab",
    "notes": "Bibliotekarz - Stanowisko [14] - Alejka IV",
    "x": -803,
    "y": 70,
    "z": 169
  },
  {
    "id": "nilplep_atique_enchant_24",
    "product": {
      "item": "enchanted_book",
      "qty": 1,
      "enchanted": true,
      "name": "Zaklęta książka [Lojalność III]",
      "nameEn": "Enchanted Book [Loyalty III]"
    },
    "price1": {
      "item": "emerald",
      "qty": 36,
      "name": "Szmaragd",
      "nameEn": "Emerald"
    },
    "price2": {
      "item": "book",
      "qty": 1,
      "name": "Książka",
      "nameEn": "Book"
    },
    "storeName": "Nilplep Atique",
    "storeLocation": "Nilplep",
    "storeOwner": "Ketrab",
    "notes": "Bibliotekarz - Stanowisko [15] - Alejka IV",
    "x": -803,
    "y": 70,
    "z": 169
  },
  {
    "id": "nilplep_atique_enchant_25",
    "product": {
      "item": "enchanted_book",
      "qty": 1,
      "enchanted": true,
      "name": "Zaklęta książka [Moc V]",
      "nameEn": "Enchanted Book [Power V]"
    },
    "price1": {
      "item": "emerald",
      "qty": 42,
      "name": "Szmaragd",
      "nameEn": "Emerald"
    },
    "price2": {
      "item": "book",
      "qty": 1,
      "name": "Książka",
      "nameEn": "Book"
    },
    "storeName": "Nilplep Atique",
    "storeLocation": "Nilplep",
    "storeOwner": "Ketrab",
    "notes": "Bibliotekarz - Stanowisko [16] - Alejka IV",
    "x": -803,
    "y": 70,
    "z": 169
  },
  {
    "id": "nilplep_atique_enchant_26",
    "product": {
      "item": "enchanted_book",
      "qty": 1,
      "enchanted": true,
      "name": "Zaklęta książka [Przynęta III]",
      "nameEn": "Enchanted Book [Lure III]"
    },
    "price1": {
      "item": "emerald",
      "qty": 14,
      "name": "Szmaragd",
      "nameEn": "Emerald"
    },
    "price2": {
      "item": "book",
      "qty": 1,
      "name": "Książka",
      "nameEn": "Book"
    },
    "storeName": "Nilplep Atique",
    "storeLocation": "Nilplep",
    "storeOwner": "Ketrab",
    "notes": "Bibliotekarz - Stanowisko [17] - Alejka IV",
    "x": -803,
    "y": 70,
    "z": 169
  },
  {
    "id": "nilplep_atique_enchant_27",
    "product": {
      "item": "enchanted_book",
      "qty": 1,
      "enchanted": true,
      "name": "Zaklęta książka [Niezniszczalność III]",
      "nameEn": "Enchanted Book [Unbreaking III]"
    },
    "price1": {
      "item": "emerald",
      "qty": 24,
      "name": "Szmaragd",
      "nameEn": "Emerald"
    },
    "price2": {
      "item": "book",
      "qty": 1,
      "name": "Książka",
      "nameEn": "Book"
    },
    "storeName": "Nilplep Atique",
    "storeLocation": "Nilplep",
    "storeOwner": "Ketrab",
    "notes": "Bibliotekarz - Stanowisko [18] - Alejka IV",
    "x": -803,
    "y": 70,
    "z": 169
  },
  {
    "id": "nilplep_atique_enchant_28",
    "product": {
      "item": "enchanted_book",
      "qty": 1,
      "enchanted": true,
      "name": "Zaklęta książka [Jedwabny dotyk]",
      "nameEn": "Enchanted Book [Silk Touch]"
    },
    "price1": {
      "item": "emerald",
      "qty": 18,
      "name": "Szmaragd",
      "nameEn": "Emerald"
    },
    "price2": {
      "item": "book",
      "qty": 1,
      "name": "Książka",
      "nameEn": "Book"
    },
    "storeName": "Nilplep Atique",
    "storeLocation": "Nilplep",
    "storeOwner": "Ketrab",
    "notes": "Bibliotekarz - Stanowisko [18] - Alejka IV",
    "x": -803,
    "y": 70,
    "z": 169
  },
  {
    "id": "nilplep_atique_enchant_29",
    "product": {
      "item": "enchanted_book",
      "qty": 1,
      "enchanted": true,
      "name": "Zaklęta książka [Ochrona IV]",
      "nameEn": "Enchanted Book [Protection IV]"
    },
    "price1": {
      "item": "emerald",
      "qty": 24,
      "name": "Szmaragd",
      "nameEn": "Emerald"
    },
    "price2": {
      "item": "book",
      "qty": 1,
      "name": "Książka",
      "nameEn": "Book"
    },
    "storeName": "Nilplep Atique",
    "storeLocation": "Nilplep",
    "storeOwner": "Ketrab",
    "notes": "Bibliotekarz - Stanowisko [19] - Alejka IV",
    "x": -803,
    "y": 70,
    "z": 169
  },
  {
    "id": "nilplep_atique_enchant_30",
    "product": {
      "item": "enchanted_book",
      "qty": 1,
      "enchanted": true,
      "name": "Zaklęta książka [Głebinowy wędrowiec III]",
      "nameEn": "Enchanted Book [Depth Strider III]"
    },
    "price1": {
      "item": "emerald",
      "qty": 11,
      "name": "Szmaragd",
      "nameEn": "Emerald"
    },
    "price2": {
      "item": "book",
      "qty": 1,
      "name": "Książka",
      "nameEn": "Book"
    },
    "storeName": "Nilplep Atique",
    "storeLocation": "Nilplep",
    "storeOwner": "Ketrab",
    "notes": "Bibliotekarz - Stanowisko [20] - Alejka IV",
    "x": -803,
    "y": 70,
    "z": 169
  },
  {
    "id": "nilplep_atique_enchant_31",
    "product": {
      "item": "enchanted_book",
      "qty": 1,
      "enchanted": true,
      "name": "Zaklęta książka [Wydajność pod wodą]",
      "nameEn": "Enchanted Book [Aqua Affinity]"
    },
    "price1": {
      "item": "emerald",
      "qty": 8,
      "name": "Szmaragd",
      "nameEn": "Emerald"
    },
    "price2": {
      "item": "book",
      "qty": 1,
      "name": "Książka",
      "nameEn": "Book"
    },
    "storeName": "Nilplep Atique",
    "storeLocation": "Nilplep",
    "storeOwner": "Ketrab",
    "notes": "Bibliotekarz - Stanowisko [20] - Alejka IV",
    "x": -803,
    "y": 70,
    "z": 169
  },
  {
    "id": "nilplep_atique_kamieniarz_1",
    "product": {
      "item": "emerald",
      "qty": 1,
      "name": "Szmaragd",
      "nameEn": "Emerald"
    },
    "price1": {
      "item": "clay_ball",
      "qty": 10,
      "name": "Kulka gliny",
      "nameEn": "Clay Ball"
    },
    "storeName": "Nilplep Atique",
    "storeLocation": "Nilplep",
    "storeOwner": "Ketrab",
    "notes": "Kamieniarz - Alejka V",
    "x": -803,
    "y": 70,
    "z": 169
  },
  {
    "id": "nilplep_atique_kamieniarz_2",
    "product": {
      "item": "brick",
      "qty": 10,
      "name": "Cegła",
      "nameEn": "Brick"
    },
    "price1": {
      "item": "emerald",
      "qty": 1,
      "name": "Szmaragd",
      "nameEn": "Emerald"
    },
    "storeName": "Nilplep Atique",
    "storeLocation": "Nilplep",
    "storeOwner": "Ketrab",
    "notes": "Kamieniarz - Alejka V",
    "x": -803,
    "y": 70,
    "z": 169
  },
  {
    "id": "nilplep_atique_kamieniarz_3",
    "product": {
      "item": "emerald",
      "qty": 1,
      "name": "Szmaragd",
      "nameEn": "Emerald"
    },
    "price1": {
      "item": "stone",
      "qty": 20,
      "name": "Kamień",
      "nameEn": "Stone"
    },
    "storeName": "Nilplep Atique",
    "storeLocation": "Nilplep",
    "storeOwner": "Ketrab",
    "notes": "Kamieniarz - Alejka V",
    "x": -803,
    "y": 70,
    "z": 169
  },
  {
    "id": "nilplep_atique_kamieniarz_4",
    "product": {
      "item": "emerald",
      "qty": 1,
      "name": "Szmaragd",
      "nameEn": "Emerald"
    },
    "price1": {
      "item": "granite",
      "qty": 16,
      "name": "Granit",
      "nameEn": "Granite"
    },
    "storeName": "Nilplep Atique",
    "storeLocation": "Nilplep",
    "storeOwner": "Ketrab",
    "notes": "Kamieniarz - Alejka V",
    "x": -803,
    "y": 70,
    "z": 169
  },
  {
    "id": "nilplep_atique_kamieniarz_5",
    "product": {
      "item": "emerald",
      "qty": 1,
      "name": "Szmaragd",
      "nameEn": "Emerald"
    },
    "price1": {
      "item": "andesite",
      "qty": 16,
      "name": "Andezyt",
      "nameEn": "Andesite"
    },
    "storeName": "Nilplep Atique",
    "storeLocation": "Nilplep",
    "storeOwner": "Ketrab",
    "notes": "Kamieniarz - Alejka V",
    "x": -803,
    "y": 70,
    "z": 169
  },
  {
    "id": "nilplep_atique_kamieniarz_6",
    "product": {
      "item": "emerald",
      "qty": 1,
      "name": "Szmaragd",
      "nameEn": "Emerald"
    },
    "price1": {
      "item": "diorite",
      "qty": 16,
      "name": "Dioryt",
      "nameEn": "Diorite"
    },
    "storeName": "Nilplep Atique",
    "storeLocation": "Nilplep",
    "storeOwner": "Ketrab",
    "notes": "Kamieniarz - Alejka V",
    "x": -803,
    "y": 70,
    "z": 169
  },
  {
    "id": "nilplep_atique_kamieniarz_7",
    "product": {
      "item": "quartz_pillar",
      "qty": 1,
      "name": "Kwarcowy filar",
      "nameEn": "Quartz Pillar"
    },
    "price1": {
      "item": "emerald",
      "qty": 1,
      "name": "Szmaragd",
      "nameEn": "Emerald"
    },
    "storeName": "Nilplep Atique",
    "storeLocation": "Nilplep",
    "storeOwner": "Ketrab",
    "notes": "Kamieniarz - Alejka V",
    "x": -803,
    "y": 70,
    "z": 169
  },
  {
    "id": "nilplep_atique_kamieniarz_8",
    "product": {
      "item": "quartz_block",
      "qty": 1,
      "name": "Blok kwarcu",
      "nameEn": "Block of Quartz"
    },
    "price1": {
      "item": "emerald",
      "qty": 1,
      "name": "Szmaragd",
      "nameEn": "Emerald"
    },
    "storeName": "Nilplep Atique",
    "storeLocation": "Nilplep",
    "storeOwner": "Ketrab",
    "notes": "Kamieniarz - Alejka V",
    "x": -803,
    "y": 70,
    "z": 169
  },
  {
    "id": "nilplep_atique_pasterz_1",
    "product": {
      "item": "emerald",
      "qty": 1,
      "name": "Szmaragd",
      "nameEn": "Emerald"
    },
    "price1": {
      "item": "white_wool",
      "qty": 18,
      "name": "Biała wełna",
      "nameEn": "White Wool"
    },
    "storeName": "Nilplep Atique",
    "storeLocation": "Nilplep",
    "storeOwner": "Ketrab",
    "notes": "Pasterz - Alejka VI",
    "x": -803,
    "y": 70,
    "z": 169
  },
  {
    "id": "nilplep_atique_pasterz_2",
    "product": {
      "item": "emerald",
      "qty": 1,
      "name": "Szmaragd",
      "nameEn": "Emerald"
    },
    "price1": {
      "item": "gray_wool",
      "qty": 18,
      "name": "Szara wełna",
      "nameEn": "Gray Wool"
    },
    "storeName": "Nilplep Atique",
    "storeLocation": "Nilplep",
    "storeOwner": "Ketrab",
    "notes": "Pasterz - Alejka VI",
    "x": -803,
    "y": 70,
    "z": 169
  },
  {
    "id": "nilplep_atique_pasterz_3",
    "product": {
      "item": "emerald",
      "qty": 1,
      "name": "Szmaragd",
      "nameEn": "Emerald"
    },
    "price1": {
      "item": "black_wool",
      "qty": 18,
      "name": "Czarna wełna",
      "nameEn": "Black Wool"
    },
    "storeName": "Nilplep Atique",
    "storeLocation": "Nilplep",
    "storeOwner": "Ketrab",
    "notes": "Pasterz - Alejka VI",
    "x": -803,
    "y": 70,
    "z": 169
  },
  {
    "id": "nilplep_atique_pasterz_4",
    "product": {
      "item": "emerald",
      "qty": 1,
      "name": "Szmaragd",
      "nameEn": "Emerald"
    },
    "price1": {
      "item": "brown_wool",
      "qty": 18,
      "name": "Brązowa wełna",
      "nameEn": "Brown Wool"
    },
    "storeName": "Nilplep Atique",
    "storeLocation": "Nilplep",
    "storeOwner": "Ketrab",
    "notes": "Pasterz - Alejka VI",
    "x": -803,
    "y": 70,
    "z": 169
  },
  {
    "id": "nilplep_atique_pasterz_5",
    "product": {
      "item": "shears",
      "qty": 1,
      "name": "Nożyce",
      "nameEn": "Shears"
    },
    "price1": {
      "item": "emerald",
      "qty": 2,
      "name": "Szmaragd",
      "nameEn": "Emerald"
    },
    "storeName": "Nilplep Atique",
    "storeLocation": "Nilplep",
    "storeOwner": "Ketrab",
    "notes": "Pasterz - Alejka VI",
    "x": -803,
    "y": 70,
    "z": 169
  },
  {
    "id": "nilplep_atique_pasterz_6",
    "product": {
      "item": "painting",
      "qty": 3,
      "name": "Obraz",
      "nameEn": "Painting"
    },
    "price1": {
      "item": "emerald",
      "qty": 2,
      "name": "Szmaragd",
      "nameEn": "Emerald"
    },
    "storeName": "Nilplep Atique",
    "storeLocation": "Nilplep",
    "storeOwner": "Ketrab",
    "notes": "Pasterz - Alejka VI",
    "x": -803,
    "y": 70,
    "z": 169
  },
  {
    "id": "nilplep_atique_kaplan_1",
    "product": {
      "item": "emerald",
      "qty": 1,
      "name": "Szmaragd",
      "nameEn": "Emerald"
    },
    "price1": {
      "item": "rotten_flesh",
      "qty": 32,
      "name": "Zgniłe mięso",
      "nameEn": "Rotten Flesh"
    },
    "storeName": "Nilplep Atique",
    "storeLocation": "Nilplep",
    "storeOwner": "Ketrab",
    "notes": "Kapłan - Alejka VII",
    "x": -803,
    "y": 70,
    "z": 169
  },
  {
    "id": "nilplep_atique_kaplan_2",
    "product": {
      "item": "redstone",
      "qty": 2,
      "name": "Sproszkowany redstone",
      "nameEn": "Redstone Dust"
    },
    "price1": {
      "item": "emerald",
      "qty": 1,
      "name": "Szmaragd",
      "nameEn": "Emerald"
    },
    "storeName": "Nilplep Atique",
    "storeLocation": "Nilplep",
    "storeOwner": "Ketrab",
    "notes": "Kapłan - Alejka VII",
    "x": -803,
    "y": 70,
    "z": 169
  },
  {
    "id": "nilplep_atique_kaplan_3",
    "product": {
      "item": "emerald",
      "qty": 1,
      "name": "Szmaragd",
      "nameEn": "Emerald"
    },
    "price1": {
      "item": "gold_ingot",
      "qty": 3,
      "name": "Sztabka złota",
      "nameEn": "Gold Ingot"
    },
    "storeName": "Nilplep Atique",
    "storeLocation": "Nilplep",
    "storeOwner": "Ketrab",
    "notes": "Kapłan - Alejka VII",
    "x": -803,
    "y": 70,
    "z": 169
  },
  {
    "id": "nilplep_atique_kaplan_4",
    "product": {
      "item": "lapis_lazuli",
      "qty": 1,
      "nameEn": "Lapis Lazuli"
    },
    "price1": {
      "item": "emerald",
      "qty": 1,
      "name": "Szmaragd",
      "nameEn": "Emerald"
    },
    "storeName": "Nilplep Atique",
    "storeLocation": "Nilplep",
    "storeOwner": "Ketrab",
    "notes": "Kapłan - Alejka VII",
    "x": -803,
    "y": 70,
    "z": 169
  },
  {
    "id": "nilplep_atique_kaplan_5",
    "product": {
      "item": "glowstone",
      "qty": 1,
      "name": "Jasnogłaz",
      "nameEn": "Glowstone"
    },
    "price1": {
      "item": "emerald",
      "qty": 4,
      "name": "Szmaragd",
      "nameEn": "Emerald"
    },
    "storeName": "Nilplep Atique",
    "storeLocation": "Nilplep",
    "storeOwner": "Ketrab",
    "notes": "Kapłan - Alejka VII",
    "x": -803,
    "y": 70,
    "z": 169
  },
  {
    "id": "nilplep_atique_kaplan_6",
    "product": {
      "item": "emerald",
      "qty": 1,
      "name": "Szmaragd",
      "nameEn": "Emerald"
    },
    "price1": {
      "item": "nether_wart",
      "qty": 22,
      "name": "Netherowa brodawka",
      "nameEn": "Nether Wart"
    },
    "storeName": "Nilplep Atique",
    "storeLocation": "Nilplep",
    "storeOwner": "Ketrab",
    "notes": "Kapłan - Alejka VII",
    "x": -803,
    "y": 70,
    "z": 169
  },
  {
    "id": "nilplep_atique_kaplan_7",
    "product": {
      "item": "experience_bottle",
      "qty": 1,
      "name": "Zaklęta butelka",
      "nameEn": "Bottle o' Enchanting"
    },
    "price1": {
      "item": "emerald",
      "qty": 3,
      "name": "Szmaragd",
      "nameEn": "Emerald"
    },
    "storeName": "Nilplep Atique",
    "storeLocation": "Nilplep",
    "storeOwner": "Ketrab",
    "notes": "Kapłan - Alejka VII",
    "x": -803,
    "y": 70,
    "z": 169
  },
  {
    "id": "nilplep_atique_rzeznik_1",
    "product": {
      "item": "emerald",
      "qty": 1,
      "name": "Szmaragd",
      "nameEn": "Emerald"
    },
    "price1": {
      "item": "chicken",
      "qty": 14,
      "name": "Surowy kurczak",
      "nameEn": "Raw Chicken"
    },
    "storeName": "Nilplep Atique",
    "storeLocation": "Nilplep",
    "storeOwner": "Ketrab",
    "notes": "Rzeźnik - Alejka VII",
    "x": -803,
    "y": 70,
    "z": 169
  },
  {
    "id": "nilplep_atique_rzeznik_2",
    "product": {
      "item": "emerald",
      "qty": 1,
      "name": "Szmaragd",
      "nameEn": "Emerald"
    },
    "price1": {
      "item": "mutton",
      "qty": 7,
      "name": "Surowa baranina",
      "nameEn": "Raw Mutton"
    },
    "storeName": "Nilplep Atique",
    "storeLocation": "Nilplep",
    "storeOwner": "Ketrab",
    "notes": "Rzeźnik - Alejka VII",
    "x": -803,
    "y": 70,
    "z": 169
  },
  {
    "id": "nilplep_atique_rzeznik_3",
    "product": {
      "item": "emerald",
      "qty": 1,
      "name": "Szmaragd",
      "nameEn": "Emerald"
    },
    "price1": {
      "item": "beef",
      "qty": 10,
      "name": "Surowa wołowina",
      "nameEn": "Raw Beef"
    },
    "storeName": "Nilplep Atique",
    "storeLocation": "Nilplep",
    "storeOwner": "Ketrab",
    "notes": "Rzeźnik - Alejka VII",
    "x": -803,
    "y": 70,
    "z": 169
  },
  {
    "id": "nilplep_atique_rzeznik_4",
    "product": {
      "item": "emerald",
      "qty": 1,
      "name": "Szmaragd",
      "nameEn": "Emerald"
    },
    "price1": {
      "item": "porkchop",
      "qty": 7,
      "name": "Surowa wieprzowina",
      "nameEn": "Raw Porkchop"
    },
    "storeName": "Nilplep Atique",
    "storeLocation": "Nilplep",
    "storeOwner": "Ketrab",
    "notes": "Rzeźnik - Alejka VII",
    "x": -803,
    "y": 70,
    "z": 169
  },
  {
    "id": "nilplep_atique_rzeznik_5",
    "product": {
      "item": "emerald",
      "qty": 1,
      "name": "Szmaragd",
      "nameEn": "Emerald"
    },
    "price1": {
      "item": "coal",
      "qty": 15,
      "name": "Węgiel",
      "nameEn": "Coal"
    },
    "storeName": "Nilplep Atique",
    "storeLocation": "Nilplep",
    "storeOwner": "Ketrab",
    "notes": "Rzeźnik - Alejka VII",
    "x": -803,
    "y": 70,
    "z": 169
  },
  {
    "id": "nilplep_atique_rzeznik_6",
    "product": {
      "item": "rabbit_stew",
      "qty": 1,
      "name": "Potrawka z królika",
      "nameEn": "Rabbit Stew"
    },
    "price1": {
      "item": "emerald",
      "qty": 1,
      "name": "Szmaragd",
      "nameEn": "Emerald"
    },
    "storeName": "Nilplep Atique",
    "storeLocation": "Nilplep",
    "storeOwner": "Ketrab",
    "notes": "Rzeźnik - Alejka VII",
    "x": -803,
    "y": 70,
    "z": 169
  },
  {
    "id": "nilplep_atique_rzeznik_7",
    "product": {
      "item": "cooked_porkchop",
      "qty": 5,
      "name": "Pieczona wieprzowina",
      "nameEn": "Cooked Porkchop"
    },
    "price1": {
      "item": "emerald",
      "qty": 1,
      "name": "Szmaragd",
      "nameEn": "Emerald"
    },
    "storeName": "Nilplep Atique",
    "storeLocation": "Nilplep",
    "storeOwner": "Ketrab",
    "notes": "Rzeźnik - Alejka VII",
    "x": -803,
    "y": 70,
    "z": 169
  },
  {
    "id": "nilplep_atique_rzeznik_8",
    "product": {
      "item": "cooked_chicken",
      "qty": 8,
      "name": "Pieczony kurczak",
      "nameEn": "Cooked Chicken"
    },
    "price1": {
      "item": "emerald",
      "qty": 1,
      "name": "Szmaragd",
      "nameEn": "Emerald"
    },
    "storeName": "Nilplep Atique",
    "storeLocation": "Nilplep",
    "storeOwner": "Ketrab",
    "notes": "Rzeźnik - Alejka VII",
    "x": -803,
    "y": 70,
    "z": 169
  },
  {
    "id": "nilplep_atique_rzeznik_9",
    "product": {
      "item": "emerald",
      "qty": 1,
      "name": "Szmaragd",
      "nameEn": "Emerald"
    },
    "price1": {
      "item": "dried_kelp_block",
      "qty": 10,
      "name": "Blok suszonych wodorostów",
      "nameEn": "Dried Kelp Block"
    },
    "storeName": "Nilplep Atique",
    "storeLocation": "Nilplep",
    "storeOwner": "Ketrab",
    "notes": "Rzeźnik - Alejka VII",
    "x": -803,
    "y": 70,
    "z": 169
  },
  {
    "id": "nilplep_atique_rzeznik_10",
    "product": {
      "item": "emerald",
      "qty": 1,
      "name": "Szmaragd",
      "nameEn": "Emerald"
    },
    "price1": {
      "item": "sweet_berries",
      "qty": 10,
      "name": "Słodkie jagody",
      "nameEn": "Sweet Berries"
    },
    "storeName": "Nilplep Atique",
    "storeLocation": "Nilplep",
    "storeOwner": "Ketrab",
    "notes": "Rzeźnik - Alejka VII",
    "x": -803,
    "y": 70,
    "z": 169
  },
  {
    "id": "nilplep_atique_rybak_1",
    "product": {
      "item": "emerald",
      "qty": 1,
      "name": "Szmaragd",
      "nameEn": "Emerald"
    },
    "price1": {
      "item": "coal",
      "qty": 10,
      "name": "Węgiel",
      "nameEn": "Coal"
    },
    "storeName": "Nilplep Atique",
    "storeLocation": "Nilplep",
    "storeOwner": "Ketrab",
    "notes": "Rybak - Alejka VIII",
    "x": -803,
    "y": 70,
    "z": 169
  },
  {
    "id": "nilplep_atique_rybak_2",
    "product": {
      "item": "campfire",
      "qty": 1,
      "name": "Ognisko",
      "nameEn": "Campfire"
    },
    "price1": {
      "item": "emerald",
      "qty": 2,
      "name": "Szmaragd",
      "nameEn": "Emerald"
    },
    "storeName": "Nilplep Atique",
    "storeLocation": "Nilplep",
    "storeOwner": "Ketrab",
    "notes": "Rybak - Alejka VIII",
    "x": -803,
    "y": 70,
    "z": 169
  },
  {
    "id": "nilplep_atique_rybak_3",
    "product": {
      "item": "emerald",
      "qty": 1,
      "name": "Szmaragd",
      "nameEn": "Emerald"
    },
    "price1": {
      "item": "oak_boat",
      "qty": 1,
      "name": "Dębowa łódka",
      "nameEn": "Oak Boat"
    },
    "storeName": "Nilplep Atique",
    "storeLocation": "Nilplep",
    "storeOwner": "Ketrab",
    "notes": "Rybak - Alejka VIII",
    "x": -803,
    "y": 70,
    "z": 169
  },
  {
    "id": "nilplep_atique_rybak_4",
    "product": {
      "item": "cod_bucket",
      "qty": 1,
      "name": "Wiadro z dorszem",
      "nameEn": "Bucket of Cod"
    },
    "price1": {
      "item": "emerald",
      "qty": 3,
      "name": "Szmaragd",
      "nameEn": "Emerald"
    },
    "storeName": "Nilplep Atique",
    "storeLocation": "Nilplep",
    "storeOwner": "Ketrab",
    "notes": "Rybak - Alejka VIII",
    "x": -803,
    "y": 70,
    "z": 169
  },
  {
    "id": "nilplep_atique_rybak_5",
    "product": {
      "item": "emerald",
      "qty": 1,
      "name": "Szmaragd",
      "nameEn": "Emerald"
    },
    "price1": {
      "item": "cod",
      "qty": 15,
      "name": "Surowy dorsz",
      "nameEn": "Raw Cod"
    },
    "storeName": "Nilplep Atique",
    "storeLocation": "Nilplep",
    "storeOwner": "Ketrab",
    "notes": "Rybak - Alejka VIII",
    "x": -803,
    "y": 70,
    "z": 169
  },
  {
    "id": "nilplep_atique_rybak_6",
    "product": {
      "item": "emerald",
      "qty": 1,
      "name": "Szmaragd",
      "nameEn": "Emerald"
    },
    "price1": {
      "item": "salmon",
      "qty": 13,
      "name": "Surowy łosoś",
      "nameEn": "Raw Salmon"
    },
    "storeName": "Nilplep Atique",
    "storeLocation": "Nilplep",
    "storeOwner": "Ketrab",
    "notes": "Rybak - Alejka VIII",
    "x": -803,
    "y": 70,
    "z": 169
  },
  {
    "id": "nilplep_atique_rybak_7",
    "product": {
      "item": "emerald",
      "qty": 1,
      "name": "Szmaragd",
      "nameEn": "Emerald"
    },
    "price1": {
      "item": "tropical_fish",
      "qty": 6,
      "name": "Ryba tropikalna",
      "nameEn": "Tropical Fish"
    },
    "storeName": "Nilplep Atique",
    "storeLocation": "Nilplep",
    "storeOwner": "Ketrab",
    "notes": "Rybak - Alejka VIII",
    "x": -803,
    "y": 70,
    "z": 169
  },
  {
    "id": "nilplep_atique_rybak_8",
    "product": {
      "item": "emerald",
      "qty": 1,
      "name": "Szmaragd",
      "nameEn": "Emerald"
    },
    "price1": {
      "item": "pufferfish",
      "qty": 6,
      "name": "Rozdymka",
      "nameEn": "Pufferfish"
    },
    "storeName": "Nilplep Atique",
    "storeLocation": "Nilplep",
    "storeOwner": "Ketrab",
    "notes": "Rybak - Alejka VIII",
    "x": -803,
    "y": 70,
    "z": 169
  },
  {
    "id": "nilplep_atique_rymarz_1",
    "product": {
      "item": "emerald",
      "qty": 1,
      "name": "Szmaragd",
      "nameEn": "Emerald"
    },
    "price1": {
      "item": "leather",
      "qty": 6,
      "name": "Skóra",
      "nameEn": "Leather"
    },
    "storeName": "Nilplep Atique",
    "storeLocation": "Nilplep",
    "storeOwner": "Ketrab",
    "notes": "Rymarz - Alejka VIII",
    "x": -803,
    "y": 70,
    "z": 169
  },
  {
    "id": "nilplep_atique_rymarz_2",
    "product": {
      "item": "emerald",
      "qty": 1,
      "name": "Szmaragd",
      "nameEn": "Emerald"
    },
    "price1": {
      "item": "rabbit_hide",
      "qty": 9,
      "name": "Królicza skóra",
      "nameEn": "Rabbit Hide"
    },
    "storeName": "Nilplep Atique",
    "storeLocation": "Nilplep",
    "storeOwner": "Ketrab",
    "notes": "Rymarz - Alejka VIII",
    "x": -803,
    "y": 70,
    "z": 169
  },
  {
    "id": "nilplep_atique_rymarz_3",
    "product": {
      "item": "emerald",
      "qty": 1,
      "name": "Szmaragd",
      "nameEn": "Emerald"
    },
    "price1": {
      "item": "flint",
      "qty": 26,
      "name": "Krzemień",
      "nameEn": "Flint"
    },
    "storeName": "Nilplep Atique",
    "storeLocation": "Nilplep",
    "storeOwner": "Ketrab",
    "notes": "Rymarz - Alejka VIII",
    "x": -803,
    "y": 70,
    "z": 169
  },
  {
    "id": "nilplep_atique_rymarz_4",
    "product": {
      "item": "leather_horse_armor",
      "qty": 1,
      "name": "Skórzana zbroja końska",
      "nameEn": "Leather Horse Armor"
    },
    "price1": {
      "item": "emerald",
      "qty": 6,
      "name": "Szmaragd",
      "nameEn": "Emerald"
    },
    "storeName": "Nilplep Atique",
    "storeLocation": "Nilplep",
    "storeOwner": "Ketrab",
    "notes": "Rymarz - Alejka VIII",
    "x": -803,
    "y": 70,
    "z": 169
  },
  {
    "id": "nilplep_atique_rymarz_5",
    "product": {
      "item": "saddle",
      "qty": 1,
      "name": "Siodło",
      "nameEn": "Saddle"
    },
    "price1": {
      "item": "emerald",
      "qty": 6,
      "name": "Szmaragd",
      "nameEn": "Emerald"
    },
    "storeName": "Nilplep Atique",
    "storeLocation": "Nilplep",
    "storeOwner": "Ketrab",
    "notes": "Rymarz - Alejka VIII",
    "x": -803,
    "y": 70,
    "z": 169
  },
  {
    "id": "nilplep_atique_kowal_1",
    "product": {
      "item": "emerald",
      "qty": 1,
      "name": "Szmaragd",
      "nameEn": "Emerald"
    },
    "price1": {
      "item": "coal",
      "qty": 15,
      "name": "Węgiel",
      "nameEn": "Coal"
    },
    "storeName": "Nilplep Atique",
    "storeLocation": "Nilplep",
    "storeOwner": "Ketrab",
    "notes": "Kowal - Alejka VIII",
    "x": -803,
    "y": 70,
    "z": 169
  },
  {
    "id": "nilplep_atique_kowal_2",
    "product": {
      "item": "emerald",
      "qty": 1,
      "name": "Szmaragd",
      "nameEn": "Emerald"
    },
    "price1": {
      "item": "flint",
      "qty": 24,
      "name": "Krzemień",
      "nameEn": "Flint"
    },
    "storeName": "Nilplep Atique",
    "storeLocation": "Nilplep",
    "storeOwner": "Ketrab",
    "notes": "Kowal - Alejka VIII",
    "x": -803,
    "y": 70,
    "z": 169
  },
  {
    "id": "nilplep_atique_kowal_3",
    "product": {
      "item": "emerald",
      "qty": 1,
      "name": "Szmaragd",
      "nameEn": "Emerald"
    },
    "price1": {
      "item": "iron_ingot",
      "qty": 4,
      "name": "Sztabka żelaza",
      "nameEn": "Iron Ingot"
    },
    "storeName": "Nilplep Atique",
    "storeLocation": "Nilplep",
    "storeOwner": "Ketrab",
    "notes": "Kowal - Alejka VIII",
    "x": -803,
    "y": 70,
    "z": 169
  },
  {
    "id": "nilplep_atique_kowal_4",
    "product": {
      "item": "emerald",
      "qty": 1,
      "name": "Szmaragd",
      "nameEn": "Emerald"
    },
    "price1": {
      "item": "diamond",
      "qty": 1,
      "name": "Diament",
      "nameEn": "Diamond"
    },
    "storeName": "Nilplep Atique",
    "storeLocation": "Nilplep",
    "storeOwner": "Ketrab",
    "notes": "Kowal - Alejka VIII",
    "x": -803,
    "y": 70,
    "z": 169
  },
  {
    "id": "nilplep_atique_kowal_5",
    "product": {
      "item": "bell",
      "qty": 1,
      "name": "Dzwon",
      "nameEn": "Bell"
    },
    "price1": {
      "item": "emerald",
      "qty": 36,
      "name": "Szmaragd",
      "nameEn": "Emerald"
    },
    "storeName": "Nilplep Atique",
    "storeLocation": "Nilplep",
    "storeOwner": "Ketrab",
    "notes": "Kowal - Alejka VIII",
    "x": -803,
    "y": 70,
    "z": 169
  },
  {
    "id": "nilplep_atique_kowal_6",
    "product": {
      "item": "diamond_helmet",
      "qty": 1,
      "enchanted": true,
      "name": "Diamentowy hełm",
      "nameEn": "Diamond Helmet"
    },
    "price1": {
      "item": "emerald",
      "qty": 15,
      "name": "Szmaragd",
      "nameEn": "Emerald"
    },
    "storeName": "Nilplep Atique",
    "storeLocation": "Nilplep",
    "storeOwner": "Ketrab",
    "notes": "Kowal - Alejka VIII",
    "x": -803,
    "y": 70,
    "z": 169
  },
  {
    "id": "nilplep_atique_kowal_7",
    "product": {
      "item": "diamond_chestplate",
      "qty": 1,
      "enchanted": true,
      "name": "Diamentowy napierśnik",
      "nameEn": "Diamond Chestplate"
    },
    "price1": {
      "item": "emerald",
      "qty": 22,
      "name": "Szmaragd",
      "nameEn": "Emerald"
    },
    "storeName": "Nilplep Atique",
    "storeLocation": "Nilplep",
    "storeOwner": "Ketrab",
    "notes": "Kowal - Alejka VIII",
    "x": -803,
    "y": 70,
    "z": 169
  },
  {
    "id": "nilplep_atique_kowal_8",
    "product": {
      "item": "diamond_leggings",
      "qty": 1,
      "enchanted": true,
      "name": "Diamentowe nogawice",
      "nameEn": "Diamond Leggings"
    },
    "price1": {
      "item": "emerald",
      "qty": 24,
      "name": "Szmaragd",
      "nameEn": "Emerald"
    },
    "storeName": "Nilplep Atique",
    "storeLocation": "Nilplep",
    "storeOwner": "Ketrab",
    "notes": "Kowal - Alejka VIII",
    "x": -803,
    "y": 70,
    "z": 169
  },
  {
    "id": "nilplep_atique_kowal_9",
    "product": {
      "item": "diamond_boots",
      "qty": 1,
      "enchanted": true,
      "name": "Diamentowe buty",
      "nameEn": "Diamond Boots"
    },
    "price1": {
      "item": "emerald",
      "qty": 15,
      "name": "Szmaragd",
      "nameEn": "Emerald"
    },
    "storeName": "Nilplep Atique",
    "storeLocation": "Nilplep",
    "storeOwner": "Ketrab",
    "notes": "Kowal - Alejka VIII",
    "x": -803,
    "y": 70,
    "z": 169
  },
  {
    "id": "nilplep_atique_kowal_10",
    "product": {
      "item": "diamond_sword",
      "qty": 1,
      "enchanted": true,
      "name": "Diamentowy miecz",
      "nameEn": "Diamond Sword"
    },
    "price1": {
      "item": "emerald",
      "qty": 21,
      "name": "Szmaragd",
      "nameEn": "Emerald"
    },
    "storeName": "Nilplep Atique",
    "storeLocation": "Nilplep",
    "storeOwner": "Ketrab",
    "notes": "Kowal - Alejka VIII",
    "x": -803,
    "y": 70,
    "z": 169
  },
  {
    "id": "nilplep_atique_kowal_11",
    "product": {
      "item": "diamond_axe",
      "qty": 1,
      "enchanted": true,
      "name": "Diamentowa siekiera",
      "nameEn": "Diamond Axe"
    },
    "price1": {
      "item": "emerald",
      "qty": 19,
      "name": "Szmaragd",
      "nameEn": "Emerald"
    },
    "storeName": "Nilplep Atique",
    "storeLocation": "Nilplep",
    "storeOwner": "Ketrab",
    "notes": "Kowal - Alejka VIII",
    "x": -803,
    "y": 70,
    "z": 169
  },
  {
    "id": "nilplep_atique_kowal_12",
    "product": {
      "item": "diamond_shovel",
      "qty": 1,
      "enchanted": true,
      "name": "Diamentowa łopata",
      "nameEn": "Diamond Shovel"
    },
    "price1": {
      "item": "emerald",
      "qty": 18,
      "name": "Szmaragd",
      "nameEn": "Emerald"
    },
    "storeName": "Nilplep Atique",
    "storeLocation": "Nilplep",
    "storeOwner": "Ketrab",
    "notes": "Kowal - Alejka VIII",
    "x": -803,
    "y": 70,
    "z": 169
  },
  {
    "id": "nilplep_atique_kowal_13",
    "product": {
      "item": "diamond_pickaxe",
      "qty": 1,
      "enchanted": true,
      "name": "Diamentowy kilof",
      "nameEn": "Diamond Pickaxe"
    },
    "price1": {
      "item": "emerald",
      "qty": 22,
      "name": "Szmaragd",
      "nameEn": "Emerald"
    },
    "storeName": "Nilplep Atique",
    "storeLocation": "Nilplep",
    "storeOwner": "Ketrab",
    "notes": "Kowal - Alejka VIII",
    "x": -803,
    "y": 70,
    "z": 169
  },
  {
    "id": "nilplep_atique_rolnik_1",
    "product": {
      "item": "emerald",
      "qty": 1,
      "name": "Szmaragd",
      "nameEn": "Emerald"
    },
    "price1": {
      "item": "wheat",
      "qty": 20,
      "name": "Pszenica",
      "nameEn": "Wheat"
    },
    "storeName": "Nilplep Atique",
    "storeLocation": "Nilplep",
    "storeOwner": "Ketrab",
    "notes": "Rolnik - Alejka IX & X",
    "x": -803,
    "y": 70,
    "z": 169
  },
  {
    "id": "nilplep_atique_rolnik_2",
    "product": {
      "item": "emerald",
      "qty": 1,
      "name": "Szmaragd",
      "nameEn": "Emerald"
    },
    "price1": {
      "item": "potato",
      "qty": 26,
      "name": "Ziemniak",
      "nameEn": "Potato"
    },
    "storeName": "Nilplep Atique",
    "storeLocation": "Nilplep",
    "storeOwner": "Ketrab",
    "notes": "Rolnik - Alejka IX & X",
    "x": -803,
    "y": 70,
    "z": 169
  },
  {
    "id": "nilplep_atique_rolnik_3",
    "product": {
      "item": "emerald",
      "qty": 1,
      "name": "Szmaragd",
      "nameEn": "Emerald"
    },
    "price1": {
      "item": "carrot",
      "qty": 22,
      "name": "Marchewka",
      "nameEn": "Carrot"
    },
    "storeName": "Nilplep Atique",
    "storeLocation": "Nilplep",
    "storeOwner": "Ketrab",
    "notes": "Rolnik - Alejka IX & X",
    "x": -803,
    "y": 70,
    "z": 169
  },
  {
    "id": "nilplep_atique_rolnik_4",
    "product": {
      "item": "emerald",
      "qty": 1,
      "name": "Szmaragd",
      "nameEn": "Emerald"
    },
    "price1": {
      "item": "beetroot",
      "qty": 15,
      "name": "Burak",
      "nameEn": "Beetroot"
    },
    "storeName": "Nilplep Atique",
    "storeLocation": "Nilplep",
    "storeOwner": "Ketrab",
    "notes": "Rolnik - Alejka IX & X",
    "x": -803,
    "y": 70,
    "z": 169
  },
  {
    "id": "nilplep_atique_rolnik_5",
    "product": {
      "item": "emerald",
      "qty": 1,
      "name": "Szmaragd",
      "nameEn": "Emerald"
    },
    "price1": {
      "item": "pumpkin",
      "qty": 6,
      "name": "Dynia",
      "nameEn": "Pumpkin"
    },
    "storeName": "Nilplep Atique",
    "storeLocation": "Nilplep",
    "storeOwner": "Ketrab",
    "notes": "Rolnik - Alejka IX & X",
    "x": -803,
    "y": 70,
    "z": 169
  },
  {
    "id": "nilplep_atique_rolnik_6",
    "product": {
      "item": "emerald",
      "qty": 1,
      "name": "Szmaragd",
      "nameEn": "Emerald"
    },
    "price1": {
      "item": "melon",
      "qty": 4,
      "name": "Arbuz",
      "nameEn": "Melon"
    },
    "storeName": "Nilplep Atique",
    "storeLocation": "Nilplep",
    "storeOwner": "Ketrab",
    "notes": "Rolnik - Alejka IX & X",
    "x": -803,
    "y": 70,
    "z": 169
  },
  {
    "id": "nilplep_atique_rolnik_7",
    "product": {
      "item": "suspicious_stew",
      "qty": 1,
      "name": "Podejrzana potrawka",
      "nameEn": "Suspicious Stew"
    },
    "price1": {
      "item": "emerald",
      "qty": 1,
      "name": "Szmaragd",
      "nameEn": "Emerald"
    },
    "storeName": "Nilplep Atique",
    "storeLocation": "Nilplep",
    "storeOwner": "Ketrab",
    "notes": "Rolnik - Alejka IX & X",
    "x": -803,
    "y": 70,
    "z": 169
  },
  {
    "id": "nilplep_atique_rolnik_8",
    "product": {
      "item": "apple",
      "qty": 4,
      "name": "Jabłko",
      "nameEn": "Apple"
    },
    "price1": {
      "item": "emerald",
      "qty": 1,
      "name": "Szmaragd",
      "nameEn": "Emerald"
    },
    "storeName": "Nilplep Atique",
    "storeLocation": "Nilplep",
    "storeOwner": "Ketrab",
    "notes": "Rolnik - Alejka IX & X",
    "x": -803,
    "y": 70,
    "z": 169
  },
  {
    "id": "nilplep_atique_rolnik_9",
    "product": {
      "item": "golden_carrot",
      "qty": 3,
      "name": "Złota marchewka",
      "nameEn": "Golden Carrot"
    },
    "price1": {
      "item": "emerald",
      "qty": 3,
      "name": "Szmaragd",
      "nameEn": "Emerald"
    },
    "storeName": "Nilplep Atique",
    "storeLocation": "Nilplep",
    "storeOwner": "Ketrab",
    "notes": "Rolnik - Alejka IX & X",
    "x": -803,
    "y": 70,
    "z": 169
  },
  {
    "id": "nilplep_atique_rolnik_10",
    "product": {
      "item": "glistering_melon_slice",
      "qty": 3,
      "name": "Kawałek lśniącego arbuza",
      "nameEn": "Glistering Melon Slice"
    },
    "price1": {
      "item": "emerald",
      "qty": 4,
      "name": "Szmaragd",
      "nameEn": "Emerald"
    },
    "storeName": "Nilplep Atique",
    "storeLocation": "Nilplep",
    "storeOwner": "Ketrab",
    "notes": "Rolnik - Alejka IX & X",
    "x": -803,
    "y": 70,
    "z": 169
  },
  {
    "id": "nilplep_atique_rolnik_11",
    "product": {
      "item": "cookie",
      "qty": 18,
      "name": "Ciastko",
      "nameEn": "Cookie"
    },
    "price1": {
      "item": "emerald",
      "qty": 3,
      "name": "Szmaragd",
      "nameEn": "Emerald"
    },
    "storeName": "Nilplep Atique",
    "storeLocation": "Nilplep",
    "storeOwner": "Ketrab",
    "notes": "Rolnik - Alejka IX & X",
    "x": -803,
    "y": 70,
    "z": 169
  },
  {
    "id": "nilplep_atique_rolnik_12",
    "product": {
      "item": "pumpkin_pie",
      "qty": 4,
      "name": "Placek dyniowy",
      "nameEn": "Pumpkin Pie"
    },
    "price1": {
      "item": "emerald",
      "qty": 1,
      "name": "Szmaragd",
      "nameEn": "Emerald"
    },
    "storeName": "Nilplep Atique",
    "storeLocation": "Nilplep",
    "storeOwner": "Ketrab",
    "notes": "Rolnik - Alejka IX & X",
    "x": -803,
    "y": 70,
    "z": 169
  },
  {
    "id": "nilplep_atique_rolnik_13",
    "product": {
      "item": "cake",
      "qty": 1,
      "name": "Ciasto",
      "nameEn": "Cake"
    },
    "price1": {
      "item": "emerald",
      "qty": 1,
      "name": "Szmaragd",
      "nameEn": "Emerald"
    },
    "storeName": "Nilplep Atique",
    "storeLocation": "Nilplep",
    "storeOwner": "Ketrab",
    "notes": "Rolnik - Alejka IX & X",
    "x": -803,
    "y": 70,
    "z": 169
  },
  {
    "id": "nilplep_frogszop7_2",
    "product": {
      "item": "rabbit_foot",
      "qty": 1,
      "name": "Królicza łapka",
      "nameEn": "Rabbit's Foot"
    },
    "villageName": "Franek",
    "price1": {
      "item": "emerald",
      "qty": 8,
      "name": "Szmaragd",
      "nameEn": "Emerald"
    },
    "storeName": "Frogszop 7",
    "storeLocation": "Nilplep",
    "storeOwner": "Ketrab",
    "notes": "przy kościele",
    "x": -786,
    "y": 71,
    "z": 163
  },
  {
    "id": "dentgino_marcin_1",
    "product": {
      "item": "maleciasto",
      "qty": 1,
      "customItem": true,
      "name": "Małe ciasto",
      "nameEn": "Małe ciasto"
    },
    "villageName": "Modelarz Marcin",
    "price1": {
      "item": "paper",
      "qty": 10,
      "customItem": true,
      "name": "Kibelion",
      "nameEn": "Kibelion"
    },
    "storeName": "MOSTOR",
    "storeLocation": "Dentgino",
    "storeOwner": "AdminShop",
    "x": 3520,
    "y": 71,
    "z": 3787
  },
  {
    "id": "dentgino_marcin_2",
    "product": {
      "item": "zielonyprezent",
      "qty": 1,
      "customItem": true,
      "name": "Zielony prezent",
      "nameEn": "Zielony prezent"
    },
    "villageName": "Modelarz Marcin",
    "price1": {
      "item": "paper",
      "qty": 10,
      "customItem": true,
      "name": "Kibelion",
      "nameEn": "Kibelion"
    },
    "storeName": "MOSTOR",
    "storeLocation": "Dentgino",
    "storeOwner": "AdminShop",
    "x": 3520,
    "y": 71,
    "z": 3787
  },
  {
    "id": "dentgino_marcin_3",
    "product": {
      "item": "czerwonyprezent",
      "qty": 1,
      "customItem": true,
      "name": "Czerwony prezent",
      "nameEn": "Czerwony prezent"
    },
    "villageName": "Modelarz Marcin",
    "price1": {
      "item": "paper",
      "qty": 10,
      "customItem": true,
      "name": "Kibelion",
      "nameEn": "Kibelion"
    },
    "storeName": "MOSTOR",
    "storeLocation": "Dentgino",
    "storeOwner": "AdminShop",
    "x": 3520,
    "y": 71,
    "z": 3787
  },
  {
    "id": "dentigno_marcin_4",
    "product": {
      "item": "maletnt",
      "qty": 1,
      "customItem": true,
      "name": "Małe TNT",
      "nameEn": "Małe TNT"
    },
    "villageName": "Modelarz Marcin",
    "price1": {
      "item": "paper",
      "qty": 10,
      "customItem": true,
      "name": "Kibelion",
      "nameEn": "Kibelion"
    },
    "storeName": "MOSTOR",
    "storeLocation": "Dentgino",
    "storeOwner": "AdminShop",
    "x": 3520,
    "y": 71,
    "z": 3787
  },
  {
    "id": "dentigno_marcin_5",
    "product": {
      "item": "model3dskrzynki",
      "qty": 1,
      "customItem": true,
      "name": "Model 3D Skrzynki",
      "nameEn": "Model 3D Skrzynki"
    },
    "villageName": "Modelarz Marcin",
    "price1": {
      "item": "paper",
      "qty": 10,
      "customItem": true,
      "name": "Kibelion",
      "nameEn": "Kibelion"
    },
    "storeName": "MOSTOR",
    "storeLocation": "Dentgino",
    "storeOwner": "AdminShop",
    "x": 3520,
    "y": 71,
    "z": 3787
  },
  {
    "id": "dentigno_marcin_6",
    "product": {
      "item": "model3dslime",
      "qty": 1,
      "customItem": true,
      "name": "Model 3D Slime'a",
      "nameEn": "Model 3D Slime'a"
    },
    "villageName": "Modelarz Marcin",
    "price1": {
      "item": "paper",
      "qty": 10,
      "customItem": true,
      "name": "Kibelion",
      "nameEn": "Kibelion"
    },
    "storeName": "MOSTOR",
    "storeLocation": "Dentgino",
    "storeOwner": "AdminShop",
    "x": 3520,
    "y": 71,
    "z": 3787
  },
  {
    "id": "dentigno_marcin_7",
    "product": {
      "item": "model3dpszczoly",
      "qty": 1,
      "customItem": true,
      "name": "Model 3D Pszczoły",
      "nameEn": "Model 3D Pszczoły"
    },
    "villageName": "Modelarz Marcin",
    "price1": {
      "item": "paper",
      "qty": 10,
      "customItem": true,
      "name": "Kibelion",
      "nameEn": "Kibelion"
    },
    "storeName": "MOSTOR",
    "storeLocation": "Dentgino",
    "storeOwner": "AdminShop",
    "x": 3520,
    "y": 71,
    "z": 3787
  },
  {
    "id": "dentigno_marcin_8",
    "product": {
      "item": "pluszakpepe",
      "qty": 1,
      "customItem": true,
      "name": "Pluszak Pepe",
      "nameEn": "Pluszak Pepe"
    },
    "villageName": "Modelarz Marcin",
    "price1": {
      "item": "paper",
      "qty": 10,
      "customItem": true,
      "name": "Kibelion",
      "nameEn": "Kibelion"
    },
    "storeName": "MOSTOR",
    "storeLocation": "Dentgino",
    "storeOwner": "AdminShop",
    "x": 3520,
    "y": 71,
    "z": 3787
  },
  {
    "id": "dentigno_marcin_9",
    "product": {
      "item": "skibiditoaleta",
      "qty": 1,
      "customItem": true,
      "name": "Skibidi Toaleta",
      "nameEn": "Skibidi Toaleta"
    },
    "villageName": "Modelarz Marcin",
    "price1": {
      "item": "paper",
      "qty": 10,
      "customItem": true,
      "name": "Kibelion",
      "nameEn": "Kibelion"
    },
    "storeName": "MOSTOR",
    "storeLocation": "Dentgino",
    "storeOwner": "AdminShop",
    "x": 3520,
    "y": 71,
    "z": 3787
  },
  {
    "id": "dentigno_marcin_10",
    "product": {
      "item": "tftf",
      "qty": 1,
      "customItem": true,
      "name": "tf",
      "nameEn": "tf"
    },
    "villageName": "Modelarz Marcin",
    "price1": {
      "item": "paper",
      "qty": 20,
      "customItem": true,
      "name": "Kibelion",
      "nameEn": "Kibelion"
    },
    "storeName": "MOSTOR",
    "storeLocation": "Dentgino",
    "storeOwner": "AdminShop",
    "x": 3520,
    "y": 71,
    "z": 3787
  },
  {
    "id": "dentgino_marcin_11",
    "product": {
      "item": "redbull",
      "qty": 1,
      "customItem": true,
      "name": "Puszka Czerwonego Byka",
      "nameEn": "Puszka Czerwonego Byka"
    },
    "villageName": "Modelarz Marcin",
    "price1": {
      "item": "paper",
      "qty": 10,
      "customItem": true,
      "name": "Kibelion",
      "nameEn": "Kibelion"
    },
    "storeName": "MOSTOR",
    "storeLocation": "Dentgino",
    "storeOwner": "AdminShop",
    "x": 3520,
    "y": 71,
    "z": 3787
  },
  {
    "id": "dentgino_marcin_12",
    "product": {
      "item": "wagonwegiel",
      "qty": 1,
      "customItem": true,
      "name": "Wagon z wunglem",
      "nameEn": "Wagon z wunglem"
    },
    "villageName": "Modelarz Marcin",
    "price1": {
      "item": "paper",
      "qty": 6,
      "customItem": true,
      "name": "Kibelion",
      "nameEn": "Kibelion"
    },
    "storeName": "MOSTOR",
    "storeLocation": "Dentgino",
    "storeOwner": "AdminShop",
    "x": 3520,
    "y": 71,
    "z": 3787
  },
  {
    "id": "dentgino_dzbankom_1",
    "product": {
      "item": "kamera",
      "qty": 1,
      "customItem": true,
      "name": "Kamera",
      "nameEn": "Kamera"
    },
    "villageName": "DzbanKom",
    "price1": {
      "item": "paper",
      "qty": 5,
      "customItem": true,
      "name": "Kibelion",
      "nameEn": "Kibelion"
    },
    "storeName": "MOSTOR",
    "storeLocation": "Dentgino",
    "storeOwner": "AdminShop",
    "x": 3511,
    "y": 62,
    "z": 3789
  },
  {
    "id": "dentgino_dzbankom_2",
    "product": {
      "item": "kameramon",
      "qty": 1,
      "customItem": true,
      "name": "Kamera monitoringu",
      "nameEn": "Kamera monitoringu"
    },
    "villageName": "DzbanKom",
    "price1": {
      "item": "paper",
      "qty": 5,
      "customItem": true,
      "name": "Kibelion",
      "nameEn": "Kibelion"
    },
    "storeName": "MOSTOR",
    "storeLocation": "Dentgino",
    "storeOwner": "AdminShop",
    "x": 3511,
    "y": 62,
    "z": 3789
  },
  {
    "id": "dentgino_dzbankom_3",
    "product": {
      "item": "kameramon2",
      "qty": 1,
      "customItem": true,
      "name": "Kamera monitoringu2",
      "nameEn": "Kamera monitoringu2"
    },
    "villageName": "DzbanKom",
    "price1": {
      "item": "paper",
      "qty": 5,
      "customItem": true,
      "name": "Kibelion",
      "nameEn": "Kibelion"
    },
    "storeName": "MOSTOR",
    "storeLocation": "Dentgino",
    "storeOwner": "AdminShop",
    "x": 3511,
    "y": 62,
    "z": 3789
  },
  {
    "id": "dentgino_dzbankom_4",
    "product": {
      "item": "monitormk1",
      "qty": 1,
      "customItem": true,
      "name": "Monitor komputerowy Mk1",
      "nameEn": "Monitor komputerowy Mk1"
    },
    "villageName": "DzbanKom",
    "price1": {
      "item": "paper",
      "qty": 5,
      "customItem": true,
      "name": "Kibelion",
      "nameEn": "Kibelion"
    },
    "storeName": "MOSTOR",
    "storeLocation": "Dentgino",
    "storeOwner": "AdminShop",
    "x": 3511,
    "y": 62,
    "z": 3789
  },
  {
    "id": "dentgino_dzbankom_5",
    "product": {
      "item": "monitormk2",
      "qty": 1,
      "customItem": true,
      "name": "Monitor komputerowy Mk2",
      "nameEn": "Monitor komputerowy Mk2"
    },
    "villageName": "DzbanKom",
    "price1": {
      "item": "paper",
      "qty": 5,
      "customItem": true,
      "name": "Kibelion",
      "nameEn": "Kibelion"
    },
    "storeName": "MOSTOR",
    "storeLocation": "Dentgino",
    "storeOwner": "AdminShop",
    "x": 3511,
    "y": 62,
    "z": 3789
  },
  {
    "id": "dentgino_dzbankom_6",
    "product": {
      "item": "komputergamingowy",
      "qty": 1,
      "customItem": true,
      "name": "Komputer gamingowy",
      "nameEn": "Komputer gamingowy"
    },
    "villageName": "DzbanKom",
    "price1": {
      "item": "paper",
      "qty": 10,
      "customItem": true,
      "name": "Kibelion",
      "nameEn": "Kibelion"
    },
    "storeName": "MOSTOR",
    "storeLocation": "Dentgino",
    "storeOwner": "AdminShop",
    "x": 3511,
    "y": 62,
    "z": 3789
  },
  {
    "id": "dentgino_dzbankom_7",
    "product": {
      "item": "glosnikhertz",
      "qty": 1,
      "customItem": true,
      "name": "Głośnik Hertz",
      "nameEn": "Głośnik Hertz"
    },
    "villageName": "DzbanKom",
    "price1": {
      "item": "paper",
      "qty": 5,
      "customItem": true,
      "name": "Kibelion",
      "nameEn": "Kibelion"
    },
    "storeName": "MOSTOR",
    "storeLocation": "Dentgino",
    "storeOwner": "AdminShop",
    "x": 3511,
    "y": 62,
    "z": 3789
  },
  {
    "id": "dentgino_dzbankom_8",
    "product": {
      "item": "telefonstacjonarny",
      "qty": 1,
      "customItem": true,
      "name": "Telefon stacjonarny",
      "nameEn": "Telefon stacjonarny"
    },
    "villageName": "DzbanKom",
    "price1": {
      "item": "paper",
      "qty": 5,
      "customItem": true,
      "name": "Kibelion",
      "nameEn": "Kibelion"
    },
    "storeName": "MOSTOR",
    "storeLocation": "Dentgino",
    "storeOwner": "AdminShop",
    "x": 3511,
    "y": 62,
    "z": 3789
  },
  {
    "id": "dentgino_dzbankom_9",
    "product": {
      "item": "mikrofonstudyjny",
      "qty": 1,
      "customItem": true,
      "name": "Mikrofon studyjny",
      "nameEn": "Mikrofon studyjny"
    },
    "villageName": "DzbanKom",
    "price1": {
      "item": "paper",
      "qty": 5,
      "customItem": true,
      "name": "Kibelion",
      "nameEn": "Kibelion"
    },
    "storeName": "MOSTOR",
    "storeLocation": "Dentgino",
    "storeOwner": "AdminShop",
    "x": 3511,
    "y": 62,
    "z": 3789
  },
  {
    "id": "dentgino_dzbankom_10",
    "product": {
      "item": "ustrojstwo",
      "qty": 1,
      "customItem": true,
      "name": "Ustrojstwo",
      "nameEn": "Ustrojstwo"
    },
    "villageName": "DzbanKom",
    "price1": {
      "item": "paper",
      "qty": 5,
      "customItem": true,
      "name": "Kibelion",
      "nameEn": "Kibelion"
    },
    "storeName": "MOSTOR",
    "storeLocation": "Dentgino",
    "storeOwner": "AdminShop",
    "x": 3511,
    "y": 62,
    "z": 3789
  },
  {
    "id": "dentgino_dzbankom_11",
    "product": {
      "item": "jupiter",
      "qty": 1,
      "customItem": true,
      "name": "Jupiter",
      "nameEn": "Jupiter"
    },
    "villageName": "DzbanKom",
    "price1": {
      "item": "paper",
      "qty": 5,
      "customItem": true,
      "name": "Kibelion",
      "nameEn": "Kibelion"
    },
    "storeName": "MOSTOR",
    "storeLocation": "Dentgino",
    "storeOwner": "AdminShop",
    "x": 3511,
    "y": 62,
    "z": 3789
  },
  {
    "id": "dentgino_dzbankom_12",
    "product": {
      "item": "serwer",
      "qty": 1,
      "customItem": true,
      "name": "SERwer",
      "nameEn": "SERwer"
    },
    "villageName": "DzbanKom",
    "price1": {
      "item": "paper",
      "qty": 5,
      "customItem": true,
      "name": "Kibelion",
      "nameEn": "Kibelion"
    },
    "storeName": "MOSTOR",
    "storeLocation": "Dentgino",
    "storeOwner": "AdminShop",
    "x": 3511,
    "y": 62,
    "z": 3789
  },
  {
    "id": "dentgino_dzbankom_13",
    "product": {
      "item": "monitorserwer",
      "qty": 1,
      "customItem": true,
      "name": "Monitor serwerowy",
      "nameEn": "Monitor serwerowy"
    },
    "villageName": "DzbanKom",
    "price1": {
      "item": "paper",
      "qty": 5,
      "customItem": true,
      "name": "Kibelion",
      "nameEn": "Kibelion"
    },
    "storeName": "MOSTOR",
    "storeLocation": "Dentgino",
    "storeOwner": "AdminShop",
    "x": 3511,
    "y": 62,
    "z": 3789
  },
  {
    "id": "dentgino_dzbankom_14",
    "product": {
      "item": "dyktafonkasetowy",
      "qty": 1,
      "customItem": true,
      "name": "Dyktafon kasetowy",
      "nameEn": "Dyktafon kasetowy"
    },
    "villageName": "DzbanKom",
    "price1": {
      "item": "paper",
      "qty": 5,
      "customItem": true,
      "name": "Kibelion",
      "nameEn": "Kibelion"
    },
    "storeName": "MOSTOR",
    "storeLocation": "Dentgino",
    "storeOwner": "AdminShop",
    "x": 3511,
    "y": 62,
    "z": 3789
  },
  {
    "id": "dentgino_dzbankom_15",
    "product": {
      "item": "toster",
      "qty": 1,
      "customItem": true,
      "name": "Toster",
      "nameEn": "Toster"
    },
    "villageName": "DzbanKom",
    "price1": {
      "item": "paper",
      "qty": 3,
      "customItem": true,
      "name": "Kibelion",
      "nameEn": "Kibelion"
    },
    "storeName": "MOSTOR",
    "storeLocation": "Dentgino",
    "storeOwner": "AdminShop",
    "x": 3511,
    "y": 62,
    "z": 3789
  },
  {
    "id": "dentgino_dzbankom_16",
    "product": {
      "item": "mikrofalowka",
      "qty": 1,
      "customItem": true,
      "name": "Mikrofalówka",
      "nameEn": "Mikrofalówka"
    },
    "villageName": "DzbanKom",
    "price1": {
      "item": "paper",
      "qty": 3,
      "customItem": true,
      "name": "Kibelion",
      "nameEn": "Kibelion"
    },
    "storeName": "MOSTOR",
    "storeLocation": "Dentgino",
    "storeOwner": "AdminShop",
    "x": 3511,
    "y": 62,
    "z": 3789
  },
  {
    "id": "dentgino_dzbankom_17",
    "product": {
      "item": "blender",
      "qty": 1,
      "customItem": true,
      "name": "Blender",
      "nameEn": "Blender"
    },
    "villageName": "DzbanKom",
    "price1": {
      "item": "paper",
      "qty": 3,
      "customItem": true,
      "name": "Kibelion",
      "nameEn": "Kibelion"
    },
    "storeName": "MOSTOR",
    "storeLocation": "Dentgino",
    "storeOwner": "AdminShop",
    "x": 3511,
    "y": 62,
    "z": 3789
  },
  {
    "id": "dentgino_dzbankom_18",
    "product": {
      "item": "kawiarka",
      "qty": 1,
      "customItem": true,
      "name": "Kawiarka",
      "nameEn": "Kawiarka"
    },
    "villageName": "DzbanKom",
    "price1": {
      "item": "paper",
      "qty": 3,
      "customItem": true,
      "name": "Kibelion",
      "nameEn": "Kibelion"
    },
    "storeName": "MOSTOR",
    "storeLocation": "Dentgino",
    "storeOwner": "AdminShop",
    "x": 3511,
    "y": 62,
    "z": 3789
  },
  {
    "id": "dentgino_dzbankom_19",
    "product": {
      "item": "ekspresdokawy",
      "qty": 1,
      "customItem": true,
      "name": "Ekspres do kawy",
      "nameEn": "Ekspres do kawy"
    },
    "villageName": "DzbanKom",
    "price1": {
      "item": "paper",
      "qty": 3,
      "customItem": true,
      "name": "Kibelion",
      "nameEn": "Kibelion"
    },
    "storeName": "MOSTOR",
    "storeLocation": "Dentgino",
    "storeOwner": "AdminShop",
    "x": 3511,
    "y": 62,
    "z": 3789
  },
  {
    "id": "dentgino_dzbankom_20",
    "product": {
      "item": "amplituner",
      "qty": 1,
      "customItem": true,
      "name": "Amplituner",
      "nameEn": "Amplituner"
    },
    "villageName": "DzbanKom",
    "price1": {
      "item": "paper",
      "qty": 5,
      "customItem": true,
      "name": "Kibelion",
      "nameEn": "Kibelion"
    },
    "storeName": "MOSTOR",
    "storeLocation": "Dentgino",
    "storeOwner": "AdminShop",
    "x": 3511,
    "y": 62,
    "z": 3789
  },
  {
    "id": "dentgino_dzbankom_21",
    "product": {
      "item": "klimatyzator",
      "qty": 1,
      "customItem": true,
      "name": "Klimatyzator",
      "nameEn": "Klimatyzator"
    },
    "villageName": "DzbanKom",
    "price1": {
      "item": "paper",
      "qty": 4,
      "customItem": true,
      "name": "Kibelion",
      "nameEn": "Kibelion"
    },
    "storeName": "MOSTOR",
    "storeLocation": "Dentgino",
    "storeOwner": "AdminShop",
    "x": 3511,
    "y": 62,
    "z": 3789
  },
  {
    "id": "dentgino_dzbankom_22",
    "product": {
      "item": "nitowendoslicz",
      "qty": 1,
      "customItem": true,
      "name": "Nitowendo Słicz",
      "nameEn": "Nitowendo Słicz"
    },
    "villageName": "DzbanKom",
    "price1": {
      "item": "paper",
      "qty": 5,
      "customItem": true,
      "name": "Kibelion",
      "nameEn": "Kibelion"
    },
    "storeName": "MOSTOR",
    "storeLocation": "Dentgino",
    "storeOwner": "AdminShop",
    "x": 3511,
    "y": 62,
    "z": 3789
  },
  {
    "id": "dentgino_dzbankom_23",
    "product": {
      "item": "opiekacz",
      "qty": 1,
      "customItem": true,
      "name": "Opiekacz",
      "nameEn": "Opiekacz"
    },
    "villageName": "DzbanKom",
    "price1": {
      "item": "paper",
      "qty": 3,
      "customItem": true,
      "name": "Kibelion",
      "nameEn": "Kibelion"
    },
    "storeName": "MOSTOR",
    "storeLocation": "Dentgino",
    "storeOwner": "AdminShop",
    "x": 3511,
    "y": 62,
    "z": 3789
  },
  {
    "id": "dentgino_dzbankom_24",
    "product": {
      "item": "ekspresdokawy2",
      "qty": 1,
      "customItem": true,
      "name": "Ekspres do kawy 2",
      "nameEn": "Ekspres do kawy 2"
    },
    "villageName": "DzbanKom",
    "price1": {
      "item": "paper",
      "qty": 3,
      "customItem": true,
      "name": "Kibelion",
      "nameEn": "Kibelion"
    },
    "storeName": "MOSTOR",
    "storeLocation": "Dentgino",
    "storeOwner": "AdminShop",
    "x": 3511,
    "y": 62,
    "z": 3789
  },
  {
    "id": "dentgino_dzbankom_25",
    "product": {
      "item": "kasasklepowa",
      "qty": 1,
      "customItem": true,
      "name": "Kasa sklepowa",
      "nameEn": "Kasa sklepowa"
    },
    "villageName": "DzbanKom",
    "price1": {
      "item": "paper",
      "qty": 4,
      "customItem": true,
      "name": "Kibelion",
      "nameEn": "Kibelion"
    },
    "storeName": "MOSTOR",
    "storeLocation": "Dentgino",
    "storeOwner": "AdminShop",
    "x": 3511,
    "y": 62,
    "z": 3789
  },
  {
    "id": "dentgino_barlog_1",
    "product": {
      "item": "koszszklo",
      "qty": 1,
      "customItem": true,
      "name": "Kosz na śmieci - szkło",
      "nameEn": "Kosz na śmieci - szkło"
    },
    "villageName": "Meble Barlog",
    "price1": {
      "item": "paper",
      "qty": 1,
      "customItem": true,
      "name": "Kibelion",
      "nameEn": "Kibelion"
    },
    "storeName": "MOSTOR",
    "storeLocation": "Dentgino",
    "storeOwner": "AdminShop",
    "x": 3522,
    "y": 64,
    "z": 3789
  },
  {
    "id": "dentigno_barlog_2",
    "product": {
      "item": "koszpapier",
      "qty": 1,
      "customItem": true,
      "name": "Kosz na śmieci - makulatura",
      "nameEn": "Kosz na śmieci - makulatura"
    },
    "villageName": "Meble Barlog",
    "price1": {
      "item": "paper",
      "qty": 1,
      "customItem": true,
      "name": "Kibelion",
      "nameEn": "Kibelion"
    },
    "storeName": "MOSTOR",
    "storeLocation": "Dentgino",
    "storeOwner": "AdminShop",
    "x": 3522,
    "y": 64,
    "z": 3789
  },
  {
    "id": "dentigno_barlog_3",
    "product": {
      "item": "koszplastik",
      "qty": 1,
      "customItem": true,
      "name": "Kosz na śmieci - plastik i metal",
      "nameEn": "Kosz na śmieci - plastik i metal"
    },
    "villageName": "Meble Barlog",
    "price1": {
      "item": "paper",
      "qty": 1,
      "customItem": true,
      "name": "Kibelion",
      "nameEn": "Kibelion"
    },
    "storeName": "MOSTOR",
    "storeLocation": "Dentgino",
    "storeOwner": "AdminShop",
    "x": 3522,
    "y": 64,
    "z": 3789
  },
  {
    "id": "dentigno_barlog_4",
    "product": {
      "item": "koszmix",
      "qty": 1,
      "customItem": true,
      "name": "Kosz na śmieci - odpady zmieszane",
      "nameEn": "Kosz na śmieci - odpady zmieszane"
    },
    "villageName": "Meble Barlog",
    "price1": {
      "item": "paper",
      "qty": 1,
      "customItem": true,
      "name": "Kibelion",
      "nameEn": "Kibelion"
    },
    "storeName": "MOSTOR",
    "storeLocation": "Dentgino",
    "storeOwner": "AdminShop",
    "x": 3522,
    "y": 64,
    "z": 3789
  },
  {
    "id": "dentigno_barlog_5",
    "product": {
      "item": "koszsmieci",
      "qty": 1,
      "customItem": true,
      "name": "Kosz na śmieci",
      "nameEn": "Kosz na śmieci"
    },
    "villageName": "Meble Barlog",
    "price1": {
      "item": "paper",
      "qty": 1,
      "customItem": true,
      "name": "Kibelion",
      "nameEn": "Kibelion"
    },
    "storeName": "MOSTOR",
    "storeLocation": "Dentgino",
    "storeOwner": "AdminShop",
    "x": 3522,
    "y": 64,
    "z": 3789
  },
  {
    "id": "dentigno_barlog_6",
    "product": {
      "item": "taboret",
      "qty": 1,
      "customItem": true,
      "name": "Taboret",
      "nameEn": "Taboret"
    },
    "villageName": "Meble Barlog",
    "price1": {
      "item": "paper",
      "qty": 1,
      "customItem": true,
      "name": "Kibelion",
      "nameEn": "Kibelion"
    },
    "storeName": "MOSTOR",
    "storeLocation": "Dentgino",
    "storeOwner": "AdminShop",
    "x": 3522,
    "y": 64,
    "z": 3789
  },
  {
    "id": "dentigno_barlog_7",
    "product": {
      "item": "doniczkaazalea",
      "qty": 1,
      "customItem": true,
      "name": "Doniczka - azalea",
      "nameEn": "Doniczka - azalea"
    },
    "villageName": "Meble Barlog",
    "price1": {
      "item": "paper",
      "qty": 1,
      "customItem": true,
      "name": "Kibelion",
      "nameEn": "Kibelion"
    },
    "storeName": "MOSTOR",
    "storeLocation": "Dentgino",
    "storeOwner": "AdminShop",
    "x": 3522,
    "y": 64,
    "z": 3789
  },
  {
    "id": "dentigno_barlog_9",
    "product": {
      "item": "kwiatkokrzak",
      "qty": 1,
      "customItem": true,
      "name": "Kwiatkokrzak",
      "nameEn": "Kwiatkokrzak"
    },
    "villageName": "Meble Barlog",
    "price1": {
      "item": "paper",
      "qty": 1,
      "customItem": true,
      "name": "Kibelion",
      "nameEn": "Kibelion"
    },
    "storeName": "MOSTOR",
    "storeLocation": "Dentgino",
    "storeOwner": "AdminShop",
    "x": 3522,
    "y": 64,
    "z": 3789
  },
  {
    "id": "dentigno_barlog_10",
    "product": {
      "item": "beczkapiwa",
      "qty": 1,
      "customItem": true,
      "name": "Beczka piwa",
      "nameEn": "Beczka piwa"
    },
    "villageName": "Meble Barlog",
    "price1": {
      "item": "paper",
      "qty": 1,
      "customItem": true,
      "name": "Kibelion",
      "nameEn": "Kibelion"
    },
    "storeName": "MOSTOR",
    "storeLocation": "Dentgino",
    "storeOwner": "AdminShop",
    "x": 3522,
    "y": 64,
    "z": 3789
  },
  {
    "id": "dentigno_barlog_11",
    "product": {
      "item": "budkadlaptakow",
      "qty": 1,
      "customItem": true,
      "name": "Budka dla ptaków",
      "nameEn": "Budka dla ptaków"
    },
    "villageName": "Meble Barlog",
    "price1": {
      "item": "paper",
      "qty": 1,
      "customItem": true,
      "name": "Kibelion",
      "nameEn": "Kibelion"
    },
    "storeName": "MOSTOR",
    "storeLocation": "Dentgino",
    "storeOwner": "AdminShop",
    "x": 3522,
    "y": 64,
    "z": 3789
  },
  {
    "id": "dentigno_barlog_12",
    "product": {
      "item": "kartonik",
      "qty": 1,
      "customItem": true,
      "name": "Kartonik",
      "nameEn": "Kartonik"
    },
    "villageName": "Meble Barlog",
    "price1": {
      "item": "paper",
      "qty": 1,
      "customItem": true,
      "name": "Kibelion",
      "nameEn": "Kibelion"
    },
    "storeName": "MOSTOR",
    "storeLocation": "Dentgino",
    "storeOwner": "AdminShop",
    "x": 3522,
    "y": 64,
    "z": 3789
  },
  {
    "id": "dentigno_barlog_13",
    "product": {
      "item": "koszykzarcie",
      "qty": 1,
      "customItem": true,
      "name": "Koszyk z żarciem",
      "nameEn": "Koszyk z żarciem"
    },
    "villageName": "Meble Barlog",
    "price1": {
      "item": "paper",
      "qty": 1,
      "customItem": true,
      "name": "Kibelion",
      "nameEn": "Kibelion"
    },
    "storeName": "MOSTOR",
    "storeLocation": "Dentgino",
    "storeOwner": "AdminShop",
    "x": 3522,
    "y": 64,
    "z": 3789
  },
  {
    "id": "dentigno_barlog_14",
    "product": {
      "item": "garnekwody",
      "qty": 1,
      "customItem": true,
      "name": "Garnek z wodą",
      "nameEn": "Garnek z wodą"
    },
    "villageName": "Meble Barlog",
    "price1": {
      "item": "paper",
      "qty": 1,
      "customItem": true,
      "name": "Kibelion",
      "nameEn": "Kibelion"
    },
    "storeName": "MOSTOR",
    "storeLocation": "Dentgino",
    "storeOwner": "AdminShop",
    "x": 3522,
    "y": 64,
    "z": 3789
  },
  {
    "id": "dentigno_barlog_15",
    "product": {
      "item": "recznikpapierowy",
      "qty": 1,
      "customItem": true,
      "name": "Ręczniki papierowe",
      "nameEn": "Ręczniki papierowe"
    },
    "villageName": "Meble Barlog",
    "price1": {
      "item": "paper",
      "qty": 1,
      "customItem": true,
      "name": "Kibelion",
      "nameEn": "Kibelion"
    },
    "storeName": "MOSTOR",
    "storeLocation": "Dentgino",
    "storeOwner": "AdminShop",
    "x": 3522,
    "y": 64,
    "z": 3789
  },
  {
    "id": "dentigno_barlog_16",
    "product": {
      "item": "srajtasma",
      "qty": 1,
      "customItem": true,
      "name": "Srajtaśma",
      "nameEn": "Srajtaśma"
    },
    "villageName": "Meble Barlog",
    "price1": {
      "item": "paper",
      "qty": 1,
      "customItem": true,
      "name": "Kibelion",
      "nameEn": "Kibelion"
    },
    "storeName": "MOSTOR",
    "storeLocation": "Dentgino",
    "storeOwner": "AdminShop",
    "x": 3522,
    "y": 64,
    "z": 3789
  },
  {
    "id": "dentigno_barlog_17",
    "product": {
      "item": "butelki",
      "qty": 1,
      "customItem": true,
      "name": "Butelki",
      "nameEn": "Butelki"
    },
    "villageName": "Meble Barlog",
    "price1": {
      "item": "paper",
      "qty": 1,
      "customItem": true,
      "name": "Kibelion",
      "nameEn": "Kibelion"
    },
    "storeName": "MOSTOR",
    "storeLocation": "Dentgino",
    "storeOwner": "AdminShop",
    "x": 3522,
    "y": 64,
    "z": 3789
  },
  {
    "id": "dentigno_barlog_18",
    "product": {
      "item": "butelkizwoda",
      "qty": 1,
      "customItem": true,
      "name": "Butelki z wodą",
      "nameEn": "Butelki z wodą"
    },
    "villageName": "Meble Barlog",
    "price1": {
      "item": "paper",
      "qty": 1,
      "customItem": true,
      "name": "Kibelion",
      "nameEn": "Kibelion"
    },
    "storeName": "MOSTOR",
    "storeLocation": "Dentgino",
    "storeOwner": "AdminShop",
    "x": 3522,
    "y": 64,
    "z": 3789
  },
  {
    "id": "dentigno_barlog_19",
    "product": {
      "item": "lampasufitowa",
      "qty": 1,
      "customItem": true,
      "name": "Lampa Sufitowa",
      "nameEn": "Lampa Sufitowa"
    },
    "villageName": "Meble Barlog",
    "price1": {
      "item": "paper",
      "qty": 1,
      "customItem": true,
      "name": "Kibelion",
      "nameEn": "Kibelion"
    },
    "storeName": "MOSTOR",
    "storeLocation": "Dentgino",
    "storeOwner": "AdminShop",
    "x": 3522,
    "y": 64,
    "z": 3789
  },
  {
    "id": "baraharad_bank_1",
    "product": {
      "item": "paper",
      "qty": 1,
      "customItem": true,
      "name": "Kibelion",
      "nameEn": "Kibelion"
    },
    "villageName": "Pracownik Banku",
    "price1": {
      "item": "paper",
      "qty": 1,
      "customItem": true,
      "name": "Talon promocyjny",
      "nameEn": "Talon Promocyjny"
    },
    "storeName": "Wojewódzki Bank Centralny",
    "storeLocation": "Baraharad",
    "storeOwner": "AdminShop",
    "x": -3070,
    "y": 65,
    "z": -120
  },
  {
    "id": "baraharad_bank_2",
    "product": {
      "item": "paper",
      "qty": 1,
      "customItem": true,
      "name": "50 Kibelionów",
      "nameEn": "50 Kibelionów"
    },
    "villageName": "Pracownik Banku",
    "price1": {
      "item": "paper",
      "qty": 50,
      "customItem": true,
      "name": "Kibelion",
      "nameEn": "Kibelion"
    },
    "storeName": "Wojewódzki Bank Centralny",
    "storeLocation": "Baraharad",
    "storeOwner": "AdminShop",
    "x": -3070,
    "y": 65,
    "z": -120
  },
  {
    "id": "baraharad_bank_3",
    "product": {
      "item": "paper",
      "qty": 50,
      "customItem": true,
      "name": "Kibelion",
      "nameEn": "Kibelion"
    },
    "villageName": "Pracownik Banku",
    "price1": {
      "item": "paper",
      "qty": 1,
      "customItem": true,
      "name": "50 Kibelionów",
      "nameEn": "50 Kibelionów"
    },
    "storeName": "Wojewódzki Bank Centralny",
    "storeLocation": "Baraharad",
    "storeOwner": "AdminShop",
    "x": -3070,
    "y": 65,
    "z": -120
  },
  {
    "id": "baraharad_bank_4",
    "product": {
      "item": "paper",
      "qty": 1,
      "customItem": true,
      "name": "1000 Kibelionów",
      "nameEn": "1000 Kibelionów"
    },
    "villageName": "Pracownik Banku",
    "price1": {
      "item": "paper",
      "qty": 20,
      "customItem": true,
      "name": "50 Kibelionów",
      "nameEn": "50 Kibelionów"
    },
    "storeName": "Wojewódzki Bank Centralny",
    "storeLocation": "Baraharad",
    "storeOwner": "AdminShop",
    "x": -3070,
    "y": 65,
    "z": -120
  },
  {
    "id": "baraharad_bank_5",
    "product": {
      "item": "paper",
      "qty": 20,
      "customItem": true,
      "name": "50 Kibelionów",
      "nameEn": "50 Kibelionów"
    },
    "villageName": "Pracownik Banku",
    "price1": {
      "item": "paper",
      "qty": 1,
      "customItem": true,
      "name": "1000 Kibelionów",
      "nameEn": "1000 Kibelionów"
    },
    "storeName": "Wojewódzki Bank Centralny",
    "storeLocation": "Baraharad",
    "storeOwner": "AdminShop",
    "x": -3070,
    "y": 65,
    "z": -120
  },
  {
    "id": "baraharad_bank_6",
    "product": {
      "item": "gold_block",
      "qty": 34,
      "name": "Blok złota",
      "nameEn": "Block of Gold"
    },
    "villageName": "Pracownik Banku",
    "price1": {
      "item": "skull_banner_pattern",
      "qty": 1,
      "enchanted": true,
      "customItem": true,
      "name": "Obligacje skarbowe",
      "nameEn": "Obligacje skarbowe"
    },
    "storeName": "Wojewódzki Bank Centralny",
    "storeLocation": "Baraharad",
    "storeOwner": "AdminShop",
    "x": -3070,
    "y": 65,
    "z": -120
  },
  {
    "id": "spawnowice_szostka_4",
    "product": {
      "item": "firework_rocket",
      "qty": 64,
      "name": "Fajerwerk (Czas lotu: 1)",
      "nameEn": "Firework Rocket (Flight Duration: 1)"
    },
    "villageName": "Ździchu",
    "price1": {
      "item": "paper",
      "qty": 10,
      "customItem": true,
      "name": "Kibelion",
      "nameEn": "Kibelion"
    },
    "storeName": "Szóstka",
    "storeLocation": "Spawnowice",
    "storeOwner": "Miersetnik",
    "x": -247,
    "y": 67,
    "z": -78
  }
]